{"type":"FeatureCollection","features":[{"type":"Feature","properties":{"cve_ent":"01","cvegeo":"01","nombre_inegi":"Aguascalientes","nombre_catalogo":"Aguascalientes"},"geometry":{"type":"Polygon","coordinates":[[[-102.29007639999998,22.419917949334195],[-102.29830684999996,22.459589679333263],[-102.31180479999995,22.45691581933331],[-102.31204004999995,22.440818199333652],[-102.32103050999997,22.41829134933421],[-102.32136471999996,22.388532649334902],[-102.36287707899999,22.388747280334904],[-102.35925027899998,22.38495169033495],[-102.37844281899999,22.360878580335545],[-102.38787899999994,22.364141199335474],[-102.43233384999998,22.357458079335647],[-102.45105888899998,22.35212554933574],[-102.46564584999999,22.350194799335792],[-102.46864194999995,22.35188147933573],[-102.47118781999995,22.33625487933614],[-102.46809330999999,22.332388029336222],[-102.46102085999996,22.33175887933622],[-102.46185013999997,22.326979419336332],[-102.46066150999997,22.323691109336387],[-102.46371329,22.321166259336458],[-102.46608419999995,22.322281479336468],[-102.46724377999999,22.3120315193367],[-102.47020162999996,22.309210199336746],[-102.48853117999994,22.305408319336816],[-102.48909239999995,22.30348314933687],[-102.50126510999996,22.304269769336887],[-102.50663071999998,22.29381253933709],[-102.52703933999999,22.290899029337176],[-102.66874284999994,22.29187104933716],[-102.67001704999996,22.24570242933825],[-102.64138711999999,22.228447539338635],[-102.64168494999997,22.22635565933867],[-102.63929893999995,22.22603917933869],[-102.64371071999994,22.221172109338813],[-102.64580234999994,22.213211829338988],[-102.64582154999994,22.20430604933923],[-102.65527667999999,22.19497659933946],[-102.65159597999997,22.19314022933946],[-102.66107762999997,22.190904829339498],[-102.66512696999997,22.194115059339456],[-102.66931007999995,22.194023579339472],[-102.66671834999994,22.180940979339773],[-102.66874757999994,22.17793830933984],[-102.67473251999998,22.177966379339825],[-102.67589450999999,22.1755725193399],[-102.67549173999998,22.168495779340066],[-102.66941568999995,22.15958957934027],[-102.67405431999998,22.15125008934049],[-102.67434470999997,22.147781429340565],[-102.67928941999998,22.145048579340592],[-102.68244094,22.145925249340596],[-102.68102277999998,22.14371885934063],[-102.68173368,22.14107408934072],[-102.68612113999997,22.137908849340754],[-102.68586615,22.133214089340857],[-102.68341413999997,22.129913579340972],[-102.68750508999995,22.124215579341108],[-102.69014194999994,22.123394979341125],[-102.69185624999996,22.114779649341326],[-102.69086522999999,22.1065550293415],[-102.69776648,22.10151571934166],[-102.70942084999996,22.096845489341764],[-102.71048910999997,22.093886139341812],[-102.72866684999998,22.08850505934194],[-102.75580570999996,22.073662079342323],[-102.75637944999995,22.068320629342434],[-102.75318025999998,22.063257819342528],[-102.75557210999995,22.061060119342578],[-102.75547308999997,22.056300599342702],[-102.75943462,22.05142481934279],[-102.76098973999996,22.046286739342918],[-102.77046484999994,22.041597889343045],[-102.76769310999998,22.039975309343077],[-102.76898125999998,22.037822889343122],[-102.77426556999995,22.036048139343187],[-102.77632261999997,22.031024909343294],[-102.78228607999996,22.028132059343392],[-102.78331024999996,22.01769191934363],[-102.79149861999997,22.01598834934365],[-102.79559968999997,22.008985149343836],[-102.80104968999997,22.00394099934395],[-102.82073082999995,21.964244739344846],[-102.82322329,21.95554237934509],[-102.83372501999999,21.94030339934546],[-102.83728974999998,21.94061770934542],[-102.83825044999999,21.939298649345492],[-102.83933642999996,21.933672539345597],[-102.84364333999997,21.92599336934581],[-102.84429962999997,21.916467029346006],[-102.84622056999997,21.915398139346028],[-102.84609464999994,21.9137391993461],[-102.84335033999999,21.912370949346094],[-102.84918761999997,21.906722999346254],[-102.85185665999995,21.89554545934651],[-102.85484205999995,21.891628859346582],[-102.85369427999996,21.89063465934663],[-102.85664931999997,21.887794459346715],[-102.85574727999996,21.883761089346816],[-102.86054613999994,21.880259689346897],[-102.85960756999998,21.87487145934701],[-102.86241381999997,21.871339779347068],[-102.86338011999999,21.863765779347265],[-102.87282539999997,21.856428619347426],[-102.87417657999998,21.85277099934755],[-102.87092330999997,21.84615056934772],[-102.86456959999998,21.84352690934774],[-102.85805096999997,21.83322634934801],[-102.85274554999995,21.834317819347945],[-102.84731474999995,21.833409219348017],[-102.84752271999997,21.828591849348125],[-102.85028565999994,21.825088579348197],[-102.84725584999995,21.82239261934829],[-102.84754474999995,21.818940199348337],[-102.84949042999996,21.813692689348457],[-102.85179110999997,21.811937749348484],[-102.85011553999999,21.80954045934856],[-102.85334505999998,21.79905314934884],[-102.84596214,21.799983259348775],[-102.84225074999995,21.804757200348657],[-102.84240485999999,21.79853071934881],[-102.83930907999998,21.796865489348892],[-102.83126215,21.797248579348835],[-102.82999349,21.793142889348967],[-102.82707390999997,21.79044753934902],[-102.82719539999995,21.787073019349087],[-102.82009511999998,21.778456819349284],[-102.82133024999996,21.777830599349343],[-102.82112513999999,21.773435619349428],[-102.81691625999999,21.766475369349557],[-102.80599111999999,21.763965689349682],[-102.80370410999996,21.761238659349722],[-102.79230964999999,21.754990119349877],[-102.78520485999998,21.74565339935008],[-102.77825627999994,21.742674949350146],[-102.77950817999994,21.739871579350226],[-102.77569696999996,21.734589399350362],[-102.77218090999997,21.737823769350264],[-102.74410953999997,21.719180819350747],[-102.74162637999997,21.721000109350662],[-102.73732339999998,21.715608969350807],[-102.73522248999997,21.71567077935079],[-102.72211614999998,21.719554109350707],[-102.71880984999996,21.727003119350545],[-102.71974729,21.728821249350496],[-102.71764977999999,21.733126889350384],[-102.71560519999998,21.73409127935034],[-102.71402474999998,21.730097779350444],[-102.69626328999999,21.728768019350515],[-102.69533285999995,21.73254616935039],[-102.69742707999997,21.73456250935035],[-102.69731753999999,21.74151366135018],[-102.69230656999997,21.746590979350074],[-102.69066856999996,21.752437199349902],[-102.67876757999994,21.753173739349872],[-102.67524791999995,21.75556182934983],[-102.67185981999995,21.761925649349664],[-102.66892635,21.764051449349665],[-102.66591758,21.764731649349628],[-102.65957562999995,21.76238371934969],[-102.65092330999994,21.765422219349617],[-102.64353911999996,21.761884489349704],[-102.63349382999996,21.767339459349586],[-102.61812327999998,21.75565177934984],[-102.61349374999998,21.75504407934987],[-102.60631216999998,21.75105721934997],[-102.60120830999995,21.755768879349855],[-102.59677431999997,21.754981999349855],[-102.59627873999995,21.744049629350144],[-102.57482159999995,21.742286219350156],[-102.56742099999997,21.74459170935013],[-102.55249371999997,21.742651029350146],[-102.54895019999998,21.738593399350275],[-102.54097661999998,21.735580369350316],[-102.54245242999997,21.732604369350405],[-102.47652174999996,21.70208494935111],[-102.47575654999997,21.69494514935127],[-102.46836184999995,21.697903119351214],[-102.45686376999998,21.698087539351246],[-102.45459794,21.689476509351458],[-102.45213236999996,21.6869107093515],[-102.45467385999996,21.685234109351555],[-102.45446251999999,21.682474709351602],[-102.4610664,21.679259089351696],[-102.45245317999996,21.678383709351696],[-102.45391865,21.681015059351626],[-102.45120577999995,21.681958819351593],[-102.44145494999998,21.67341916935182],[-102.42500648999999,21.67175499935188],[-102.41337031999996,21.666808599351942],[-102.40459496999995,21.665593199351992],[-102.40749308999995,21.65948487935214],[-102.38694410999994,21.653782689352308],[-102.38732094999995,21.652628749352335],[-102.38508599999994,21.65203899935234],[-102.36952618,21.650591909352375],[-102.36687356999994,21.642751919352513],[-102.32572205999998,21.62226647935306],[-102.32105081999998,21.63009227935284],[-102.31016568999998,21.626626029352952],[-102.29537077999998,21.65309871935231],[-102.30264856999997,21.654600279352284],[-102.30193470999995,21.66126921935212],[-102.30399030999997,21.66668471935196],[-102.27944151999998,21.66443731935203],[-102.27963411999997,21.66064779935212],[-102.27521911999997,21.65397371935229],[-102.25091605999997,21.655144049352245],[-102.23761750999996,21.65200136935233],[-102.22636265999995,21.65777434935221],[-102.22054554999994,21.671575919351874],[-102.22169810999999,21.672488179351866],[-102.21800817999997,21.677685939351722],[-102.21854244999997,21.683426229351586],[-102.21423165999995,21.68660361935148],[-102.21426675,21.694818859351308],[-102.17788591999994,21.68815530935147],[-102.17143277999998,21.707000979351],[-102.16642968999999,21.70601264935103],[-102.16659528999999,21.7024954793511],[-102.15485739999997,21.700038169351153],[-102.14730787999997,21.705776249351032],[-102.14558651,21.704441599351075],[-102.14363908999998,21.70624888935101],[-102.14209971999998,21.70537428935107],[-102.13634604999999,21.720493369350677],[-102.13026521999996,21.72319154935059],[-102.12828805,21.726679719350543],[-102.12559817,21.72572337935054],[-102.12089311999995,21.73644656935031],[-102.11557882999996,21.736038119350315],[-102.11386447999996,21.7407605393502],[-102.11642711999997,21.74306185935017],[-102.11591176999998,21.744677649350088],[-102.11174057999995,21.74550750935008],[-102.10934304999996,21.749437259349985],[-102.10428794999996,21.750973569349952],[-102.10462542,21.75341661934991],[-102.10219981999995,21.753915709349897],[-102.10336671999994,21.758359089349792],[-102.10205663,21.761044049349735],[-102.08618065999997,21.76726388934955],[-102.09457050999998,21.77770164934931],[-102.08307421999997,21.787066889349116],[-102.07196273899996,21.782654749349213],[-102.06372119999999,21.79773581934887],[-102.05797981999997,21.80187008934871],[-102.05286742999999,21.81333779934848],[-102.05512373699999,21.81635677034842],[-102.04174293999995,21.823067649348232],[-102.04107788999994,21.835827349347937],[-102.03862123,21.835623829347927],[-102.03841750999999,21.8531980463475],[-102.02079442999997,21.851167629347593],[-102.01995401999996,21.86253610934731],[-101.88021261999995,21.910149779346163],[-101.83800336999997,21.907344369346216],[-101.83528944999995,21.941770579345384],[-101.84512198,21.944167549345345],[-101.85660276999994,21.943147849345394],[-101.86530556999998,21.947510799345256],[-101.86755119999998,21.945143939345318],[-101.87267130999999,21.946514379345302],[-101.87965536999997,21.943894849345366],[-101.88459053999998,21.93922214934546],[-101.88176197999996,21.93813202934553],[-101.88579987999998,21.93261162934564],[-101.89037459999999,21.950950149345193],[-101.89778021999997,21.958387910345014],[-101.89583122999994,21.963332200344933],[-101.89822730999998,21.983263030344418],[-101.90006984999998,21.986724430344328],[-101.90372024999999,21.985826310344354],[-101.90944571999995,21.989024030344286],[-101.91259848999994,21.9974857403441],[-101.90683524999997,21.992006119344214],[-101.89473404999995,21.989656420344296],[-101.89511474999996,21.98448998034438],[-101.89125250999996,21.97659205034461],[-101.86379870999997,21.990015660344252],[-101.86103810999998,21.99874571034404],[-101.86225107999996,22.00615085034386],[-101.86037213999998,22.007885230343845],[-101.86215633999996,22.008777460343794],[-101.86102350999994,22.010681970343793],[-101.86217064999995,22.014685370343685],[-101.86038661999999,22.01738194034363],[-101.86114361999995,22.021106430343572],[-101.85832834999998,22.020898220343526],[-101.86106584999999,22.022089880343522],[-101.86058597999995,22.027976800343342],[-101.86206542999997,22.028215800343364],[-101.85915459999995,22.034418260343205],[-101.86149129099994,22.035902538343205],[-101.85516287999998,22.04179854034305],[-101.85415982999996,22.044344680342974],[-101.85565517999999,22.045117480342956],[-101.85519153999996,22.046511170342967],[-101.86229336999997,22.046736550342917],[-101.86427510999994,22.04150948034305],[-101.88314393999997,22.055485059342697],[-101.96757393999997,22.11120247934138],[-101.98602794999994,22.120827449341157],[-102.00816514999997,22.123752169341106],[-102.02591517999998,22.129770999340987],[-102.01707548999998,22.153961279340386],[-102.04522131,22.153733229340407],[-102.04327051999996,22.158712719340276],[-102.04077477999999,22.159741659340277],[-102.04109447999997,22.161799229340208],[-102.03773733999998,22.159776089340244],[-102.02946713999995,22.16866561934008],[-102.00099307999994,22.168110549340064],[-102.00096244999997,22.193949819339462],[-101.99908422999995,22.208321219339137],[-101.99971607999998,22.23365602933855],[-102.00247462999994,22.24144405933834],[-102.02249457899997,22.241585490338313],[-102.02228976699996,22.245829581338242],[-102.02921025999997,22.26900467933767],[-102.02976388999997,22.27836325933746],[-102.02799927999996,22.278659969337447],[-102.02988251999996,22.28899299933723],[-102.03178993999995,22.288899549337227],[-102.03726965,22.298975679337012],[-102.04233673999995,22.297013849337027],[-102.04178071999996,22.295203629337088],[-102.04348324999995,22.293922149337135],[-102.05121357999997,22.29121302933716],[-102.05840776999999,22.29365485933713],[-102.0556638,22.295306169337092],[-102.05760444999999,22.296147539337067],[-102.05673139999999,22.299937799336977],[-102.07562704999998,22.30607277933681],[-102.08957139999997,22.288998859337216],[-102.09092467999994,22.29120717933719],[-102.10524985999996,22.280792829337425],[-102.10780648999999,22.282730459337365],[-102.10658379999995,22.28536545933729],[-102.15323047999999,22.29041021933721],[-102.14984747999995,22.347175059335854],[-102.18072210999998,22.35039793933579],[-102.17737533999998,22.362429739335496],[-102.211979199,22.362465179335523],[-102.21198681999999,22.372697319335252],[-102.22333065999999,22.371336399335323],[-102.22517159999995,22.374062659335227],[-102.22813254,22.374680909335215],[-102.23557696999997,22.373543879335248],[-102.25320071,22.3744945093352],[-102.25494322999998,22.37886836933515],[-102.25056548999999,22.38085391933507],[-102.24917570999997,22.385639349334994],[-102.25029936999994,22.38722170933493],[-102.25362544999996,22.388817889334877],[-102.25364344999997,22.387421349334932],[-102.25524871999994,22.387428659334937],[-102.25563085999994,22.39144730933482],[-102.26081044999995,22.395663819334715],[-102.26095042999998,22.398604049334683],[-102.26430721999998,22.399215319334647],[-102.26739404999996,22.40656667933445],[-102.27305419999999,22.40877259933445],[-102.27091788999996,22.411751779334335],[-102.27398105999998,22.414331149334316],[-102.28183928999995,22.41380416933429],[-102.28537562999999,22.417120579334252],[-102.28752816999999,22.416076579334227],[-102.29007639999998,22.419917949334195]]]}}]}
