{"type":"FeatureCollection","features":[{"type":"Feature","properties":{"cve_ent":"04","cvegeo":"04","nombre_inegi":"Campeche","nombre_catalogo":"Campeche"},"geometry":{"type":"MultiPolygon","coordinates":[[[[-90.37935699999997,20.84832728937183],[-90.39984719899996,20.845286800371902],[-90.40452434899998,20.84676358037189],[-90.40506316699998,20.84519886637189],[-90.40333718499994,20.843956692371947],[-90.40422052999998,20.83976763237207],[-90.41539847599995,20.816896877372585],[-90.41616252499995,20.803501597372918],[-90.41506241799999,20.800840060372998],[-90.41425816099996,20.800821024373015],[-90.41539669399998,20.802539811372988],[-90.41512381999996,20.80729255137284],[-90.41410151299999,20.800743885373045],[-90.41492438399996,20.7759365613736],[-90.40683024599997,20.776360479373608],[-90.40747833899997,20.768274352373798],[-90.41057687199998,20.76500663837387],[-90.41070774799994,20.760179308373978],[-90.41441673399999,20.754203880374124],[-90.41792941199998,20.752686973374168],[-90.42379818399996,20.746374506374337],[-90.43117170299996,20.74658068437432],[-90.43045549099998,20.73743403637459],[-90.43388667299996,20.728178247374817],[-90.44850592499995,20.716276611375097],[-90.45401312799999,20.70331160437544],[-90.45501851299997,20.69819167437551],[-90.45336170599995,20.690151184375733],[-90.45487883899995,20.68958103237572],[-90.45321577899995,20.690047562375753],[-90.45254671999999,20.68573263237584],[-90.45130500499994,20.69041940337575],[-90.45320026399997,20.696050538375594],[-90.44824375999997,20.70997444437526],[-90.44804146699994,20.715359752375086],[-90.44332061699998,20.719188310375],[-90.44405824899997,20.71781297537507],[-90.44165499499996,20.713670339375184],[-90.44131094299996,20.697171775375573],[-90.44382721499994,20.693513355375636],[-90.44260476799997,20.691704962375713],[-90.44377249099995,20.69062825937572],[-90.44148820599997,20.68479263037587],[-90.44348481999998,20.682289441375946],[-90.44210464699995,20.68130385637595],[-90.44230579699996,20.678709544376026],[-90.44555137599997,20.673964892376144],[-90.44495889699994,20.667528457376296],[-90.44730028699996,20.649216119376764],[-90.44560539099996,20.647722028376762],[-90.44682715599998,20.647708237376797],[-90.44639370599998,20.64333884937693],[-90.44882857799996,20.637576163377048],[-90.44817354399999,20.633775795377147],[-90.45055538999998,20.632405229377188],[-90.45403415599998,20.62327761337742],[-90.45332270299997,20.62165958137745],[-90.45666346699994,20.617345623377535],[-90.45650166599995,20.61564906137757],[-90.45326559399996,20.615108925377605],[-90.45308475999997,20.61328864437766],[-90.45709652399995,20.611025770377722],[-90.45763854399996,20.6038602983779],[-90.46247980299995,20.59891340837798],[-90.46448695899994,20.584760616378325],[-90.46603899499996,20.58513347437837],[-90.46878728099995,20.581798416378437],[-90.47246484699997,20.570066984378695],[-90.48238589199997,20.557195269379005],[-90.48193903799995,20.55431421237912],[-90.48414736899997,20.55129967337919],[-90.48572833299994,20.542087139379394],[-90.49465080499994,20.523597318379842],[-90.49499285199994,20.520825244379896],[-90.49318936099996,20.51933054837999],[-90.49588812499996,20.51564099238004],[-90.49716648599997,20.507726509380266],[-90.50231260199996,20.49756406338054],[-90.50200446499997,20.49330839838062],[-90.49943928499994,20.493744411380632],[-90.50253746299995,20.488761254380723],[-90.50215437099996,20.471821865381127],[-90.50075454799997,20.471251474381138],[-90.49496550899994,20.475757574381063],[-90.49682743999995,20.477958572380963],[-90.49379956999996,20.479320818380973],[-90.49117621799996,20.478714048381004],[-90.48883839999996,20.47387184838109],[-90.48237221299996,20.470177731381163],[-90.47786908599994,20.470320503381163],[-90.47588222899998,20.473580359381078],[-90.47498398099998,20.4705822383812],[-90.48549704399994,20.462865059381386],[-90.48726676499996,20.463022693381397],[-90.49079377199996,20.467320832381247],[-90.49354917899996,20.466207243381273],[-90.49822124899998,20.469211121381207],[-90.50056061799995,20.468933953381196],[-90.50261647899998,20.464120297381367],[-90.50071528999996,20.45579932138157],[-90.49902646099997,20.453609623381578],[-90.49735489599999,20.45580467538156],[-90.49586845899995,20.45538700938156],[-90.49435677199995,20.448521743381747],[-90.49265701899998,20.447544228381787],[-90.49335382999999,20.443567705381874],[-90.49162058699994,20.43899065038196],[-90.49630574699995,20.434820050382054],[-90.49649466899996,20.429170891382217],[-90.49511318299994,20.423819068382333],[-90.49237931799996,20.421883452382417],[-90.49422846999994,20.421296723382415],[-90.49186543599996,20.413240667382624],[-90.49265658099995,20.405810459382796],[-90.48823818499994,20.407974445382717],[-90.48615377899995,20.406296918382786],[-90.48990628099995,20.40526075738281],[-90.49057062999998,20.401583063382873],[-90.48420370199995,20.37526638338355],[-90.48286406399995,20.37451209938359],[-90.48564386799995,20.369095852383683],[-90.48463854599999,20.368875744383693],[-90.48644991399999,20.362814067383848],[-90.48982280099995,20.357567357383985],[-90.48915717699998,20.355578803384056],[-90.49338901599998,20.349016169384182],[-90.49195538999999,20.347249422384262],[-90.48930946999997,20.34806208738426],[-90.48800250799997,20.34676460338426],[-90.49659533899995,20.34231798738437],[-90.49668395899994,20.340921772384405],[-90.49462994599998,20.340695284384406],[-90.49122370599997,20.331741286384656],[-90.48879367799998,20.330857906384665],[-90.49034033399994,20.3293707513847],[-90.48998899999998,20.320635795384906],[-90.49225959599994,20.311321789385122],[-90.48861506099996,20.300167987385432],[-90.49048531399995,20.292636992385596],[-90.48936696999994,20.282129293385907],[-90.49212118999998,20.272258098386143],[-90.48839853299995,20.251260545386625],[-90.48965845599997,20.247523602386753],[-90.48780327999998,20.241316658386918],[-90.48805874499999,20.22987469738721],[-90.48650329499998,20.22163269338739],[-90.48909960699996,20.21562707638753],[-90.48540445799995,20.214060766387576],[-90.48099265499997,20.210077585387705],[-90.48048464099998,20.20890332738775],[-90.48395585699996,20.211664305387647],[-90.48675469699998,20.211804101387628],[-90.48754336499996,20.208314369387725],[-90.48557611099994,20.20426595038781],[-90.48031940599998,20.20434875538784],[-90.47923865499996,20.2054823303878],[-90.48069631299995,20.206830057387755],[-90.48038829399997,20.20842121938772],[-90.47936203599994,20.20803096538771],[-90.47843587399996,20.205153697387825],[-90.48071577499996,20.20298388238788],[-90.48067156599996,20.19968953338797],[-90.47786983499998,20.191714196388165],[-90.47929999699994,20.18769881738826],[-90.47743211199997,20.185206338388305],[-90.47957957999995,20.181509251388427],[-90.47852991199994,20.179815413388475],[-90.47965691699994,20.18026895438842],[-90.47983473599999,20.17342883538859],[-90.48846143499998,20.169988661388683],[-90.49515069399996,20.160099022388927],[-90.49213038499994,20.148945804389218],[-90.48990695799995,20.14413581938934],[-90.48879753599994,20.144498681389337],[-90.48767908699995,20.136234754389527],[-90.48173351099996,20.126048942389797],[-90.48120110799994,20.117902256389986],[-90.47877446999996,20.11320674039012],[-90.48054716899998,20.107536478390244],[-90.47865918499997,20.10466132739037],[-90.48105054999996,20.099775108390475],[-90.48014742799995,20.096336355390548],[-90.48466780599995,20.09266171139064],[-90.48661480199996,20.087513322390773],[-90.48532501499994,20.07892139039099],[-90.48608518899994,20.069281857391246],[-90.49123444499998,20.061255295391444],[-90.48531244199995,20.051107941391678],[-90.48533565199995,20.048530580391727],[-90.47970293599997,20.041554308391927],[-90.47857151099998,20.030972441392198],[-90.47618799599996,20.03051705539222],[-90.46807851999995,20.02143367639244],[-90.46885033299998,20.020270501392492],[-90.46544098299995,20.015130086392592],[-90.46256421499999,20.014030773392605],[-90.46328519099995,20.007556265392786],[-90.46128320299994,20.00264700239291],[-90.46563372799994,19.99816929039304],[-90.47313711299995,19.994802017393084],[-90.47001669399998,19.991644805393197],[-90.47066628699997,19.985769914393334],[-90.46611825799994,19.98222827339339],[-90.46692577499994,19.980723079393492],[-90.46118651699999,19.972949376393675],[-90.46040620799994,19.974534918393633],[-90.45209221699997,19.9741486313936],[-90.45226151999998,19.969026584393756],[-90.45457614299994,19.965001959393856],[-90.45375140199997,19.96190464239391],[-90.45162810099998,19.95956480839397],[-90.44939294999995,19.961389659393966],[-90.44862641999998,19.961520539393938],[-90.44730496999995,19.95947281939397],[-90.44908248999997,19.961239429393935],[-90.45189776199999,19.958585039394023],[-90.45248498199999,19.95212693939416],[-90.45801320399994,19.945833806394322],[-90.45723459299995,19.94210595039441],[-90.46183580599995,19.934216089394656],[-90.46206780599994,19.930325670394723],[-90.46566197299995,19.9310002463947],[-90.47218288699997,19.92512535839487],[-90.47331328799999,19.922408082394924],[-90.47228862899999,19.920065218394974],[-90.47638876599996,19.91609683139509],[-90.47696399699998,19.91111882739521],[-90.48268696499997,19.904979844395392],[-90.49296079799996,19.8850540273959],[-90.49651570999998,19.884726163395865],[-90.50030620299998,19.88092804239597],[-90.50118235499997,19.87596008539613],[-90.50887807999999,19.866247745396368],[-90.52149219799998,19.858798842396542],[-90.52912682099998,19.86595219339636],[-90.53188342699997,19.863253884396446],[-90.52943162999998,19.865423879396364],[-90.52865867599996,19.864649713396403],[-90.53134209899997,19.86327886839643],[-90.53048386199998,19.86227448039644],[-90.52799554899997,19.8644189673964],[-90.52471570499995,19.861245422396493],[-90.52573016999997,19.860320701396486],[-90.52211109599995,19.85836125939654],[-90.53462233999994,19.853098680396702],[-90.54868179999994,19.839457969397053],[-90.55605114399998,19.834103524397175],[-90.55734166399998,19.834982842397128],[-90.56002294999996,19.83135382939725],[-90.57015663199996,19.8259329513974],[-90.57161485599994,19.827376902397365],[-90.57140985799998,19.82521924539742],[-90.57245357899995,19.827112710397333],[-90.57204753999997,19.824816579397407],[-90.58459541599996,19.817917347397568],[-90.58646445699998,19.81822643939756],[-90.58593727399995,19.816829618397584],[-90.59005102799995,19.814016422397682],[-90.59322622399998,19.817060524397593],[-90.59161874899996,19.81452865439768],[-90.59501324599995,19.812587092397713],[-90.59564881999995,19.813350769397708],[-90.59813216899994,19.81301563839773],[-90.59490109099994,19.811989453397754],[-90.59826816499998,19.811495885397743],[-90.59885790499999,19.808191281397832],[-90.61346766699995,19.799468643398054],[-90.61164252399999,19.799795813398042],[-90.61225145899994,19.79824605939808],[-90.61374052299999,19.797608934398077],[-90.61395224799998,19.798999604398073],[-90.61421464599994,19.799178732398083],[-90.61442713199995,19.79917671839806],[-90.61397078699997,19.79890970539808],[-90.61398291899997,19.797147370398108],[-90.61424019699996,19.797248797398108],[-90.61430059299994,19.798822419398043],[-90.61434715299998,19.798871240398043],[-90.61492352599998,19.796838432398122],[-90.62341479299994,19.79418808339818],[-90.62914812699995,19.788340346398314],[-90.63114741899994,19.78968688739831],[-90.63164152199994,19.787302709398364],[-90.63053821099999,19.788644632398317],[-90.62894223799998,19.787010838398373],[-90.63418964499994,19.781385547398518],[-90.66130609599998,19.758897583399094],[-90.66588543699999,19.750801964399294],[-90.66628081399995,19.744545457399457],[-90.67024889299995,19.735385943399663],[-90.66671625999999,19.728762255399836],[-90.67097831699994,19.717431659400138],[-90.67938400199995,19.706354310400403],[-90.68399641999997,19.70308045240048],[-90.68971997499995,19.692274515400772],[-90.70697765599994,19.675694835401192],[-90.70711447599996,19.67201856040131],[-90.71236210699999,19.67170562340127],[-90.70813129299995,19.670325978401323],[-90.70719021599996,19.67133368040134],[-90.70688461399999,19.66898698940138],[-90.70409226999999,19.666743067401445],[-90.70407609699998,19.6605089164016],[-90.70636037899999,19.65466733940174],[-90.74368082799998,19.6550888604017],[-90.74038432399999,19.6547961024017],[-90.74008484699999,19.652284691401764],[-90.73797425199996,19.65221306440181],[-90.73767477499996,19.654755812401746],[-90.71055551799998,19.654402158401712],[-90.70967615999996,19.64967079140186],[-90.70627252999998,19.654393205401753],[-90.70634809699999,19.64926598340188],[-90.70743565499998,19.649155595401893],[-90.69940448299997,19.648703390401856],[-90.69152444299993,19.642743683402013],[-90.69063393799996,19.640404450402098],[-90.69506904099995,19.63843678240212],[-90.69574167499997,19.63673324040219],[-90.69495257799997,19.638322616402128],[-90.68966471399995,19.63961219040209],[-90.68622636499998,19.6319051374023],[-90.68555610799996,19.625363711402457],[-90.68730809199997,19.61470525340276],[-90.69377546699997,19.59546374140324],[-90.70714367099998,19.568527443403916],[-90.71191622299995,19.5622861834041],[-90.70973598599994,19.56064654840415],[-90.70634912099996,19.560843260404127],[-90.70411418999998,19.553569065404282],[-90.70515199299996,19.545177386404493],[-90.70790283599996,19.539090188404664],[-90.70734753299996,19.535542205404788],[-90.71110147999997,19.527526210404986],[-90.71004055899994,19.523494131405084],[-90.70952360499996,19.52558305040505],[-90.70858693699995,19.523942545405085],[-90.71075877699997,19.514555331405298],[-90.70966125099994,19.50870458640547],[-90.70407940399997,19.500536432405653],[-90.70295640799998,19.48657481440601],[-90.70771023499998,19.468001964406486],[-90.70595738099996,19.461388563406683],[-90.71029482199998,19.446601234407048],[-90.71040426099995,19.43950506340724],[-90.71532730999996,19.423068298407625],[-90.72504621899998,19.401906567408215],[-90.72582894399994,19.385954429408574],[-90.72203583999999,19.36530330940915],[-90.72266276599998,19.358913789409282],[-90.72529763299997,19.358010602409294],[-90.72857095799998,19.35339130540944],[-90.74049964699998,19.329583865410065],[-90.74839852499997,19.321593048410268],[-90.75831414199996,19.307702078410586],[-90.79617079499997,19.27192957541153],[-90.82601967399995,19.249858367412106],[-90.85247435799994,19.22647119641268],[-90.85531071099996,19.226072910412746],[-90.85368210699994,19.224725870412737],[-90.85565220499996,19.225321484412735],[-90.85539113699997,19.22341980441278],[-90.89744781899998,19.187803133413688],[-90.89920255999994,19.183728284413796],[-90.99331757599998,19.11929050141549],[-91.03457339599998,19.096237678416095],[-91.08053443999995,19.067927931416794],[-91.09229135599998,19.056784915417072],[-91.11120152399997,19.044215291417423],[-91.11089128499998,19.037535861417577],[-91.11815850799996,19.031969947417732],[-91.16327030799994,19.006594878418372],[-91.18549041899996,18.996571376418668],[-91.18422464399998,18.993978507418728],[-91.18559235199996,18.995757965418683],[-91.18574555999999,18.993359451418737],[-91.20500702699997,18.983021477419026],[-91.23606398999999,18.968239103419425],[-91.28901591999994,18.94755861341995],[-91.32944891099999,18.92876087142042],[-91.39649022499998,18.89007083542145],[-91.42115714299996,18.86497255142207],[-91.44995412899999,18.83049039842297],[-91.49747139499999,18.79196496042401],[-91.50071061799997,18.78585744942414],[-91.49826167599997,18.78163798842425],[-91.52239859299999,18.765615877424686],[-91.52847130999999,18.768985897424585],[-91.53065796299995,18.780096918424324],[-91.53435982499997,18.7797650054243],[-91.54939539399999,18.769342760424596],[-91.55780916699996,18.76554514842467],[-91.63930689299997,18.732935813425506],[-91.64937201499998,18.727348843425688],[-91.65124702399999,18.723627362425777],[-91.66247157499998,18.716994597425934],[-91.68541717499994,18.711551348426084],[-91.69692791599994,18.706785536426196],[-91.69921220499998,18.70537690242626],[-91.70085984799994,18.69857687042644],[-91.71964663399996,18.68830519142668],[-91.74356091999994,18.679067717426946],[-91.79369764199998,18.667106157427224],[-91.84134054299994,18.664257652427327],[-91.85228476399999,18.654692593427573],[-91.85510219999998,18.651162918427676],[-91.85286801099994,18.653510587427622],[-91.85041396799994,18.64787500342778],[-91.84828348499997,18.64718130642776],[-91.85404484099996,18.647280395427767],[-91.85019823299996,18.64605348542778],[-91.84801157999999,18.647246163427745],[-91.84628419499995,18.644330122427828],[-91.84400246799999,18.647069739427796],[-91.84468221999998,18.64333037742786],[-91.84256854799997,18.642629353427907],[-91.84366567299998,18.64176816142793],[-91.84121852499999,18.642117680427905],[-91.83118001799994,18.63103471542819],[-91.82587391399994,18.63019768942822],[-91.85668616599997,18.612631581428694],[-91.87853486799997,18.61774217642852],[-91.90087626799999,18.630159843428217],[-91.91491746699995,18.6419917134279],[-91.92208797299998,18.65913810942749],[-91.92699432099994,18.66680064642727],[-91.93952392299997,18.678481333426923],[-91.95094517999996,18.692907388426562],[-91.95659244999996,18.695825205426505],[-91.97596338999995,18.699363642426373],[-92.03410723199994,18.69811956342642],[-92.06436054599999,18.693123956426586],[-92.08100489899994,18.692428597426595],[-92.08876194199996,18.693594533426563],[-92.11826725799995,18.68995395842664],[-92.16508315299996,18.68717742442675],[-92.16663343199997,18.685719240426785],[-92.16746309199999,18.68675565342671],[-92.27106495899994,18.676669310427013],[-92.28535419099995,18.67414249142706],[-92.36377256999998,18.669642215427192],[-92.39273061699998,18.6656060604273],[-92.46879001999997,18.65096494942769],[-92.46507274999999,18.63458784942812],[-92.46708899999999,18.62578473942831],[-92.46574504999995,18.616563419428555],[-92.45194424999994,18.60351521942895],[-92.45215291999995,18.60006265942901],[-92.44922114999997,18.594224829429134],[-92.43045504999998,18.565749779429893],[-92.42503542999998,18.553336769430224],[-92.42346974999998,18.532235819430777],[-92.42641194999999,18.520018919431095],[-92.42526593999997,18.511305179431318],[-92.41291757999994,18.48561141943202],[-92.40197090999999,18.479534199432177],[-92.38481722999995,18.478144109432233],[-92.37541604999996,18.46938890943247],[-92.36549356999996,18.464622679432566],[-92.35965782999995,18.45694631943276],[-92.36070887999995,18.446821119433032],[-92.35380194999999,18.442294399433145],[-92.34800644999996,18.443783369433145],[-92.34160213999996,18.45353348943285],[-92.33733505999999,18.457824119432757],[-92.33157508999994,18.460299679432683],[-92.32252893999998,18.47308088943235],[-92.32155227999999,18.467527679432497],[-92.31055568999994,18.460528629432684],[-92.31028747999994,18.45557936943283],[-92.30819190999995,18.45716573943277],[-92.2762464,18.45782385943278],[-92.20451719999994,18.456857029432758],[-92.17614773999998,18.458233219432746],[-92.17736021999997,18.37588268943488],[-92.18194871999998,18.37590242943491],[-92.17135754999998,18.338954309435913],[-92.18042881999997,18.2898235694372],[-92.17722785999996,18.28874485943723],[-92.17519754999995,18.294043429437057],[-92.17442584999998,18.2933033094371],[-92.17530682999995,18.28753170943725],[-92.17295136999996,18.275337689437592],[-92.18324384999994,18.274063229437573],[-92.14893751999995,18.21040607943928],[-92.16442396999997,18.197865619439643],[-92.16056211999995,18.18866856943987],[-92.16090299999996,18.155424169440757],[-92.14878204999997,18.149296379440923],[-92.14904345999997,18.136730369441256],[-92.12833568999997,18.12014985944166],[-92.12742456999996,18.108657859441987],[-92.12166197699997,18.10175463044218],[-92.11638144999995,18.100959059442175],[-92.11010834999996,18.09440619944235],[-92.09223099999997,18.092049969442442],[-92.08297379999999,18.085688309442567],[-92.07954365999996,18.086941179442576],[-92.07679634999994,18.094286599442345],[-92.06802257999999,18.09211328944242],[-92.06217167999995,18.09816393944228],[-92.05922833999995,18.098494579442228],[-92.05260144999994,18.094085219442395],[-92.03993881999997,18.09795033944229],[-92.03701739999997,18.094954849442328],[-92.03598624999995,18.087363339442533],[-92.04246913999998,18.081261649442713],[-92.04209542999996,18.078318819442796],[-92.02824216999994,18.077172049442833],[-92.02286516999999,18.06470554944315],[-92.01693370999999,18.058089479443314],[-92.01442873999997,18.052613319443463],[-92.00734437999995,18.049981799443568],[-91.99215459999994,18.03925690944385],[-91.98736247999994,18.03888084944385],[-91.98280124999997,18.043104459443725],[-91.97877857999998,18.042829719443738],[-91.96961307999999,18.025229149444183],[-91.96674770999994,18.01598844944447],[-91.94012157999998,18.01256396944452],[-91.93535562999995,18.010202449444627],[-91.90972267999996,18.013786309444516],[-91.90035476999998,18.012146999444532],[-91.88811013999998,18.006337579444697],[-91.86720785999995,17.98326634944534],[-91.80464421999994,17.972550509445632],[-91.77118527999994,17.94436691944636],[-91.76800602999998,17.94854757944622],[-91.76226653999998,17.939014279446496],[-91.75710068999996,17.93973364944648],[-91.76138936999996,17.946001369446307],[-91.76048730999997,17.957625679445993],[-91.73953704999997,17.935213949446606],[-91.73869384999995,17.936182519446575],[-91.72508714999998,17.926671219446845],[-91.72510105999999,17.924494619446925],[-91.71240405999998,17.921642859447],[-91.71282722999996,17.91892721944705],[-91.63880593999994,17.87395377944822],[-91.63274893999994,17.884196369447952],[-91.63431821999995,17.88509637944795],[-91.62910141999998,17.89712788944761],[-91.63154237999998,17.898149449447608],[-91.63308921999999,17.90501602944743],[-91.61936321999997,17.90921230944729],[-91.61271359999995,17.912919029447224],[-91.61962487999995,17.91918961944704],[-91.62204679999996,17.942574749446422],[-91.62474037999999,17.94907184944624],[-91.62078027999996,17.95281177944613],[-91.61977337999997,17.957574109446014],[-91.62151254999998,17.96158731944589],[-91.61918202999999,17.972854219445598],[-91.61998964999998,17.97644028944548],[-91.61582113999998,17.989084059445155],[-91.61824801999995,18.003002979444815],[-91.61708187999994,18.004293249444757],[-91.61973584999998,18.007594049444656],[-91.61926585999998,18.017511059444423],[-91.61636613999997,18.021236249444343],[-91.61752265999996,18.024224519444257],[-91.61451976999996,18.028685369444123],[-91.61527559999996,18.035932569443933],[-91.61226901999999,18.045020979443695],[-91.61357521999997,18.051408879443514],[-91.61470582999999,18.053921149443457],[-91.61874904999996,18.056297339443404],[-91.61929490999995,18.060803689443272],[-91.61496881999994,18.067698879443036],[-91.60897321999994,18.070487379442984],[-91.60757853999996,18.07450527944289],[-91.60616928999997,18.083975659442615],[-91.60732011999994,18.08791062944255],[-91.60964428999995,18.08919865944247],[-91.60885331999998,18.092074419442454],[-91.61030336999994,18.091802369442423],[-91.60916433999995,18.093856399442384],[-91.61095505999998,18.094980109442357],[-91.60950467999999,18.098438399442287],[-91.60519410999996,18.102858149442124],[-91.60322417999998,18.107744149441988],[-91.60176822999995,18.106875919442025],[-91.59773776999998,18.108655219442],[-91.59244248999994,18.10667994944205],[-91.58975314999998,18.108009369442],[-91.58990741999997,18.11501351944181],[-91.59196827999995,18.11746242944175],[-91.59161145999997,18.11993139944168],[-91.59508814999998,18.122552799441614],[-91.59534693999996,18.12517507944157],[-91.59178339999994,18.128854969441477],[-91.59199967999996,18.130501709441393],[-91.58739808999997,18.12918262944145],[-91.57219911999994,18.142015139441117],[-91.58272925999995,18.152461399440824],[-91.58104837999997,18.15332976944078],[-91.57996601999997,18.15817979944066],[-91.57802988999998,18.15895808944065],[-91.57274873999995,18.156707179440726],[-91.56705534999998,18.15917636944067],[-91.56608404999997,18.15780344944071],[-91.56462457999999,18.15879550944066],[-91.55565424999998,18.156571999440704],[-91.55276105999997,18.158176229440656],[-91.53450513999996,18.14617436944098],[-91.52452276999998,18.15989710944061],[-91.52012054999994,18.160513949440606],[-91.52046499999994,18.163404849440553],[-91.51727093999995,18.165209179440467],[-91.51583256999999,18.169876019440363],[-91.51336507999997,18.170266169440353],[-91.51280117999994,18.168887599440406],[-91.50963367999998,18.169510229440398],[-91.50933733999995,18.171054749440334],[-91.50679528999996,18.17024433944037],[-91.50324385999994,18.16507873944051],[-91.50485304999995,18.161229919440586],[-91.50186353999999,18.15556871944077],[-91.50233428999996,18.15434888944077],[-91.51521284999995,18.154952479440777],[-91.51653217999996,18.130485249441413],[-91.50573211999995,18.130002709441413],[-91.50530585999996,18.127224049441487],[-91.50266085999993,18.126257549441526],[-91.50482871999998,18.12339988944157],[-91.50194291999998,18.122349059441614],[-91.50359910999998,18.1203666794417],[-91.50177534999995,18.118363489441723],[-91.50423297999998,18.118438219441703],[-91.50403590999997,18.116459139441808],[-91.50140231999995,18.11768754944172],[-91.49814034999997,18.115237119441833],[-91.49647117999996,18.116380999441777],[-91.49504737999996,18.115352949441803],[-91.49444953999995,18.11676313944177],[-91.48886790999995,18.118075029441755],[-91.48948416999997,18.11644473944181],[-91.48599327999995,18.116344889441788],[-91.48435301999996,18.11275779944188],[-91.47732302999998,18.112795459441855],[-91.47577414999995,18.108330459441987],[-91.47016181999999,18.103621799442116],[-91.46532191999995,18.104159289442098],[-91.46389745999994,18.102231089442142],[-91.45715681999997,18.10059422944222],[-91.45675934999997,18.098274819442242],[-91.45259351999994,18.097839049442285],[-91.44927896999997,18.09473742944236],[-91.44417976999995,18.09507573944233],[-91.43828031999999,18.084481049442598],[-91.43336622999999,18.082097819442698],[-91.42411693999998,18.08020907944272],[-91.41713256999998,18.081576719442694],[-91.41188136999995,18.078995539442776],[-91.39859150999996,18.080005019442744],[-91.39294699999994,18.07509691944291],[-91.39268694999998,18.070448079443022],[-91.38967785999995,18.06647090944314],[-91.38442534999996,18.06406504944319],[-91.37881774999994,18.064180629443182],[-91.37459267999998,18.067200059443103],[-91.36946133999999,18.06757851944307],[-91.36759476999998,18.066185059443136],[-91.36420365999999,18.069331089443025],[-91.35942641999998,18.070372169443004],[-91.34716479999997,18.06395028944316],[-91.32702431599995,18.062665349443183],[-91.32594654499997,18.05971838044327],[-91.32341379699994,18.059101478443306],[-91.32441564599998,18.054737489443404],[-91.32334834599999,18.05329436844348],[-91.31840034499999,18.04938045944358],[-91.31020274599996,18.04804351944357],[-91.29674319599997,18.041940318443764],[-91.29248265599995,18.035252108443952],[-91.28382605599995,18.029313351444074],[-91.28141925499995,18.02400625944421],[-91.25014087799997,18.00679301844469],[-91.24837128499996,18.004534659444754],[-91.24832137499999,18.000694939444877],[-91.24352481499994,17.994939030445025],[-91.24346281499999,17.990308489445162],[-91.24001308499999,17.98700368944522],[-91.23084876599995,17.982124201445323],[-91.22375484699995,17.981325798445372],[-91.21745954599999,17.974986851445525],[-91.21234321599997,17.974347029445557],[-91.21110893499997,17.976055309445517],[-91.20622864599994,17.97617088844552],[-91.20481794599999,17.974553091445575],[-91.20262390399995,17.976358197445528],[-91.20012834599999,17.974509319445552],[-91.19838648499996,17.977393859445506],[-91.19512614599995,17.97629129044552],[-91.19498673399994,17.97808671844545],[-91.19271357599996,17.97821044844549],[-91.18560784499994,17.972950169445593],[-91.18211216599997,17.97413453944554],[-91.18094922499995,17.976678718445516],[-91.17645428599997,17.974868780445558],[-91.17260485599996,17.978049198445472],[-91.14472673699998,17.975159860445554],[-91.15112296499996,17.96267344944589],[-91.13318225699999,17.958009720446],[-91.13066914499996,17.98225019844538],[-91.11358064699994,17.975850480445537],[-91.12020030399998,17.963375258445836],[-90.98795171699999,17.96254504944591],[-90.98766599799995,17.901350679447525],[-90.99550641499997,17.902156649447488],[-90.99563736399995,17.8754894594482],[-90.98766254699996,17.875356549448203],[-90.98763950399996,17.815473449449833],[-90.58632279899996,17.81613013944978],[-90.36059577999998,17.812871169449885],[-90.28073970999998,17.815521540449826],[-90.12669819999996,17.816617889449766],[-89.92967930999998,17.815046689449805],[-89.15171384999996,17.81561424944982],[-89.15217008999997,17.95360997944613],[-89.20587204999998,17.954099719446095],[-89.20741427999997,17.99264859944508],[-89.20673893999998,18.021079949444328],[-89.16300382999998,18.018517309444388],[-89.16336068999999,18.057885119443316],[-89.14475353999995,18.05769907944337],[-89.14438285999995,18.082442939442714],[-89.20245777999997,18.083276219442688],[-89.20023664999997,18.144629339441035],[-89.14306596999995,18.145819599440983],[-89.14287262999994,18.224163829438943],[-89.15805867999995,18.221326979439016],[-89.15167365999997,18.293562629437083],[-89.13235953999998,18.29340264943712],[-89.13821405999994,18.38554388943467],[-89.12122919999996,18.38584962943465],[-89.12549017999999,18.450625419432942],[-89.15023781999997,18.451059399432957],[-89.14962073999999,18.549610889430337],[-89.15131362999995,18.72402125942574],[-89.15574224999995,18.75311474942501],[-89.14438184999995,18.75591873942491],[-89.14860154999997,18.877307059421792],[-89.14712174999994,18.995045579418722],[-89.13581977999996,19.132372659415136],[-89.14695142999994,19.133156659415125],[-89.14666684999997,19.42386164940763],[-89.41247851999998,19.649376289401893],[-89.44811298999997,19.69835351040062],[-89.46829547999994,19.70016128940055],[-89.47722007999994,19.71105494940031],[-89.49166181999999,19.74222844939948],[-89.47914942999995,19.740645549399563],[-89.47590945999997,19.771220200398773],[-89.52567236999994,19.77555464939867],[-89.53613008999997,19.79745802939807],[-89.57742985999994,19.853508859396662],[-89.57175750999994,19.85295528939671],[-89.58749974999995,19.87442004939612],[-89.58681033999994,19.920460029395],[-89.59744587999995,19.921122340394977],[-89.59584174899999,19.937422049394563],[-89.60467007899996,19.93828496839454],[-89.59870388999997,19.998197379392987],[-89.74847416999995,20.179269720388437],[-89.75278665999997,20.176548740388515],[-89.77345317999999,20.153084140389087],[-89.78784381899999,20.144447971389308],[-89.79397477999999,20.136171941389527],[-89.80287085999998,20.1649066013888],[-89.80250527899994,20.201605080387885],[-89.84616490899998,20.209686980387712],[-89.84067816899994,20.251027509386645],[-89.87566068999996,20.253101950386633],[-89.87238230999998,20.287628089385745],[-89.83796387999996,20.287175879385774],[-90.00417367999995,20.487021879380766],[-90.00562471999996,20.477367199381018],[-90.02034148999996,20.477083059381005],[-90.04168844999998,20.46645148938129],[-90.05004767999998,20.456028568381562],[-90.04918964999996,20.454164258381578],[-90.05527216999997,20.44451437838184],[-90.05709875999997,20.432965879382106],[-90.06601855999997,20.433975478382063],[-90.06721065199997,20.425225888382307],[-90.10097351199994,20.425251769382307],[-90.10776561999995,20.431489119382142],[-90.12927336999996,20.440352419381952],[-90.13157124999998,20.443077578381843],[-90.13246052999995,20.43965516838194],[-90.16051482099994,20.44186276838191],[-90.18629756999997,20.436932318382024],[-90.18478789999995,20.461046138381434],[-90.23420798999996,20.470466618381163],[-90.22376665399997,20.519164968379947],[-90.23250802999996,20.519894049379964],[-90.22924096999998,20.543562889379352],[-90.23493610999998,20.544109029379374],[-90.23458337999995,20.545343179379316],[-90.33523610999998,20.5413123093794],[-90.33523610999998,20.57634770937855],[-90.34113810999997,20.553701119379095],[-90.38664877999997,20.555585799379095],[-90.37935699999997,20.84832728937183]]],[[[-91.95546741999999,20.196527059388032],[-91.95774351999995,20.196741659388028],[-91.95546447999999,20.196114089388022],[-91.95546741999999,20.196527059388032]]],[[[-91.97656113999994,20.20318799938788],[-91.97896248999996,20.204030019387858],[-91.97655496999994,20.202769689387853],[-91.97656113999994,20.20318799938788]]],[[[-91.96410667999999,20.202405309387903],[-91.96100657999995,20.20347781938785],[-91.96100430999996,20.207520449387758],[-91.96231977999997,20.208619979387716],[-91.96410667999999,20.202405309387903]]],[[[-90.49715874999998,20.342300179384388],[-90.49630970999999,20.34371122938435],[-90.49878625999997,20.34410722938436],[-90.49883187999995,20.343067169384348],[-90.49715874999998,20.342300179384388]]],[[[-90.47039777999998,20.621460569377458],[-90.46476068999999,20.644212429376864],[-90.46965370999999,20.65306602937666],[-90.47284196999999,20.631870079377176],[-90.47825116999996,20.618260539377523],[-90.47435044999997,20.599712579378004],[-90.47090816999997,20.598392419377994],[-90.47085704999995,20.60378042937785],[-90.47474396999996,20.61074633937771],[-90.47039777999998,20.621460569377458]]],[[[-90.46124866999997,20.638329806377023],[-90.46158497999994,20.655516259376608],[-90.46601128999998,20.658367879376552],[-90.46944539999998,20.6584286593765],[-90.47040853999994,20.65610573937657],[-90.46298167999998,20.64754619937676],[-90.46124866999997,20.638329806377023]]],[[[-90.45246161999995,20.682339119375936],[-90.45860311999996,20.693744319375654],[-90.45901259999994,20.68976561937576],[-90.46680013999998,20.675650969376097],[-90.46570707999996,20.667367889376294],[-90.45767708999995,20.66199311937641],[-90.45409893999994,20.655891629376576],[-90.45304824999994,20.664234519376365],[-90.45155479999994,20.66493408937634],[-90.45180031999996,20.670077149376244],[-90.45291893999996,20.672548859376196],[-90.45583096999997,20.672199619376208],[-90.45686247999998,20.674530849376122],[-90.45647605999994,20.67657230937606],[-90.45486857999998,20.676588979376096],[-90.45245702999995,20.673501399376175],[-90.45123927999998,20.673915969376147],[-90.45246161999995,20.682339119375936]]]]}}]}
