{"type":"FeatureCollection","features":[{"type":"Feature","properties":{"cve_ent":"05","cvegeo":"05","nombre_inegi":"Coahuila de Zaragoza","nombre_catalogo":"Coahuila"},"geometry":{"type":"Polygon","coordinates":[[[-102.31548646,29.879999539184457],[-102.32114319999994,29.878843229184483],[-102.32480455099996,29.87347219918459],[-102.32281087999996,29.86593473918472],[-102.32367996999994,29.864026509184722],[-102.33212948999994,29.862899739184755],[-102.33375514999994,29.868246949184698],[-102.34150541999999,29.86939441918466],[-102.34319508999995,29.865371739184734],[-102.35001913999997,29.862707259184752],[-102.35215264999994,29.85290276918495],[-102.35994397999997,29.85015199918496],[-102.36490737999999,29.84554719918505],[-102.36263905999999,29.83610353918523],[-102.36311068999998,29.831402749185294],[-102.36990656999996,29.820834579185476],[-102.37331793999999,29.80808585918569],[-102.37755936999997,29.800474079185825],[-102.37721408,29.790087569185957],[-102.39027476999996,29.782389169186093],[-102.38697130999998,29.77798670918617],[-102.38505247999996,29.77113442918631],[-102.38757608999998,29.76150884918645],[-102.38979574999996,29.762147919186457],[-102.39447939999997,29.76927414918632],[-102.39893605999998,29.769929139186306],[-102.40466807999996,29.765302539186386],[-102.40928188999999,29.76470902918641],[-102.41220181999995,29.768417819186308],[-102.42238037999999,29.769779289186296],[-102.42645250999999,29.773494089186244],[-102.43420830999999,29.77713682918621],[-102.43918934,29.77350613918624],[-102.44834871999996,29.777875119186152],[-102.45836299999996,29.774997059186198],[-102.46258923,29.78155139918614],[-102.46624264999997,29.783777799186076],[-102.47033641999997,29.7808003191861],[-102.47234281999994,29.7763906491862],[-102.48079259999997,29.7762142891862],[-102.48238353999994,29.778007739186194],[-102.48226211999997,29.783305659186077],[-102.48724834999997,29.78692865918604],[-102.49914499999994,29.781149719186097],[-102.51777819899996,29.78393990918611],[-102.51935621999996,29.7812251691861],[-102.51869588999995,29.778824349186138],[-102.51078525999998,29.773582419186233],[-102.51367137999996,29.76573814918639],[-102.53473542999997,29.75508104918657],[-102.54128811999999,29.748391229186648],[-102.54804934999999,29.744603079186728],[-102.55532833999996,29.749077539186626],[-102.55500831999996,29.75489842918654],[-102.56321708999997,29.767895459186324],[-102.56672719999995,29.77148147918627],[-102.56956701999997,29.77174439918628],[-102.57506724999996,29.766166619186357],[-102.57238981999997,29.757459489186502],[-102.57403568999996,29.75501950918658],[-102.57940224999999,29.755626939186566],[-102.58898357999999,29.74900930918669],[-102.59787363,29.751333519186627],[-102.60424305999999,29.750245309186628],[-102.60741871999996,29.747683649186683],[-102.61240805999996,29.74821610918666],[-102.62249647999994,29.736307819186855],[-102.63028161999996,29.734039489186905],[-102.64511042,29.73372496918689],[-102.65959971999997,29.735470909186894],[-102.66696273999997,29.738995029186846],[-102.66830317999995,29.745905459186734],[-102.67486901999996,29.744055459186715],[-102.67710744999994,29.741401169186812],[-102.68148931999998,29.72826968918701],[-102.68538014999996,29.726687549187044],[-102.68763273999997,29.722632019187106],[-102.69103144999998,29.722005549187124],[-102.68891393999998,29.705135309187398],[-102.69862257999996,29.697349149187517],[-102.69942697,29.685464179187733],[-102.69330813999994,29.676724029187877],[-102.69651301999994,29.671955659187926],[-102.70404197999996,29.67128281918796],[-102.70869251999996,29.666736619188036],[-102.71226802999998,29.658758889188174],[-102.71773742999994,29.654255619188273],[-102.72262342999996,29.65113837918833],[-102.72568404999998,29.651303219188282],[-102.72399747999998,29.64841234918835],[-102.72572219999995,29.643261109188398],[-102.72971606,29.640602049188455],[-102.737398,29.641901079188425],[-102.73700219999995,29.63941762918847],[-102.74102142999999,29.635863719188535],[-102.74217525999995,29.630724059188623],[-102.73898589,29.625328569188763],[-102.73855541999995,29.618906769188808],[-102.73901026,29.60684717918903],[-102.74158345999997,29.60269317918913],[-102.74020133999996,29.597899479189152],[-102.74591017999995,29.59258493918928],[-102.76016102999996,29.5985149091892],[-102.76553337999998,29.597637689189202],[-102.76841657999995,29.594944779189237],[-102.76212652,29.579538719189514],[-102.76627611999999,29.572056319189628],[-102.7697796,29.57365690918961],[-102.77398693999999,29.573191749189586],[-102.77335045999997,29.566759689189695],[-102.77773930999997,29.560693369189796],[-102.77738041999999,29.554913059189904],[-102.77537879999996,29.551377089189998],[-102.77104981999997,29.54840016919001],[-102.77676437999999,29.547070259190054],[-102.780380419,29.542356679190142],[-102.79086990999998,29.54321197919008],[-102.79312430999994,29.539626489190166],[-102.79153293999997,29.53601402919023],[-102.79214521999995,29.532722849190264],[-102.79716213999995,29.529408619190324],[-102.79853585999996,29.52663562919039],[-102.80832073999994,29.52264024919047],[-102.80846031999994,29.51895861919051],[-102.80648416999998,29.5156839791906],[-102.80734108999997,29.50386437919077],[-102.80440329,29.501276999190836],[-102.80726181999995,29.49423210919093],[-102.80066717899997,29.486142289191058],[-102.80411284999998,29.484025889191116],[-102.81106815,29.484069229191107],[-102.81459122999996,29.48248024919113],[-102.81579945,29.475728629191252],[-102.81420311999995,29.4714645091913],[-102.82217751999997,29.463971429191474],[-102.82537701999996,29.457938139191576],[-102.82381741999997,29.452075279191632],[-102.81936965999995,29.450775019191667],[-102.83074230999995,29.444269459191798],[-102.83068707999996,29.43436830919193],[-102.83225928999998,29.432710659191997],[-102.82695707999994,29.417295149192224],[-102.83322282999995,29.410196689192393],[-102.83257181999994,29.408474249192388],[-102.82626601999999,29.407506689192402],[-102.82562762999999,29.402347509192474],[-102.81871311999998,29.403560629192505],[-102.81323787999997,29.40218671919249],[-102.81238970999999,29.400268319192556],[-102.81557282999995,29.39691504919262],[-102.81944927999996,29.398297019192533],[-102.82540216999998,29.396927849192593],[-102.83278157999996,29.38833427919273],[-102.83400542999999,29.378753109192903],[-102.84072942999995,29.377382019192908],[-102.84493676999995,29.374308279192974],[-102.84529407999997,29.364908369193117],[-102.84006876999996,29.361954879193195],[-102.83921976999994,29.358895349193265],[-102.86142221999995,29.35128934919338],[-102.87285444999998,29.352133479193384],[-102.87701450999998,29.354849519193333],[-102.88398171999997,29.347980509193455],[-102.88022737999995,29.341209349193523],[-102.88113787999998,29.333617019193696],[-102.88468197999998,29.325920149193824],[-102.88436968999999,29.32066970919392],[-102.88816530999998,29.315316719193987],[-102.88723493899994,29.311465549194047],[-102.89253142999996,29.30946793919409],[-102.89311803,29.307856849194135],[-102.89015256999994,29.302511199194186],[-102.88817559999995,29.292691919194358],[-102.89044054999995,29.28786053919446],[-102.89628545999994,29.284885449194498],[-102.89863262999995,29.280584999194552],[-102.90318626099997,29.279109279194618],[-102.90298139999999,29.27585024919469],[-102.89918125999998,29.269209739194793],[-102.90233993999999,29.264635089194876],[-102.90534513999995,29.263500799194848],[-102.90630690999997,29.25931905919496],[-102.90310416999995,29.254230319195024],[-102.8967436,29.254076169195073],[-102.88782532,29.24578762919519],[-102.88028227999996,29.245993649195192],[-102.87150928999996,29.241599619195252],[-102.87139025999994,29.23186931919541],[-102.86636102999995,29.227074569195523],[-102.86735905999996,29.22372676919557],[-102.87698413999999,29.217101089195655],[-102.87843574999995,29.213668029195738],[-102.89436994999996,29.20857287919584],[-102.89906499999996,29.208877579195804],[-102.90869352,29.21967165919564],[-102.91231167999997,29.219433689195665],[-102.91627962999998,29.21564382919568],[-102.91617553999998,29.211900119195768],[-102.91287465999994,29.206875769195857],[-102.91435259999997,29.20014425919596],[-102.91905639999999,29.199135419195994],[-102.91789496999996,29.190837379196147],[-102.93251170999999,29.194729819196095],[-102.93799123099997,29.18819997919616],[-102.94318533999997,29.191595749196093],[-102.94583335,29.188415619196174],[-102.94571613999994,29.18325584919623],[-102.95060954999998,29.179051859196345],[-102.95081936999998,29.173528649196417],[-102.95702324999996,29.17871374919633],[-102.97557691999998,29.186284399196186],[-102.98144773999996,29.1858526791962],[-102.98580837999998,29.18316061919623],[-102.99001331999995,29.18348811919624],[-102.99527408999995,29.179643819196293],[-102.99827494,29.173991379196437],[-102.99612641999994,29.160620909196638],[-103.00253751999998,29.149986419196836],[-103.00817899999998,29.14824927919688],[-103.00880781999996,29.137545509197047],[-103.01251645999997,29.13707421919705],[-103.01568918,29.13444656919707],[-103.01219954999999,29.128454249197198],[-103.01354816999998,29.125064049197253],[-103.02016379999999,29.125756119197266],[-103.02817851999998,29.11552904919745],[-103.03714457999996,29.113811859197455],[-103.03636130999998,29.110618689197487],[-103.03227637999998,29.10707713919757],[-103.03379727999999,29.10120396919765],[-103.03953087999997,29.096802089197737],[-103.04497894999999,29.095258419197773],[-103.04835428999996,29.096292549197752],[-103.05103074,29.09992427919768],[-103.05470105999997,29.100724489197695],[-103.06424485999999,29.09126028919783],[-103.06999965899998,29.093611279197816],[-103.07597214999998,29.091421419197868],[-103.08033105,29.087119739197913],[-103.07656927999996,29.079445489198072],[-103.07699514999996,29.07561745919811],[-103.08748714999997,29.067334109198253],[-103.08561459999999,29.060283219198368],[-103.08587401999995,29.053812739198506],[-103.09063613999996,29.053955739198496],[-103.09244124999998,29.064457049198317],[-103.09555174999998,29.064541829198323],[-103.09698841999995,29.060647539198367],[-103.10070965999995,29.060330879198382],[-103.10049822999997,29.05145634919851],[-103.10504884999995,29.044490349198657],[-103.10665147999998,29.03836496919875],[-103.10416862999995,29.03318684919884],[-103.09797374999995,29.02675673919896],[-103.10178856999995,29.017628109199116],[-103.10859051999996,29.013265969199225],[-103.11746254999998,29.000149119199442],[-103.11404907999997,28.989278319199613],[-103.11585459999999,28.9843572791997],[-103.12337585999997,28.984276489199733],[-103.12687190999998,28.981928219199737],[-103.13171125999997,28.983931549199742],[-103.13537953999997,28.983513969199716],[-103.14403544999999,28.977496979199845],[-103.15129008999997,28.975294029199862],[-103.15384473999995,28.971475749199893],[-103.16055150999996,28.973723909199894],[-103.16386571999999,28.97204645919992],[-103.16627024999998,28.97421391919989],[-103.16592481999999,28.977683749199798],[-103.17062057999999,28.98034157919979],[-103.17672153999996,28.9778382191998],[-103.18074939999997,28.982228309199737],[-103.20252044999995,28.987104549199643],[-103.21477821999997,28.987638219199663],[-103.22037113999994,28.983481479199686],[-103.22799636999997,28.991712939199594],[-103.23109357,28.987663019199676],[-103.23633617999997,28.984503169199687],[-103.23741657899996,28.981797879199743],[-103.25052161999997,28.98026016919979],[-103.25318725999995,28.98664144919966],[-103.26734154999998,28.99600368919952],[-103.27201719999995,28.98445025919974],[-103.27992202999998,28.97588748919984],[-103.28835314999999,28.978125229199804],[-103.28847602999998,28.981182889199786],[-103.28311322999997,28.98283216919974],[-103.28167242099994,28.987456289199677],[-103.28790521999998,29.00205184919938],[-103.30066412099995,29.008085569199284],[-103.30763996999997,29.003285659199392],[-103.35770065999999,28.92025062920083],[-103.40365024999994,28.86925416920171],[-103.40409028999994,28.86636842920173],[-103.39491484999996,28.843847719202152],[-103.39422977999999,28.840117629202247],[-103.39634671999995,28.833528569202347],[-103.40026622,28.828573519202468],[-103.40458610999997,28.829551519202422],[-103.41001537999995,28.84092237920223],[-103.42355362999996,28.821289709202546],[-103.43166304999994,28.81318034920269],[-103.46634535,28.759457629203645],[-103.46325459999997,28.756614539203692],[-103.51451213999997,28.66499784920535],[-103.51976197999994,28.66874502920523],[-103.55729530999999,28.611280679206278],[-103.57265894999996,28.640639169205755],[-103.58200148999998,28.62879350920595],[-103.59637370999997,28.63947454920578],[-103.61604602999995,28.5981947192065],[-103.59191587999999,28.59083425920666],[-103.60100840099994,28.574907399206896],[-103.62456759999998,28.581146509206818],[-103.64794445999998,28.53298347920767],[-103.64335502999997,28.530634449207707],[-103.64301079999996,28.512461879208043],[-103.72833285999997,28.356491019210882],[-103.76287124999999,28.29819677921192],[-103.76817977999998,28.300372519211862],[-103.86749985999995,28.11213567921528],[-103.86094128999997,28.109021939215346],[-103.88948524999995,28.06037691921625],[-103.92669188999997,27.971356749217854],[-103.87771593999997,27.957490339218126],[-103.89288584999997,27.91402296921896],[-103.94186757999996,27.927796489218665],[-103.93564308999999,27.945342369218345],[-103.95497349,27.950820999218262],[-103.94333127999994,27.888843219219407],[-103.94564465999997,27.888861819219382],[-103.94578304999999,27.856388229219988],[-103.96000191999997,27.835309019220407],[-103.94723567999996,27.830490479220447],[-103.94390670999996,27.82687054922052],[-103.90084391999996,27.82685725922054],[-103.93564954999994,27.7975527392211],[-103.88114533999999,27.739185739222165],[-103.89669228999998,27.740557249222146],[-103.88950493999994,27.71321713922264],[-103.89553265999996,27.67402119922336],[-103.88324457999994,27.65759181922369],[-103.89726285999997,27.656548769223694],[-103.88355551999997,27.600771749224748],[-103.86883765999995,27.607136829224643],[-103.85460094999996,27.54943273922571],[-103.85850513999998,27.439891489227772],[-103.86365041999996,27.440920739227742],[-103.87687601999994,27.311592139230246],[-103.83212254999995,27.29829347923047],[-103.83059325999996,27.276847479230906],[-103.82655307999995,27.269443509231014],[-103.81976348999996,27.242956549231515],[-103.80939542999994,27.24920307923139],[-103.79842734,27.213475689232116],[-103.79939847999998,27.124729539233787],[-103.78347032,27.091205599234424],[-103.77379528999997,27.08961562923445],[-103.76305322999998,27.083912849234586],[-103.75627008,27.08210611923462],[-103.75246119999997,27.07791959923468],[-103.74847621999999,27.051814819235215],[-103.74536281999997,27.041417949235395],[-103.74431102999995,27.02669794923567],[-103.74083436999997,27.022521749235793],[-103.74578913999994,27.022699569235765],[-103.77994768999997,27.008886289236052],[-103.78462874999997,26.98069851923656],[-103.85208902999996,26.93461941923747],[-103.83591917999996,26.93581334923745],[-103.85194345999997,26.90523044923802],[-103.85170071,26.896133829238217],[-103.84215802999995,26.891450309238294],[-103.83141828999999,26.880532029238516],[-103.82253493999997,26.875374339238633],[-103.80447801999998,26.85500959923904],[-103.79005045999997,26.84555559923923],[-103.77960544999998,26.836126249239395],[-103.76194801999999,26.833401379239447],[-103.75396791999998,26.829573449239525],[-103.75061973999999,26.809905079239922],[-103.72487079999996,26.772106519240605],[-103.71524868999995,26.73507725924133],[-103.70164094999996,26.730783089241445],[-103.69909410999998,26.725256379241586],[-103.68202045999999,26.721569739241644],[-103.65825599899995,26.719483949241653],[-103.64389144999996,26.690158489242233],[-103.63698243,26.693435769242196],[-103.37418348999996,26.602354889243987],[-103.31679259999999,26.361776180248725],[-103.26082525999999,26.28472681925028],[-103.35048821899994,26.14238995025313],[-103.346360109,25.86030438025884],[-103.34371491899998,25.851228218259042],[-103.3369752,25.843935909259148],[-103.336006119,25.838737079259282],[-103.33166659999995,25.831663019259445],[-103.32288904799998,25.825082309259546],[-103.31858765899995,25.81270128925983],[-103.31935188999995,25.804648740259974],[-103.32303110899996,25.799929429260107],[-103.32276896899998,25.79804815026011],[-103.32114904999999,25.797967369260103],[-103.32319264899998,25.79217831926025],[-103.32305630899998,25.783736399260423],[-103.325391799,25.781091909260454],[-103.32674781899999,25.772415550260643],[-103.32639341899994,25.76044549026088],[-103.33370521799998,25.738736108261335],[-103.34028917999997,25.724034479261626],[-103.35071721999999,25.71922476926171],[-103.35283605999996,25.71655308926178],[-103.33943688999994,25.707604819261935],[-103.34118585999995,25.705021419262007],[-103.35499085999999,25.699860029262098],[-103.34921370999997,25.693443939262266],[-103.35948633999999,25.688862089262347],[-103.36476236999994,25.671970799262702],[-103.37063893999999,25.66488927926286],[-103.38304092,25.65531739926306],[-103.38142222999994,25.640342339263373],[-103.38586701999998,25.640408049263378],[-103.39867190999996,25.64590387926323],[-103.40600324999997,25.645027149263235],[-103.4087358,25.639672149263337],[-103.40323061999999,25.631933719263532],[-103.40327557999996,25.628128289263618],[-103.41290422999998,25.624503579263692],[-103.42054208999997,25.62566371926364],[-103.42477011999996,25.62367991926367],[-103.42495402999998,25.61998564926377],[-103.41754105999998,25.617163019263863],[-103.41602525999997,25.6144215992639],[-103.42685022999996,25.612090029263932],[-103.42962444899996,25.59891668926422],[-103.43840581999996,25.59664327926422],[-103.43843604899996,25.594315169264316],[-103.43329984999998,25.588082059264416],[-103.43536653999998,25.582777539264534],[-103.43804957999998,25.581500029264543],[-103.44675151999996,25.58167531026454],[-103.45099068999997,25.578933689264606],[-103.45262630999997,25.575279060264698],[-103.45143207999996,25.565480399264914],[-103.45544474999997,25.55706144926506],[-103.46956082999998,25.546437230265262],[-103.49441428999995,25.537731799265494],[-103.48471136899997,25.529449059265634],[-103.47509501999997,25.518332979265843],[-103.47577896999998,25.517458119265914],[-103.43572854999996,25.479073979266705],[-103.42803008,25.475254579266775],[-103.39874764999998,25.450600379267243],[-103.39065128999994,25.434591149267636],[-103.36906199999999,25.416460719267963],[-103.35102133999999,25.41034502926809],[-103.34136771999995,25.410142229268146],[-103.33763247999997,25.397181849268378],[-103.33691619999996,25.371231139268932],[-103.34185110999994,25.370352479268952],[-103.35122841999998,25.372977349268876],[-103.35747689,25.381631429268687],[-103.35790699999995,25.38485499926867],[-103.36551942999996,25.39315627926844],[-103.37032753999996,25.393661379268423],[-103.37221714999998,25.39039104926854],[-103.38046171999999,25.390956449268497],[-103.39049504999998,25.39739257926836],[-103.39734622999998,25.39532393926839],[-103.40669916999997,25.398901399268354],[-103.40920659999995,25.39619428926839],[-103.41694448899995,25.39371915026843],[-103.420019719,25.394224970268414],[-103.42453259999998,25.389980340268544],[-103.42988051999998,25.388993019268547],[-103.43318582999997,25.386389230268627],[-103.44493710999996,25.38402205926867],[-103.44796930999998,25.38108317926875],[-103.45792041999994,25.378061249268757],[-103.45757331,25.37613056926882],[-103.46205936999996,25.376310939268816],[-103.46108759999998,25.370646089268917],[-103.46588371999997,25.359838369269138],[-103.46621662999996,25.352348169269295],[-103.46915405999994,25.350141399269344],[-103.47087063,25.34527828926948],[-103.47871571999997,25.338184999269625],[-103.48042047999996,25.3343366292697],[-103.48648331999999,25.332861829269742],[-103.48646142999998,25.330750679269766],[-103.47973091999995,25.326187479269862],[-103.47925014999998,25.32392477926989],[-103.48578611,25.31483585927012],[-103.49574288999999,25.311109459270195],[-103.49767042999997,25.295149249270516],[-103.50217679999997,25.291973109270597],[-103.50617308999996,25.293297649270553],[-103.50935168999997,25.291462569270617],[-103.50742679999998,25.28401647927074],[-103.51093662999995,25.27981659927083],[-103.50383482999996,25.27465408927096],[-103.49846867999997,25.26328291927117],[-103.49672010999996,25.255748519271332],[-103.49125373999999,25.25245270927141],[-103.48656842999998,25.25386562927138],[-103.47677767999994,25.250014029271455],[-103.47318436999996,25.25010767927145],[-103.46838330999998,25.241954659271606],[-103.46566041999995,25.241166419271647],[-103.46623394999996,25.238680379271695],[-103.46166816999994,25.23706896927172],[-103.46054828999996,25.233666369271784],[-103.45021373999998,25.228614909271887],[-103.44875425999999,25.224000289271995],[-103.45006257999995,25.219054089272095],[-103.44570987999998,25.21041202927227],[-103.43868156999997,25.201958799272468],[-103.43664071999997,25.202657399272475],[-103.43220851999996,25.19952404927249],[-103.42579594999995,25.201539289272443],[-103.42319237,25.19804285927254],[-103.41842741999994,25.19637970927256],[-103.41832121999994,25.192005949272676],[-103.40941719999995,25.18502236927284],[-103.40923691999996,25.182385349272874],[-103.40285777999998,25.18234890927286],[-103.39820173999999,25.175483909272995],[-103.39890653999998,25.170789969273102],[-103.39645167999998,25.16578162927319],[-103.39739870999995,25.163852619273275],[-103.39273213999998,25.15953319927336],[-103.39429041999996,25.15773562927339],[-103.38865242999998,25.154621679273454],[-103.38319190999994,25.14919085927356],[-103.38247911999997,25.144914819273648],[-103.37714184999999,25.142049169273726],[-103.37039716999999,25.124006429274107],[-103.35953930999996,25.11002884927439],[-103.35144174999999,25.107218949274465],[-103.34607431999997,25.11068121927439],[-103.34266238,25.110329419274358],[-103.33928095,25.107120219274474],[-103.33999779999999,25.10229324927455],[-103.33722593999994,25.099126979274622],[-103.32671687999999,25.094443289274732],[-103.32227331999997,25.094289799274744],[-103.31823850999996,25.08894894927482],[-103.31244913999996,25.08506908927491],[-103.30196394999996,25.083278459274936],[-103.29500637999998,25.07997836927503],[-103.29280601999994,25.077886799275063],[-103.29124131999998,25.07053327927523],[-103.28429011999998,25.067733979275307],[-103.27823144999996,25.0629694292754],[-103.27423933999997,25.06459427927535],[-103.27109219999994,25.060430139275432],[-103.26218034,25.058549309275477],[-103.26150631999998,25.054168249275552],[-103.26523874999998,25.053744339275557],[-103.26785692,25.055781289275508],[-103.26957730999999,25.05489382927553],[-103.26878888999995,25.049143319275668],[-103.27446462999997,25.045947719275766],[-103.26945199999994,25.04024245927587],[-103.27451498,25.038334569275936],[-103.27801522,25.03461416927599],[-103.27031739999997,25.03195137927605],[-103.26748933999994,25.028043719276102],[-103.27405396999997,25.02335988927622],[-103.27403416999994,25.020902489276246],[-103.27046953999997,25.01565959927639],[-103.25459684999998,25.004031599276647],[-103.24656307999999,24.996026599276796],[-103.24865808999999,24.99252496927685],[-103.24567642999996,24.989769229276916],[-103.24536378,24.982462799277098],[-103.25002134,24.97884388927718],[-103.25264679999998,24.97017428927734],[-103.25821307999996,24.96893762927734],[-103.25914588999996,24.964658769277456],[-103.09294690999998,24.822861429280476],[-103.08701511999999,24.820496649280525],[-103.06884714999995,24.818559149280564],[-103.05374471999995,24.80994354928077],[-103.04963208,24.809821739280775],[-103.04814656999999,24.811253479280733],[-103.04308508999998,24.809459259280754],[-103.03786668,24.811431449280715],[-103.03335524999994,24.81084016928075],[-103.03110845999998,24.807165479280787],[-103.02181931999996,24.799936149280974],[-103.01506694999995,24.800950749280922],[-103.01115848999996,24.796407579281038],[-103.00513801999996,24.79321814928109],[-103.00212461999996,24.794236289281113],[-103.00136497999995,24.798380259280986],[-102.99653093999997,24.795028029281035],[-102.99081082999999,24.794037619281074],[-102.98739494999995,24.797033829281013],[-102.97518222999997,24.799451969280984],[-102.97456757999998,24.792808319281132],[-102.96491819999994,24.7940085492811],[-102.96361890999998,24.7881120292812],[-102.94927370999994,24.779755079281365],[-102.93731257999997,24.777746219281422],[-102.93566327999997,24.7801015792814],[-102.93260797999996,24.77804031928144],[-102.92327476999998,24.780320459281377],[-102.92295781999998,24.77465367928148],[-102.92142964999995,24.772950769281504],[-102.91603539999996,24.77610636928145],[-102.90746727999999,24.76788445928166],[-102.90024006,24.764724339281717],[-102.89543209,24.765993579281687],[-102.89052301999999,24.76028604928179],[-102.88626465999994,24.758211969281852],[-102.88324756999998,24.75055161928203],[-102.87512893999998,24.748870059282062],[-102.86964248999999,24.742049419282203],[-102.85640277999995,24.739773969282243],[-102.85313071999997,24.772000949281573],[-102.66969397999998,25.06663648927533],[-102.44676344999999,24.99951541927669],[-102.46332519999999,25.115916149274245],[-102.29551302999994,25.125235509274063],[-102.23762219999998,25.118462379274206],[-102.08180562999996,25.070700599275234],[-101.84880999999996,25.01762361927634],[-101.83189845999999,24.97217321927731],[-101.77346294999997,24.875535119279352],[-101.68514948999997,24.840012659280124],[-101.65633176999997,24.8607931692797],[-101.60126062999997,24.835563199280184],[-101.60901162999994,24.78966413928121],[-101.64076722999994,24.80070353928092],[-101.62226970999997,24.758983079281855],[-101.54057874899996,24.7455812502821],[-101.51941564899994,24.746469860282087],[-101.49170531999995,24.743775859282135],[-101.46163934899995,24.736756819282306],[-101.41265494899996,24.77205502028153],[-101.40215705999998,24.788222430281227],[-101.34214156999997,24.813352510280684],[-101.31312313899997,24.801410859280917],[-101.23608890999998,24.777878969281456],[-101.21503913899994,24.77516785028149],[-101.20172559999997,24.76548832028173],[-101.18843788,24.74935318028206],[-101.17903508999996,24.732956680282417],[-101.16464593999996,24.681558970283508],[-101.12761959999995,24.62336177028477],[-101.08049513999998,24.59118530928545],[-100.95879259899999,24.54268406028647],[-100.90223377999996,24.583917740285592],[-100.88281444899998,24.571614890285833],[-100.84780564899995,24.555618600286202],[-100.81041634999998,24.551593780286307],[-100.79993411999999,24.556186079286164],[-100.80547293999996,24.596340120285298],[-100.79697824899995,24.750806910282],[-100.82741348899998,24.82420789028047],[-100.82613241999996,24.835004569280176],[-100.72749548899998,24.918716549278443],[-100.75394981899997,24.94339291927792],[-100.79146299999996,24.974050679277266],[-100.79206308899995,24.97914818027714],[-100.82150559899998,24.996710830276772],[-100.80313044999997,25.165258459273247],[-100.70888777999994,25.23645756927171],[-100.59568554899994,25.254762510271323],[-100.59196241999996,25.255050020271344],[-100.58413617999997,25.252043019271397],[-100.52960687999996,25.24014294027165],[-100.49854645999994,25.23750747927169],[-100.47251737899995,25.23119566027186],[-100.44364142899998,25.223145220272002],[-100.40740917899996,25.20896810927232],[-100.33200741999998,25.186285219272794],[-100.32555011999995,25.222258750272005],[-100.30528361899997,25.213417229272228],[-100.26138350899998,25.20707057027233],[-100.22957559899999,25.21791651027212],[-100.24719536899995,25.23017448927185],[-100.24468645899998,25.228986600271874],[-100.23442050899997,25.235496429271777],[-100.26251011999994,25.254022799271347],[-100.25394159999996,25.265567650271095],[-100.24314190899999,25.267443350271094],[-100.25413842999995,25.306908770270265],[-100.263974509,25.30529339927028],[-100.27621316999995,25.313007339270158],[-100.27743594899995,25.316285969270037],[-100.28157961899997,25.319713719269984],[-100.29235094899997,25.325547890269867],[-100.30427113999997,25.328973180269788],[-100.31302344899996,25.33636721926965],[-100.32680371,25.340356479269538],[-100.39103013899997,25.32805879926985],[-100.41436037999996,25.329899919269796],[-100.41456067999997,25.326998110269816],[-100.43353805999999,25.33149168026974],[-100.44602861899995,25.331857689269732],[-100.47009881899999,25.337789850269584],[-100.45187836899999,25.41081071926808],[-100.46934007999994,25.42172174026787],[-100.49355142999997,25.43084074026769],[-100.50169037999996,25.432836769267638],[-100.52270308999995,25.434324719267625],[-100.51746377999996,25.449036599267306],[-100.52541308999997,25.449753850267268],[-100.53088314999997,25.46346764926699],[-100.56096711899994,25.46453840026695],[-100.58488908899994,25.470813050266855],[-100.57951030899994,25.494543979266368],[-100.61909057999998,25.505691080266143],[-100.59975033899997,25.51995952026581],[-100.52969931999996,25.514392880265955],[-100.538435909,25.53185392026559],[-100.54830701999998,25.534270550265564],[-100.55999681999998,25.534893369265543],[-100.59429844899995,25.544374149265344],[-100.614732539,25.54234691026536],[-100.61497684999995,25.546569479265308],[-100.61195976899997,25.551399369265205],[-100.63290184899995,25.57129934926479],[-100.64434456999999,25.572465309264736],[-100.65848331899998,25.567963019264834],[-100.66432214999998,25.569399680264812],[-100.69028633999996,25.56710077926484],[-100.71991647999994,25.6030669492641],[-100.72977288899996,25.63389565926349],[-100.78342024799997,25.639678429263377],[-100.78040982799997,25.64572942926326],[-100.78777527899996,25.683597220262484],[-100.80369870899996,25.70875537926196],[-100.80561394999997,25.72430179926161],[-100.82512359799995,25.75172112026107],[-100.86190139999997,25.8184786202597],[-100.84706870999997,25.85788572025891],[-100.83711964899999,25.863812580258767],[-100.835765569,25.866594309258712],[-100.82266893899998,25.916884540257715],[-100.82724481999998,25.920496709257645],[-100.83442487999997,25.94504290925711],[-100.87687866,25.947219169257068],[-100.90553164999994,25.9569457092569],[-100.90460608899997,26.008702229255817],[-100.91641565999998,26.075610550254485],[-100.942898019,26.08678905925427],[-100.94263942899994,26.090618050254164],[-100.95287033999996,26.10032570925397],[-100.97225904999999,26.127680680253444],[-100.98274204999997,26.13947719925318],[-101.00888276999997,26.153823650252892],[-101.02717974999996,26.159663779252803],[-101.04739817899997,26.16984601925255],[-101.06857465899998,26.18903103025222],[-101.07464691999998,26.198974739251987],[-101.09173894999999,26.24451104925106],[-101.09761969,26.252910419250885],[-101.13629684999995,26.29545993925007],[-101.18544205999996,26.345400949249065],[-101.20676270999996,26.36977819924856],[-101.18960134999999,26.384680029248248],[-101.07886237999998,26.469261429246632],[-100.90509117,26.60863810924386],[-100.75303544999997,26.735207799241376],[-100.69122888999999,26.61378941924374],[-100.61440019999998,26.685638889242345],[-100.60130711999996,26.737077079241335],[-100.59013582999995,26.759520659240906],[-100.56630084999995,26.782078479240457],[-100.56065945999995,26.78549977924039],[-100.55716847999997,26.790307549240254],[-100.55367363,26.791424539240253],[-100.53815574999999,26.80855819923992],[-100.53858873999997,26.81154636923986],[-100.54143256999998,26.812738449239827],[-100.54172205999998,26.82124831923968],[-100.54472811999995,26.822690029239645],[-100.54623965999998,26.831884659239496],[-100.54561657999996,26.84144702923928],[-100.54758941999995,26.845241169239223],[-100.54661744999999,26.84765524923918],[-100.55135865999995,26.85872973923895],[-100.54066579999994,26.880969979238497],[-100.54157294999999,26.888893149238363],[-100.53842979999996,26.90611970923802],[-100.54492628999998,26.92534881923767],[-100.54042651999998,26.93251434923753],[-100.53823939999995,26.939719849237402],[-100.54182321999997,26.94919927923722],[-100.54080908999998,26.95480805923709],[-100.54270261999994,26.96042008923699],[-100.54115583,26.96596114923687],[-100.54525387999996,26.978355779236647],[-100.53973696999998,26.986250219236474],[-100.54193711,26.996636859236244],[-100.54081833999999,27.013823379235966],[-100.53570171999996,27.027004919235655],[-100.53880922999997,27.03867568923545],[-100.53399785,27.045584429235355],[-100.65370422999996,27.075729689234752],[-100.65602191,27.082133279234622],[-100.66248577999994,27.086514649234513],[-100.66925213999997,27.087064199234526],[-100.67424248999998,27.084604969234558],[-100.67679125999996,27.10687737923417],[-100.68271870999996,27.111394579234027],[-100.69745284999999,27.108752739234117],[-100.702052,27.10252896923422],[-100.70810647999998,27.099851889234262],[-100.71083050999995,27.095495599234365],[-100.71164851999998,27.088486799234506],[-100.71965961999996,27.07920337923465],[-100.72613007999998,27.077882199234686],[-100.72978117999997,27.081417369234646],[-100.73771013999999,27.08472976923455],[-100.74862097999996,27.081252819234624],[-100.74618301999999,27.062355289234983],[-100.73583581999999,27.047579719235294],[-100.74089205999996,27.041057029235407],[-100.74771353999996,27.03625677923549],[-100.74851622999995,27.039917289235433],[-100.74704826,27.0461110492353],[-100.74853082999994,27.04915268923524],[-100.76267407999997,27.062634139235],[-100.76586399999998,27.06332514923496],[-100.77015685999999,27.063087719235003],[-100.77869450999998,27.059090399235078],[-100.78422999999998,27.058922289235074],[-100.79526908999998,27.049981179235218],[-100.79746325999999,27.045657479235324],[-100.79943611999994,27.04583074923532],[-100.80926851999999,27.05648247923512],[-100.80764791999998,27.065831459234914],[-100.80960682999996,27.068367829234898],[-100.81491025999998,27.071123769234834],[-100.83056139999997,27.073885479234786],[-100.83412341999998,27.195173969232446],[-100.67800622,27.334797309229792],[-100.41769954999995,27.393632750228665],[-100.35060984999996,27.68459854922318],[-100.18842551999995,27.799137179221066],[-99.99884482999995,27.615279399224523],[-99.93239971999998,27.674711689223365],[-99.91135501999999,27.699257459222935],[-99.91004982999999,27.698620769222934],[-99.84322257999997,27.76986281922162],[-99.84436528999998,27.77843667922142],[-99.85075948999997,27.793903169221174],[-99.86927642999997,27.794280019221123],[-99.87549997999997,27.796797049221126],[-99.87763634,27.799651339221025],[-99.87392210999997,27.81291376922078],[-99.87800941999996,27.82558513922056],[-99.87572299999995,27.835982889220347],[-99.87696245999996,27.841466319220274],[-99.88157528999994,27.84961961922012],[-99.89281824999995,27.855615569220014],[-99.90113411,27.863973969219888],[-99.90408261999994,27.873704919219634],[-99.90275694999997,27.881940149219524],[-99.89394171999999,27.89297827921934],[-99.89352797999999,27.899479549219176],[-99.90062541999998,27.91244728921895],[-99.91884941999996,27.918880449218857],[-99.92582165999994,27.927078769218674],[-99.92386482999996,27.93018287921865],[-99.92629194999995,27.93549314921855],[-99.93384454999995,27.937717569218524],[-99.93764984999997,27.94218947921838],[-99.93883486,27.95216407921822],[-99.93255996999994,27.966173709217983],[-99.93122436999994,27.980583019217686],[-99.96300317999999,27.983798799217634],[-99.99049225999994,27.993616539217467],[-100.00764131999995,28.02146293921695],[-100.01219213999998,28.035370509216705],[-100.01774708999994,28.065133509216164],[-100.02835136999994,28.073133739216015],[-100.04579788999996,28.079012919215867],[-100.05300301999995,28.085052419215803],[-100.05665267999996,28.09391364921562],[-100.05538481999997,28.10058161921552],[-100.05647374999995,28.1047518792154],[-100.06780693999997,28.114328369215265],[-100.07814065999997,28.12978701921496],[-100.08460985999996,28.145028689214705],[-100.09019956999998,28.148327459214645],[-100.12006650999996,28.155849249214516],[-100.14068245999995,28.16800753921429],[-100.15911939999995,28.167688619214253],[-100.16759851999996,28.17093014921422],[-100.17380644999997,28.178905149214057],[-100.18425445999998,28.184961399213975],[-100.19660850999999,28.189964339213898],[-100.20916111999999,28.19122622921384],[-100.21290414999999,28.199119799213715],[-100.21341199999995,28.209204399213498],[-100.21707285999999,28.2257695192132],[-100.22063694999997,28.232757969213058],[-100.22478630999997,28.235746279213043],[-100.24425219999995,28.23438382921308],[-100.25451509,28.23787396921301],[-100.27234602999995,28.256176309212677],[-100.28174814999994,28.269513219212445],[-100.28940219999998,28.273788549212355],[-100.29362128999998,28.27876336921223],[-100.29399155,28.284663619212164],[-100.28615913999994,28.30746188921175],[-100.28676005999996,28.313242459211597],[-100.29118307999994,28.320012629211526],[-100.30894916999995,28.338757199211145],[-100.31048619999996,28.343132909211107],[-100.31452397999999,28.346063029211024],[-100.31875867999997,28.360022279210806],[-100.34293138,28.38715774921027],[-100.34948188999994,28.40340045921],[-100.34200822999999,28.413553319209832],[-100.33591302999997,28.43013701920955],[-100.33746782999998,28.443022459209313],[-100.34146147999998,28.449660879209187],[-100.36035010999996,28.466452199208863],[-100.36839922999997,28.476666889208673],[-100.36790321999996,28.47947797920866],[-100.36478159999996,28.48151344920857],[-100.35610097999997,28.481878429208585],[-100.34436882999996,28.486157569208512],[-100.33593841999999,28.493259939208365],[-100.33387441999997,28.499281659208297],[-100.33756364999994,28.501565339208256],[-100.35476433999999,28.504358799208173],[-100.36043177999994,28.507802029208126],[-100.38076853999998,28.512094999208045],[-100.38854025999996,28.515398979207998],[-100.39398568999997,28.52739745920775],[-100.40474222999997,28.535549829207625],[-100.41099985999996,28.54975201920735],[-100.40920134,28.55642482920724],[-100.39738681999997,28.574833879206892],[-100.39680425899998,28.58096693920683],[-100.39869381999995,28.58537601920676],[-100.42985788999995,28.596229539206522],[-100.43213388999999,28.598366719206524],[-100.43359188999995,28.606289999206368],[-100.44715693999996,28.609227029206327],[-100.44864319999999,28.616982149206184],[-100.44542273999997,28.637649309205788],[-100.44617917999994,28.64168919920572],[-100.45533059999997,28.642785509205734],[-100.46146713999998,28.640839619205764],[-100.47435485999996,28.64712276920567],[-100.47962444899997,28.655607089205496],[-100.49661471999997,28.658690859205418],[-100.50017719999995,28.661668149205365],[-100.50819417999998,28.684085539205],[-100.51201516999998,28.706489619204607],[-100.50666790999998,28.716932149204407],[-100.50796005999996,28.722456779204332],[-100.50737042799994,28.740417618203974],[-100.51444407999999,28.742166969203936],[-100.51451736699995,28.751331168203777],[-100.52105759999996,28.75761245920371],[-100.52831225999995,28.755779569203746],[-100.53344466,28.75881145920368],[-100.53293605699999,28.764033628203567],[-100.52969885699997,28.768653898203517],[-100.53050982699995,28.772120988203405],[-100.53506556699995,28.775466382203344],[-100.53810441799999,28.781251368203293],[-100.53298684999999,28.788536449203118],[-100.53512847999997,28.80471142920285],[-100.54182144999999,28.808046249202825],[-100.54610837999998,28.812829079202686],[-100.54551347999995,28.818458339202625],[-100.54763174,28.82624036920247],[-100.56179210999994,28.82919919920242],[-100.57064048999996,28.826098539202455],[-100.57442284999996,28.828552169202403],[-100.57702307999995,28.83582441920231],[-100.57300142999998,28.848768179202068],[-100.57933822999998,28.85524396920198],[-100.58986745,28.861571319201857],[-100.59153227999997,28.864635489201806],[-100.59038908999999,28.872917119201674],[-100.59690021999995,28.873136889201668],[-100.59880051999995,28.874796429201623],[-100.59893974999994,28.87963081920153],[-100.59151401999999,28.88290639920145],[-100.58926451999997,28.885497079201436],[-100.59184516999994,28.889612279201362],[-100.59942319999999,28.886519369201398],[-100.60342285999998,28.88768204920137],[-100.60095070999995,28.90161039920114],[-100.60746917999995,28.902768739201143],[-100.61082204999997,28.900714799201186],[-100.61336942999998,28.901183259201147],[-100.61582690999995,28.90293048920115],[-100.61648027999996,28.907300029201046],[-100.62253954999994,28.910192509201014],[-100.62460753999994,28.909472349201007],[-100.62680490999998,28.903909739201143],[-100.63256465999996,28.90374425920112],[-100.63638196999995,28.911323049201002],[-100.64091433999995,28.914615259200943],[-100.63886744999998,28.916555029200882],[-100.63152173999998,28.916776049200912],[-100.62970917999996,28.918957859200834],[-100.62965165999998,28.922550709200785],[-100.63105896999998,28.92451634920074],[-100.63801567999997,28.92698361920071],[-100.64537519999999,28.9398998492005],[-100.65145648,28.942863709200424],[-100.65071005999994,28.948511859200337],[-100.64698162999997,28.956434509200204],[-100.64765587999995,28.960159829200144],[-100.65062008999998,28.962238349200103],[-100.64637319999997,28.967482579199977],[-100.64851490999996,28.982914509199748],[-100.64566651999998,28.987898399199654],[-100.64919416999999,28.99577405919949],[-100.64858604999995,28.99964059919946],[-100.65103645999994,29.0083353791993],[-100.65630999999996,29.018100519199134],[-100.66020541999995,29.031917459198873],[-100.66366916999999,29.05054865919856],[-100.66442231999997,29.07468145919815],[-100.66884061999997,29.09002879919784],[-100.67611902999994,29.10329559919761],[-100.68440674999994,29.11139456919752],[-100.70878565999999,29.118888849197393],[-100.72447294999996,29.127284049197247],[-100.73876954999997,29.14034256919698],[-100.73703525999997,29.14771122919684],[-100.73932379999997,29.15017953919684],[-100.74684537999997,29.154547419196728],[-100.75959025999998,29.157034349196717],[-100.76350867999997,29.160104419196646],[-100.76410865999999,29.165421119196594],[-100.76844787999994,29.16584214919658],[-100.77277950999996,29.16839151919652],[-100.77607882999996,29.172698019196428],[-100.76624891999995,29.184895309196232],[-100.76701314999997,29.195706029196042],[-100.76932604999996,29.19923979919598],[-100.77603064999994,29.199754909195942],[-100.77664561999995,29.204476139195894],[-100.77382911999996,29.210566649195766],[-100.78151314999997,29.219549659195625],[-100.78516973999996,29.227872109195506],[-100.79164656899997,29.22559822919554],[-100.79580816999999,29.228761219195444],[-100.79702871999996,29.233943399195375],[-100.79427047999997,29.24210033919523],[-100.79597933999997,29.2451894591952],[-100.80576227999995,29.25206404919508],[-100.81620130999994,29.253637139195014],[-100.81633181999997,29.256300279195013],[-100.81285174099999,29.26144641919489],[-100.81378510999997,29.263711979194866],[-100.81818073999995,29.26425353919484],[-100.82449891999994,29.26152997919489],[-100.83488408999995,29.261587089194897],[-100.84041042999996,29.264217909194887],[-100.84862785999997,29.271842179194756],[-100.85282041999994,29.272123339194742],[-100.85509171999996,29.2757163991947],[-100.86325302999997,29.275837649194642],[-100.87686828999995,29.280143569194607],[-100.88032613999997,29.282716579194553],[-100.88132250999996,29.298331449194272],[-100.88643556999995,29.30777514919412],[-100.89340971999997,29.310606229194104],[-100.89789473999997,29.30928796919412],[-100.90056748899997,29.31023975019406],[-100.90643586,29.313183489194003],[-100.90795419899997,29.316954049193964],[-100.91703125899996,29.319394490193897],[-100.91893088899998,29.325475830193824],[-100.92792848899997,29.3267091491938],[-100.93985044999994,29.33261894919368],[-100.94380859999995,29.34304293919351],[-100.95024394999996,29.347943569193415],[-100.96477684999996,29.34756481919344],[-100.97200610999994,29.351777949193362],[-100.97373102999995,29.35521097919328],[-100.99467853999994,29.363205779193162],[-101.00474365999997,29.365317879193153],[-101.01005871999998,29.368532169193063],[-101.01409642999994,29.374046519192962],[-101.01335124999999,29.38036850919287],[-101.01811161999997,29.3893091491927],[-101.03706522999994,29.406451819192412],[-101.03882830999999,29.41054327919237],[-101.03816722999994,29.41724771919223],[-101.04318896999996,29.429431079192018],[-101.05700376999994,29.44075422919184],[-101.05983427999996,29.460565019191506],[-101.06181233999997,29.46424551919148],[-101.08772037999995,29.472695909191287],[-101.09307554999998,29.473226649191318],[-101.11309479999994,29.47006422919135],[-101.11812391999996,29.470928429191353],[-101.12980644999999,29.476687079191226],[-101.14272873999994,29.47321033919129],[-101.14763302999995,29.47446148919129],[-101.16134233999999,29.489547859191035],[-101.17612973999998,29.51202484919065],[-101.18555225999995,29.518001859190516],[-101.23631285999994,29.523732779190436],[-101.25407796999997,29.520822649190503],[-101.25860147999998,29.5224405691905],[-101.26068051,29.52499574919044],[-101.26116108999999,29.529395419190365],[-101.25833297999998,29.54276551919012],[-101.25434698,29.551279719189957],[-101.24301433999995,29.566170579189745],[-101.25225697999997,29.603161319189077],[-101.24801794999998,29.615813979188875],[-101.24915101999994,29.622856289188782],[-101.25275062999998,29.626377999188698],[-101.26205415,29.630248679188675],[-101.26699330999998,29.630406399188622],[-101.27027164999998,29.628219979188675],[-101.28076810999994,29.617154679188868],[-101.27694027999996,29.601108979189135],[-101.27891288099994,29.58766901918939],[-101.29152465999995,29.572078599189634],[-101.29687645999996,29.572228179189594],[-101.30222810999999,29.576032949189596],[-101.31001608999999,29.585366149189383],[-101.31267659999997,29.605904199189066],[-101.31043468999997,29.617045569188896],[-101.30050211999998,29.6379387391885],[-101.30175050999999,29.650959279188303],[-101.31902113999996,29.660639549188126],[-101.33688162999994,29.659627369188172],[-101.34585750999997,29.662760939188107],[-101.34908291999996,29.660718799188135],[-101.35551141999998,29.64936177918832],[-101.35827851999996,29.647908569188335],[-101.36070942999999,29.648688319188366],[-101.36335554999994,29.65602944918822],[-101.36433299999999,29.666898879188057],[-101.37349182999999,29.677479249187844],[-101.37011877999998,29.693523279187612],[-101.37090888999995,29.698810459187506],[-101.37490616999997,29.702706369187425],[-101.38867736999998,29.70775985918736],[-101.39768253999995,29.713785749187245],[-101.39899497999994,29.718301459187188],[-101.39618730999996,29.728284509186988],[-101.39717964999994,29.735352449186873],[-101.40054865999998,29.738372199186855],[-101.40873159999997,29.74079077918681],[-101.41569644999998,29.7464146191867],[-101.41490245099999,29.752590719186603],[-101.40161248999999,29.758812199186515],[-101.39865384999996,29.762642419186452],[-101.39877373999998,29.76767225918633],[-101.40131976999999,29.77070685918632],[-101.40711122,29.771525769186276],[-101.41386886,29.768424419186307],[-101.43685708999999,29.75109564918659],[-101.44767693999997,29.750485049186643],[-101.45104291999998,29.753298089186575],[-101.45272313999999,29.764254979186397],[-101.45547101999996,29.770673569186286],[-101.45342245999997,29.784668969186054],[-101.45720996999997,29.78881768918598],[-101.46429811999997,29.78960990918596],[-101.47946237999997,29.783472849186097],[-101.48642434899996,29.774407949186248],[-101.50222079999999,29.76415862918642],[-101.51999761999997,29.76492985918639],[-101.53060371999999,29.758451709186478],[-101.53665427999994,29.758120999186527],[-101.53972956999998,29.761363879186433],[-101.53798253999999,29.777496019186195],[-101.53896304999995,29.786361289186047],[-101.53498870999995,29.797599709185842],[-101.54042407999998,29.80886174918568],[-101.54464817999997,29.812187779185606],[-101.55256517,29.80408710918575],[-101.55766392,29.801287029185758],[-101.56494202999994,29.800687779185786],[-101.56948339999997,29.796811049185848],[-101.57466191999998,29.78847308918598],[-101.57283714,29.784557279186078],[-101.57236987999995,29.774592999186208],[-101.57486133999998,29.769276019186332],[-101.59515876999995,29.77161459918631],[-101.60394454999994,29.774453419186226],[-101.61639870999994,29.769746549186312],[-101.62719462999996,29.770867379186267],[-101.63276376999994,29.765048539186406],[-101.63388042999998,29.759877859186506],[-101.64385642999999,29.75407376918657],[-101.65217226,29.75859876918649],[-101.65473557999997,29.765519229186378],[-101.65933653999998,29.767240519186345],[-101.66146497999995,29.77125848918628],[-101.67085993999996,29.76907142918633],[-101.67439425999999,29.7656847691864],[-101.67603157999997,29.760569459186478],[-101.68180950999994,29.761125229186465],[-101.68646793999996,29.76878442918631],[-101.68965841999994,29.7710812591863],[-101.69772464999994,29.765705919186402],[-101.71008144999996,29.76181994918648],[-101.71296037999997,29.76398402918644],[-101.71923722999999,29.775723349186237],[-101.72396868999999,29.776254679186227],[-101.7301546,29.771449119186304],[-101.73455412,29.771493549186285],[-101.73889187999998,29.77305556918627],[-101.74237317999997,29.77895947918614],[-101.75458785999996,29.7774576891862],[-101.75625377999995,29.77973251918614],[-101.77529848899998,29.789170619185988],[-101.78177565999994,29.789674709185974],[-101.78545653999998,29.788332909186018],[-101.78613802999996,29.782186379186093],[-101.78878925999999,29.77955988918613],[-101.80436774999998,29.78004290918616],[-101.81130045999998,29.7842303391861],[-101.81402621999996,29.79240982918595],[-101.81354827999998,29.7945182891859],[-101.80643651999998,29.799499369185792],[-101.80376533999998,29.80379439918578],[-101.81764666,29.81167042918561],[-101.82279927999997,29.810543519185654],[-101.82552208999999,29.807511999185664],[-101.82492996999997,29.80252227918577],[-101.81866817999997,29.792541689185953],[-101.81952508999997,29.789276939185978],[-101.82360117999997,29.78727348918604],[-101.83597451999998,29.79234631918592],[-101.84680734999995,29.80250737918578],[-101.84850773999995,29.806504379185686],[-101.85321343,29.807764459185677],[-101.85615156999995,29.80703874918571],[-101.86666484999995,29.797954309185823],[-101.87483419999997,29.79407751918589],[-101.88046013999997,29.795580319185884],[-101.88381779999997,29.793530979185945],[-101.89278962999998,29.79779587918582],[-101.91193364999998,29.798040569185858],[-101.91569830999998,29.795492949185874],[-101.92236390999996,29.78579154918604],[-101.92894862999998,29.782710179186086],[-101.93387648999999,29.786294569186047],[-101.93256119999995,29.793420479185926],[-101.93542614999996,29.799558369185828],[-101.94568437999999,29.801513679185767],[-101.95441734999997,29.79570757918589],[-101.95762054999994,29.79587208918588],[-101.96311884999994,29.80000477918581],[-101.96516273999998,29.806232109185714],[-101.96465614999995,29.809462449185666],[-101.96662274999994,29.812614549185582],[-101.97549365999998,29.81567687918557],[-101.98174307999994,29.814965909185574],[-101.98314736999998,29.809785229185643],[-101.98158128999995,29.806346449185693],[-101.98432593999996,29.798942479185833],[-101.98786459999998,29.796991509185872],[-101.99166028999998,29.798415089185827],[-101.99440608099997,29.805130229185703],[-101.99720033999995,29.806182879185712],[-102.01457130999995,29.797552279185844],[-102.01755848,29.798359259185833],[-102.02166545999995,29.802762709185743],[-102.02729919999996,29.80195477918579],[-102.03545009,29.80424785918572],[-102.03858337999998,29.803034249185767],[-102.04083271999998,29.799344709185846],[-102.03813757999995,29.791917259185947],[-102.04108841999994,29.789984119185974],[-102.04618202999995,29.790116399185973],[-102.04912108999997,29.785463019186064],[-102.05151502999996,29.785147419186046],[-102.05459935,29.787301279186035],[-102.07221610999994,29.78661611918606],[-102.07505405999996,29.788283509185995],[-102.07672545999998,29.792357079185926],[-102.08183405999995,29.79334581918594],[-102.08365162999996,29.795287939185872],[-102.09427062999998,29.791432249185966],[-102.10123642999997,29.79387468918592],[-102.10836304999998,29.792009689185942],[-102.11200304999996,29.793671089185885],[-102.11526904999994,29.792420719185937],[-102.11766205999999,29.79634831918587],[-102.11699610999995,29.80070507918581],[-102.11940333999996,29.802641429185762],[-102.12352830999998,29.80208327918575],[-102.12905981999997,29.79857924918583],[-102.14357610999998,29.80357961918575],[-102.14950334999997,29.8110890591856],[-102.15961897999995,29.814423919185543],[-102.16113476999999,29.818882089185486],[-102.16700253999994,29.825943119185354],[-102.17955254999998,29.82606365918536],[-102.18122401999996,29.831060449185298],[-102.1781686,29.836615849185193],[-102.17853607999996,29.84008508918516],[-102.18206044999994,29.84611430918507],[-102.18702745999997,29.848772999185005],[-102.19122079999994,29.847071659185016],[-102.19330161999994,29.839021349185156],[-102.19626292,29.836258349185194],[-102.20000073999995,29.837037459185172],[-102.20642156999999,29.843155369185073],[-102.20983659999996,29.844465969185062],[-102.21497767999996,29.844008519185067],[-102.21984601999998,29.840869339185115],[-102.22323013999994,29.84053921918512],[-102.23179253999996,29.84833097918502],[-102.24459737999997,29.848773489184993],[-102.24551636999998,29.85129362918496],[-102.24334296999996,29.859277949184808],[-102.24643821999996,29.864225799184737],[-102.24995148,29.86343937918474],[-102.25274731999997,29.853483919184896],[-102.26033922999996,29.853123019184935],[-102.26402050999998,29.85527117918489],[-102.26202992099998,29.863183369184778],[-102.26509925999994,29.867701769184688],[-102.26906381999999,29.867933829184658],[-102.27577810999998,29.863222979184766],[-102.28123957999998,29.862927289184782],[-102.28710804999999,29.871328089184644],[-102.29549001999999,29.8735004591846],[-102.30075364999999,29.87768773918452],[-102.31163044999995,29.87699788918453],[-102.31548646,29.879999539184457]]]}}]}
