{"type":"FeatureCollection","features":[{"type":"Feature","properties":{"cve_ent":"06","cvegeo":"06","nombre_inegi":"Colima","nombre_catalogo":"Colima"},"geometry":{"type":"MultiPolygon","coordinates":[[[[-103.61827650999999,19.51251876940535],[-103.65154094999997,19.500996029405673],[-103.66487861999997,19.502630909405614],[-103.67572170999995,19.49675381940575],[-103.68044824999998,19.495942479405784],[-103.68283081999999,19.493120019405854],[-103.68480814999998,19.494231749405824],[-103.69004528999994,19.492447769405885],[-103.69338428999998,19.486589059406004],[-103.69882747999999,19.48476114940608],[-103.69885085999994,19.482105859406133],[-103.70424841999996,19.477098779406287],[-103.70827330999998,19.469856539406432],[-103.71578939999996,19.467009519406506],[-103.71615645999998,19.45695804940676],[-103.71825731999996,19.453497509406862],[-103.72543576999999,19.451228169406914],[-103.73530867999996,19.44342299940714],[-103.75065831999996,19.44566356940705],[-103.76780842999996,19.43462719940733],[-103.77143507999996,19.433829339407378],[-103.77437411999996,19.430549379407474],[-103.77888131999998,19.43100264940744],[-103.79273365999995,19.427513689407554],[-103.79813862999998,19.42182902940766],[-103.80133590999998,19.42197341940766],[-103.80920783,19.415387029407828],[-103.81765705999999,19.412442769407917],[-103.81925285999995,19.408739709408046],[-103.82339684999994,19.416910889407816],[-103.82205833999996,19.422496779407705],[-103.82352825999999,19.427210489407546],[-103.82796806,19.432665309407415],[-103.82413488999998,19.437788249407266],[-103.83524817999997,19.4397040194072],[-103.84099994999997,19.43823279940725],[-103.84664301999999,19.433703169407394],[-103.85273173999997,19.431260119407433],[-103.85645276999998,19.431330539407433],[-103.85916048999997,19.43343054940737],[-103.85821296999995,19.437132249407288],[-103.86375499999997,19.447384739407052],[-103.86929041999998,19.444921599407085],[-103.87266410999996,19.445562819407108],[-103.87556484999999,19.443216979407133],[-103.87941816999997,19.444488659407106],[-103.88326227999994,19.456044059406825],[-103.88933088999994,19.463597309406627],[-103.89731771,19.4614318794067],[-103.90876546,19.453628309406866],[-103.89796207999996,19.438599489407267],[-103.89762887999996,19.436282449407337],[-103.89952159999996,19.43454724940735],[-103.93085651899997,19.44548222040711],[-103.96479865999999,19.45416265040685],[-103.97129008999997,19.46263249040661],[-103.97400708999999,19.474552910406317],[-103.98709712,19.474295919406316],[-103.98816433999997,19.471160249406402],[-103.99767242999997,19.471626180406403],[-104.00004554999998,19.468828830406483],[-104.00564988899998,19.472275479406402],[-104.03913571,19.484661460406052],[-104.05176359899997,19.497600539405756],[-104.06172505999997,19.49770293940576],[-104.06898125899994,19.484296829406087],[-104.07208164999997,19.48339496940612],[-104.07202257899996,19.482075139406152],[-104.07451025999995,19.48264499940613],[-104.07673951899994,19.48021471940619],[-104.08663977899994,19.44203099940716],[-104.08048728899996,19.43521294040733],[-104.07994293899999,19.431781749407406],[-104.07088374899998,19.43523543040731],[-104.08383739899996,19.415598949407848],[-104.08420536899997,19.409072340408034],[-104.090226219,19.3930247994084],[-104.10959799999995,19.381197089408733],[-104.11879857999998,19.371663550408964],[-104.12026321999997,19.360090449409245],[-104.13334411999995,19.3537458304094],[-104.12472650899997,19.328689709410067],[-104.12158862899997,19.3274965494101],[-104.12476659899995,19.326276629410128],[-104.12549736999995,19.32425225041022],[-104.12298461999997,19.319041939410308],[-104.12576039899994,19.3204044504103],[-104.12985225999996,19.317809419410374],[-104.13220774899999,19.320886260410287],[-104.13604991899996,19.31631147941037],[-104.13603599899996,19.312934940410464],[-104.13772068999998,19.31241476941047],[-104.14015885999999,19.31616703041043],[-104.14478908999996,19.311240969410502],[-104.15293037899995,19.31515241941044],[-104.1540058,19.311962829410483],[-104.15809879899996,19.310831489410536],[-104.16164982999999,19.30271964941073],[-104.163755489,19.308228719410593],[-104.16880982999999,19.307676630410608],[-104.16979657899998,19.312963739410478],[-104.17353461899997,19.314303089410462],[-104.17980131899999,19.312562120410483],[-104.18147854899996,19.311093399410538],[-104.17963068999995,19.30880428941061],[-104.185621579,19.30621004941067],[-104.18471936899999,19.303578819410703],[-104.19001636999998,19.30203270941076],[-104.18967993899999,19.293350889411],[-104.19166736999995,19.292209769411013],[-104.19233237999998,19.295319079410955],[-104.19672648999995,19.29659451041088],[-104.20434628999999,19.30360222041074],[-104.20691817899996,19.300012719410805],[-104.21417319999995,19.30237333941073],[-104.21842417,19.299015620410817],[-104.21964068899996,19.301351569410787],[-104.22561377999996,19.302000569410794],[-104.23418710999995,19.307622339410585],[-104.24313271999996,19.309388479410583],[-104.24626817999996,19.31195541941052],[-104.25585761999997,19.309899179410564],[-104.26117904999995,19.31180619941049],[-104.26223331999995,19.307370779410615],[-104.26750133999997,19.30492116941069],[-104.26980059999994,19.301927089410757],[-104.27640693999996,19.300788379410772],[-104.27964082999996,19.30338307941074],[-104.28145401999996,19.302808849410766],[-104.28363524999999,19.297005279410904],[-104.28688633999997,19.296938349410897],[-104.28716148999996,19.299922689410835],[-104.29218097999996,19.30301211941076],[-104.29759099999995,19.30267076941077],[-104.30010076999997,19.296024379410927],[-104.31063373999996,19.289507479411085],[-104.31124462999998,19.28320037941123],[-104.31480390999997,19.27935588941133],[-104.32252568999996,19.280547579411333],[-104.32461834999998,19.283601749411247],[-104.33097784999997,19.287560219411134],[-104.33413071999998,19.28650136941116],[-104.33783556999998,19.289039399411077],[-104.34388028999997,19.289545979411105],[-104.35794296999995,19.270569289411547],[-104.36187369,19.269078419411592],[-104.36434521999998,19.269791489411585],[-104.36331611999998,19.27533621941144],[-104.37427346,19.281883979411262],[-104.38433093999998,19.272041579411553],[-104.39556059999995,19.271288249411555],[-104.40132250999994,19.266813029411658],[-104.40319062999998,19.271781419411514],[-104.40130176999999,19.276023739411407],[-104.40245262999997,19.27840065941136],[-104.39743167999997,19.285819199411172],[-104.40094559999994,19.289069799411102],[-104.41236517999995,19.285329249411213],[-104.41321673999994,19.282945349411243],[-104.41744762999998,19.28026908941132],[-104.42025259999997,19.27957305941137],[-104.42381519999999,19.282081119411266],[-104.42923307999996,19.27929134941135],[-104.43664107999996,19.279387429411337],[-104.43925911999999,19.277987859411382],[-104.43574988999995,19.27015561941155],[-104.43840784999998,19.262873089411748],[-104.44892917,19.25899701941186],[-104.45752701999999,19.25941945941187],[-104.45980496999994,19.254448419412007],[-104.45569873999995,19.248040259412136],[-104.46005636999998,19.245981539412217],[-104.46302342999996,19.24736827941216],[-104.46700817999994,19.24510688941223],[-104.46324162999998,19.237485139412428],[-104.46301625999996,19.232959659412558],[-104.46478459999997,19.230037779412598],[-104.46689632,19.231010219412575],[-104.47167290999994,19.228835849412654],[-104.47339013999999,19.23022977941263],[-104.47400914999999,19.23654813941243],[-104.47725768999999,19.2387033794124],[-104.48384950999998,19.230540459412598],[-104.48895488999995,19.22994336941263],[-104.49014190999998,19.23273397941253],[-104.48844802999997,19.24723268941215],[-104.49453543,19.25394704941198],[-104.49737974999995,19.254497049411988],[-104.50142517999997,19.252592139412037],[-104.50608994,19.245083079412208],[-104.50838473999994,19.24422504941228],[-104.51407514,19.248144939412136],[-104.52331937999999,19.26037237941183],[-104.53028785999999,19.259788829411853],[-104.53378370999998,19.25804073941192],[-104.53705164999998,19.25103485941209],[-104.54847134,19.243346829412292],[-104.55451594999995,19.23709777941244],[-104.56028650999997,19.22817859941265],[-104.55924604999997,19.221550949412833],[-104.56026131,19.219698549412872],[-104.56241861999996,19.218229119412918],[-104.56729531999997,19.219758029412866],[-104.56911273999998,19.218695229412894],[-104.57054414999999,19.21368105941304],[-104.56960128999998,19.205883419413272],[-104.56724856999996,19.201266119413386],[-104.56970019999994,19.197023509413476],[-104.57476910999999,19.193030379413557],[-104.57436013999995,19.185756939413743],[-104.57693761999997,19.180204599413884],[-104.58097708999999,19.177615449414],[-104.58398961999997,19.177989319413967],[-104.5866678,19.18538505941377],[-104.59002879999997,19.186531679413715],[-104.59549685999997,19.1842561994138],[-104.60028747999996,19.17905336941396],[-104.59607313999999,19.1716066794141],[-104.59614262999997,19.16405222941431],[-104.58578016999996,19.161814319414404],[-104.58703859999997,19.153520939414616],[-104.58984008,19.150095219414663],[-104.60331921999995,19.15205945941461],[-104.60817150999998,19.154930509414548],[-104.61283388999999,19.155482819414527],[-104.61147357999994,19.16100094941442],[-104.61574770999995,19.161680889414402],[-104.61678165999997,19.166243519414238],[-104.61895728999997,19.16766665941424],[-104.61590701999995,19.170566169414133],[-104.61530150999994,19.174104169414075],[-104.61608704999999,19.17795816941398],[-104.61882156999997,19.180851449413865],[-104.62602742999998,19.178203479413945],[-104.62628450999996,19.17585382941403],[-104.62934159999999,19.17290634941411],[-104.65367076999998,19.182615889413814],[-104.67514564999999,19.185495739413742],[-104.67997933999999,19.1931715194136],[-104.68361230999994,19.18995791941364],[-104.68157241999995,19.188572969413695],[-104.68271022999994,19.187561679413708],[-104.68032868999997,19.185506599413774],[-104.68093591999998,19.183773749413817],[-104.68498511999996,19.18240797941385],[-104.68519993999996,19.184815629413794],[-104.68799891999998,19.184878679413778],[-104.69058568999998,19.176975879413984],[-104.68394402999996,19.176789109414013],[-104.66986211199998,19.173109664414067],[-104.60400928999996,19.150866119414662],[-104.56294956999996,19.14399727941486],[-104.48938204999996,19.124553149415355],[-104.47323674999996,19.116466319415537],[-104.46719356899996,19.109892858415737],[-104.46334122099996,19.111930866415687],[-104.45147239999996,19.108483719415748],[-104.45040061999998,19.103773089415895],[-104.45152237999997,19.103940109415884],[-104.44976864999997,19.10342144941588],[-104.45244923899998,19.10086875241595],[-104.44797292,19.099049429415988],[-104.449526071,19.094206260416144],[-104.446086559,19.09336512241617],[-104.44565349799997,19.091816092416167],[-104.44825134999996,19.09104825941619],[-104.44482727999998,19.091113979416203],[-104.44171797999996,19.083256749416396],[-104.43946570899999,19.08469555541637],[-104.43752796999996,19.08351971941638],[-104.43835094999999,19.084987939416393],[-104.43695894699994,19.085328492416387],[-104.43641574999998,19.086046719416366],[-104.43815819499999,19.085561678416326],[-104.43705888399995,19.088035128416283],[-104.43848163899997,19.089327308416255],[-104.43652588599997,19.090608515416207],[-104.43959895899998,19.09480588541614],[-104.43847466499994,19.098395302416048],[-104.43486026199999,19.097087788416054],[-104.43366934199999,19.09362329241616],[-104.43253671999997,19.094672636416092],[-104.42978011299999,19.091916030416176],[-104.42775837,19.093285079416145],[-104.42782300599998,19.09179943541618],[-104.42725669399995,19.09264057541618],[-104.42798123999997,19.09443112041615],[-104.425815931,19.097495865416022],[-104.42358399599999,19.097512521416036],[-104.42318424799998,19.100543955415937],[-104.41996959599999,19.10086875141596],[-104.41737955199994,19.10544921341582],[-104.41132025499996,19.10644977741583],[-104.41013890999994,19.103420779415863],[-104.40897172699995,19.104234499415902],[-104.40631505799998,19.102752095415926],[-104.407414369,19.10080331641596],[-104.40460898399999,19.10086708541596],[-104.40422476999998,19.096979139416035],[-104.40204392599999,19.097086123416048],[-104.39869602399995,19.09314692441615],[-104.39917905499999,19.089515867416235],[-104.39767999499998,19.089315993416275],[-104.39837955699994,19.087533776416286],[-104.39672407999996,19.08779557941628],[-104.39543140499995,19.085027014416365],[-104.39458193499998,19.08683421441633],[-104.39585214999994,19.087769182416288],[-104.39431187999998,19.08825927941628],[-104.39533979399994,19.09013214741624],[-104.39181700099999,19.091339723416173],[-104.39225567999996,19.094310649416144],[-104.38980028999998,19.09601601941607],[-104.39204169,19.10099684941596],[-104.39685677699998,19.103128923415884],[-104.39879501999997,19.10648441941584],[-104.39812287999997,19.10978291941572],[-104.39394294,19.114612949415587],[-104.38563065999996,19.118335449415525],[-104.37538377999999,19.11966413941548],[-104.36524415399998,19.118722730415495],[-104.35540855,19.115383849415586],[-104.35080937099997,19.110011354415715],[-104.35252983699996,19.106051991415836],[-104.35459917999998,19.10532328941585],[-104.35369027999997,19.1039764594159],[-104.35081769999994,19.105139408415855],[-104.34982665399998,19.10350709741586],[-104.35075107499995,19.100725507415948],[-104.35617267799995,19.096944544416058],[-104.35387681999998,19.094486149416092],[-104.35507071999996,19.09258327941616],[-104.35415533999998,19.091037799416206],[-104.35026719999996,19.0908217494162],[-104.34876898399995,19.096761326416036],[-104.34401676999994,19.09843279941603],[-104.34687077999996,19.09969771941599],[-104.34498650999997,19.09954833941601],[-104.34695531599999,19.10089919041596],[-104.34538963199998,19.103172764415913],[-104.34023452899999,19.10405554441588],[-104.33397297699997,19.10216030441592],[-104.32457886599997,19.097639329416037],[-104.31446139899998,19.089825179416238],[-104.30817010299995,19.081744528416454],[-104.303953698,19.07185548841668],[-104.30324937699999,19.062549417416967],[-104.30543650999999,19.061638029416965],[-104.30406910199997,19.05901948641705],[-104.30535163099997,19.057295568417118],[-104.31109818,19.053690371417197],[-104.31427222899998,19.05409965441719],[-104.31420560599997,19.0563173114171],[-104.31169289399998,19.058515934417066],[-104.31452625999998,19.056158399417136],[-104.31486916999997,19.05425785941718],[-104.31768658199996,19.05467619641715],[-104.31589879999997,19.05756410941707],[-104.31787527999995,19.056130649417124],[-104.318184063,19.058015056417055],[-104.31466433899999,19.061171080416987],[-104.33007424999994,19.051159859417233],[-104.32984342199997,19.047213493417356],[-104.33206577999995,19.0443105394174],[-104.33100237999997,19.03629065941766],[-104.33399522999997,19.033612749417678],[-104.33284514999998,19.03094902941776],[-104.336290573,19.029441299417787],[-104.33446759999998,19.026693349417908],[-104.33646497999996,19.02241988941798],[-104.33206411999998,19.01762187941811],[-104.32981999999998,19.017937379418086],[-104.32876927999996,19.020005229418036],[-104.31958036999998,19.018935619418073],[-104.29514907299995,19.01252183041828],[-104.26564401999997,19.00158716941853],[-104.26201079699996,18.99904213841859],[-104.26264426599994,18.996699600418655],[-104.26120897199996,18.998997811418583],[-104.25652970699998,18.998393335418616],[-104.25767832999999,18.994894898418686],[-104.25646035999995,18.997081923418634],[-104.24973448499998,18.995882352418693],[-104.16081368999994,18.96268390941956],[-104.10876942999994,18.938602029420146],[-104.04876315999996,18.903665075421074],[-103.99934144999999,18.880551829421687],[-103.99057879499998,18.87417522542183],[-103.98320841499998,18.87225143142188],[-103.97023321399998,18.863157131422103],[-103.94750413999999,18.842092249422688],[-103.87659559999999,18.799230909423812],[-103.80341893999997,18.748910229425093],[-103.75264113999998,18.70305924942628],[-103.74312357999997,18.692990479426577],[-103.73976135699998,18.68481074642677],[-103.73790523299999,18.68402294142683],[-103.73652102999996,18.688308919426692],[-103.73798222999996,18.694074429426554],[-103.72875004999997,18.700138979426416],[-103.72568890999997,18.70767667942621],[-103.71893030999998,18.710431489426146],[-103.71271737999996,18.72635393942568],[-103.70858805999995,18.729881549425635],[-103.70364579999995,18.73895873942537],[-103.70316757999996,18.748494419425114],[-103.70030264999997,18.754355749424974],[-103.69757079999994,18.755922549424906],[-103.68954333999994,18.754531949424976],[-103.68543837999995,18.757292769424897],[-103.68302747999996,18.766903219424663],[-103.679017,18.77321104942447],[-103.66935671999995,18.77446699942446],[-103.66184322999999,18.7789521094243],[-103.65850745999995,18.77919833942432],[-103.65371133999999,18.776542419424402],[-103.64508564999996,18.78232708942422],[-103.63797821999998,18.783207539424204],[-103.63448317999998,18.788551749424087],[-103.62863341999997,18.79181628942399],[-103.62003101999996,18.801383199423718],[-103.62159791999994,18.810095949423523],[-103.62069141999997,18.82035181942324],[-103.62619965,18.83097436942296],[-103.61740759999999,18.839695399422727],[-103.61718726,18.84285133942265],[-103.62443925999999,18.85265804942241],[-103.63428924999994,18.859219799422256],[-103.64057236999999,18.867244489422056],[-103.64034310999996,18.86953724942198],[-103.63231330999997,18.87930437942173],[-103.63028008999999,18.885324849421572],[-103.62675391999996,18.888754819421447],[-103.62315668999999,18.889436489421442],[-103.62028188999996,18.893039019421366],[-103.61555610999996,18.89242087942135],[-103.60866902,18.88841194942146],[-103.60562505999998,18.883163799421588],[-103.60252659999998,18.881599259421634],[-103.59629008999997,18.883945369421586],[-103.58820781999998,18.8757506594218],[-103.58985396999998,18.87077971942192],[-103.58757568999994,18.86584694942206],[-103.58437688,18.86615624942208],[-103.58234402999994,18.87562485942184],[-103.57812405999994,18.87527241942181],[-103.57324414,18.8713278894219],[-103.57223007999995,18.880218739421668],[-103.56870333999997,18.884436749421603],[-103.56885328999999,18.892518799421378],[-103.559625,18.895955689421285],[-103.55807467999996,18.90658042942102],[-103.55239182999999,18.906153149420984],[-103.54148905999996,18.909665229420895],[-103.53323972,18.90521807942104],[-103.53134791999997,18.90625911942103],[-103.52841402999998,18.912316719420833],[-103.53306796999999,18.919245999420667],[-103.53405870999997,18.92629319942047],[-103.53138870999999,18.927797779420438],[-103.52354831999997,18.927198939420457],[-103.51922856999995,18.932909999420318],[-103.51442161999995,18.934388739420253],[-103.51458419999996,18.938593629420193],[-103.52010657999995,18.94306730942006],[-103.52253563,18.947916689419927],[-103.51946784999997,18.95022614941987],[-103.51240744999996,18.949407629419888],[-103.51015728,18.946262109419994],[-103.50636999999996,18.94822551941992],[-103.50291537999999,18.95778954941965],[-103.50773689,18.96001517941958],[-103.50860144999996,18.963671319419532],[-103.49306177999995,18.957955949419663],[-103.49048090999997,18.958991179419655],[-103.48845301999995,18.9639051794195],[-103.48954204999995,18.96869148941936],[-103.49440021999999,18.970114449419327],[-103.49567588999997,18.972043679419322],[-103.48985070999998,18.980771649419086],[-103.49219461999996,18.987066579418894],[-103.49083121999996,18.995820819418704],[-103.49394910999996,19.006892349418383],[-103.49682942,19.01125262941829],[-103.49878221999997,19.011673649418245],[-103.49446505999998,19.0147060794182],[-103.49396034999997,19.021829229418],[-103.48850553999995,19.027586749417868],[-103.49095745999995,19.029761539417784],[-103.4909052,19.03266982941771],[-103.49695104999995,19.035176779417643],[-103.49690171999998,19.041702399417513],[-103.50134068999995,19.04872294941733],[-103.50658839999994,19.04942113941728],[-103.50936405999995,19.057556449417074],[-103.51695387999997,19.060983289416967],[-103.52257413999996,19.066214849416863],[-103.52222599999999,19.076665229416594],[-103.52648062999998,19.078728049416526],[-103.52233310999999,19.09278127941616],[-103.51738777999998,19.098790599415988],[-103.52112708999994,19.101980279415958],[-103.52065387999994,19.11166036941565],[-103.52361679999996,19.115640659415575],[-103.51955693999997,19.124454539415343],[-103.51100904999998,19.132049109415117],[-103.51395454999994,19.138340539414994],[-103.51197864999995,19.14647301941476],[-103.50974865999996,19.14894667941471],[-103.50916564999996,19.155961309414554],[-103.50212054999997,19.162485909414357],[-103.50312679999996,19.170172119414193],[-103.49763087999997,19.174642149414066],[-103.49859282999995,19.18695173941372],[-103.50353262999994,19.194860679413498],[-103.51086505999996,19.19965793941342],[-103.51138284999996,19.20679741941321],[-103.51523851999997,19.211351799413098],[-103.50986657999994,19.213661829413024],[-103.51082417999999,19.216435969413],[-103.51396122999995,19.216672659412943],[-103.51414174999996,19.217984909412916],[-103.51099442999998,19.22167168941283],[-103.51068874999999,19.224603459412734],[-103.50659636999997,19.227494969412703],[-103.50768313999998,19.230448859412583],[-103.50569077999995,19.236156509412467],[-103.50990621999995,19.24330150941226],[-103.50532864999997,19.25326801941203],[-103.50792571999995,19.258251599411892],[-103.50673767999996,19.26638913941169],[-103.50887565999994,19.267111259411653],[-103.50707453999998,19.272701029411532],[-103.50798137,19.275338909411467],[-103.50621619999998,19.289713939411104],[-103.50918157999996,19.295149909410963],[-103.50597476999998,19.29617951941092],[-103.50509384999998,19.299336799410828],[-103.50096687999998,19.29975059941081],[-103.49922661999994,19.308506509410574],[-103.49505468999996,19.310306369410537],[-103.49219453999996,19.308365579410587],[-103.48987828999998,19.310686219410528],[-103.49001762999995,19.31452482941043],[-103.49566931,19.319755659410315],[-103.48681853999994,19.327413419410085],[-103.48642997999997,19.33789064940986],[-103.49270199999995,19.344274859409662],[-103.49255365799998,19.346505736409586],[-103.49753577999996,19.34711985940962],[-103.49904613999998,19.344553399409666],[-103.50166313999995,19.344890969409665],[-103.50474484999997,19.348497149409585],[-103.51860351999996,19.35462396940939],[-103.51714610999994,19.357079819409318],[-103.51943113999995,19.35591056940937],[-103.51998850999996,19.358052919409307],[-103.52220861999997,19.35782557940933],[-103.52672199999995,19.37276471940897],[-103.53325759999997,19.38023731940874],[-103.53632766,19.381045259408754],[-103.53829894999996,19.388511909408532],[-103.54249388999996,19.39078016940847],[-103.54297476999994,19.393980719408404],[-103.55169557999994,19.39917690940827],[-103.55621119999995,19.406971739408085],[-103.55907490999999,19.407584139408048],[-103.55891122999998,19.40900461940804],[-103.56878007999995,19.406241519408066],[-103.57426841999995,19.41156231940793],[-103.57448315,19.41495216940785],[-103.57709567999997,19.416152599407805],[-103.57548962999999,19.419986879407745],[-103.57869214999994,19.425929739407593],[-103.57891668999997,19.43548574940734],[-103.58632851999994,19.439524599407203],[-103.58666282999997,19.444029449407143],[-103.59818994999995,19.4554255494068],[-103.60147239999999,19.462681949406633],[-103.60767825999994,19.46561925940655],[-103.60868770999997,19.46963099940645],[-103.61187113999996,19.469974849406423],[-103.61535756999996,19.47499544940632],[-103.61241212,19.48563124940604],[-103.61244153999996,19.489482489405955],[-103.61482421999996,19.494046619405857],[-103.61072792,19.495496519405823],[-103.60619930999998,19.5005578594057],[-103.61827650999999,19.51251876940535]]],[[[-114.73398657799999,18.371696426435044],[-114.74262585400001,18.371214209435045],[-114.74799003699995,18.36679226543516],[-114.74943090599997,18.366453344435136],[-114.75095567199998,18.368630824435076],[-114.75637612499997,18.36530372543517],[-114.75574407299996,18.361339092435276],[-114.75743433099996,18.359571280435343],[-114.759389308,18.345741741435685],[-114.752103047,18.338863909435876],[-114.74114552499998,18.344014146435757],[-114.73746048599997,18.341335463435826],[-114.73593929799995,18.3428346794358],[-114.73509509099995,18.34106795043585],[-114.73230126799994,18.34227878143579],[-114.73309231699999,18.345095473435737],[-114.73083136199993,18.348784430435646],[-114.72875057099998,18.349141505435593],[-114.72441398099994,18.347166740435636],[-114.72360068799998,18.34532522143571],[-114.72535515000001,18.344707546435725],[-114.72500128999997,18.34293515743577],[-114.721304312,18.34458298743575],[-114.72148499399998,18.346117750435706],[-114.71210809099995,18.34839180943565],[-114.70943123999996,18.350457446435584],[-114.70245885699998,18.34895801243564],[-114.69836840799998,18.345159229435705],[-114.68050216599995,18.361308419435296],[-114.68489340800001,18.36753365943512],[-114.689607707,18.371135919435012],[-114.69371338599997,18.371437005435048],[-114.69545702699997,18.36826108543514],[-114.69776607999994,18.369543433435062],[-114.705936821,18.366867948435136],[-114.71553319999998,18.36774809743513],[-114.72250317199996,18.36596669543516],[-114.726172718,18.368070384435132],[-114.72769762599994,18.366606979435126],[-114.73398657799999,18.371696426435044]]],[[[-104.48606904299999,19.104844645415866],[-104.48882152799996,19.103569805415898],[-104.48734139199998,19.10120721141597],[-104.48488254699998,19.10282229441593],[-104.48606904299999,19.104844645415866]]],[[[-110.98633627599999,18.861140358422183],[-110.98378472299999,18.863740962422114],[-110.98855396599998,18.866480401422027],[-110.99109939299997,18.864552135422084],[-110.99118679599998,18.86281874542216],[-110.98845858599998,18.861973667422195],[-110.98933723399995,18.860769065422183],[-110.99889853899998,18.858949359422244],[-110.99792931999997,18.8519027004224],[-111.00063556799995,18.853180939422412],[-111.00828585399996,18.846866544422575],[-111.00989792499996,18.843793764422625],[-111.00703071799995,18.840077169422713],[-111.00917713399997,18.838988568422746],[-111.00895571299998,18.834873542422883],[-111.01060270499994,18.83309478542292],[-111.01188087599998,18.83489034042287],[-111.01253334399996,18.834083197422867],[-111.01046437299999,18.83143976442294],[-111.01127944599995,18.82927880842303],[-111.013389836,18.82879234442305],[-111.01177476299995,18.82800105942308],[-111.01293573399994,18.825372713423086],[-111.01801536599999,18.822524115423203],[-111.02510509999996,18.826059123423082],[-111.02851961899995,18.823190047423193],[-111.02743141499997,18.818935115423272],[-111.03702311199999,18.821047288423216],[-111.040454873,18.813880661423397],[-111.04289995999994,18.81464572442339],[-111.04162408799999,18.816690539423313],[-111.04801456899997,18.81613823642338],[-111.05007262299995,18.81752650842333],[-111.05205819599998,18.81630295542337],[-111.05028393899994,18.814633620423386],[-111.04342080199996,18.814518404423406],[-111.04577106299996,18.80967282242351],[-111.04821316699997,18.80849387242354],[-111.04510413399998,18.807216813423608],[-111.04645278399995,18.80171146242375],[-111.04096888599997,18.798441097423833],[-111.041510922,18.79483240142391],[-111.04357098699995,18.795116545423895],[-111.04515416799995,18.793149278423936],[-111.045723008,18.79450710442391],[-111.04742796699998,18.793996530423946],[-111.04576898999996,18.790640232424],[-111.05229762299996,18.78763131842413],[-111.05559143899997,18.780688869424296],[-111.05462417299998,18.779403094424342],[-111.05224291999998,18.78149048942428],[-111.04911067799998,18.779854983424304],[-111.04888435099997,18.78366065942422],[-111.04623477699994,18.78588410842414],[-111.04057049199997,18.78406470742422],[-111.03586203199995,18.787923752424074],[-111.03331612199997,18.780300616424267],[-111.02752200699996,18.778416560424322],[-111.028288822,18.77515452642442],[-111.022465158,18.77624806142438],[-111.02142926799998,18.775062219424427],[-111.02296331399998,18.768922234424593],[-111.01991331799996,18.76737725042461],[-111.01907557099997,18.763851572424745],[-111.015137429,18.764495730424716],[-111.01862236699998,18.76080682942479],[-111.015535534,18.753744180424995],[-111.013057087,18.75626868842489],[-111.01089114699994,18.756278514424938],[-111.00939970699996,18.75276802742501],[-111.00596024099998,18.752566104424982],[-111.00021426399996,18.75826195442484],[-110.99663061399998,18.753964613424973],[-110.98898144599997,18.75295818742499],[-110.98728091099997,18.75123593942508],[-110.98819929099994,18.748733172425123],[-110.98453950999999,18.74480016342519],[-110.97937570399995,18.747100533425133],[-110.97081733899995,18.745283580425177],[-110.96611366199994,18.740788508425297],[-110.96408284299997,18.740933606425315],[-110.96362289599996,18.735465469425478],[-110.96236067699999,18.737340571425413],[-110.96077994299999,18.737050829425414],[-110.96069817499996,18.733504005425498],[-110.95495878599996,18.731254223425573],[-110.95803995799997,18.72792695242567],[-110.95811974499998,18.723770608425767],[-110.95634624399997,18.72130854842586],[-110.95147452099998,18.719222982425904],[-110.94918838999996,18.721230892425826],[-110.949548931,18.726344887425682],[-110.94287094699996,18.721678840425795],[-110.94111610899996,18.72487888442575],[-110.94164264599999,18.72907112542564],[-110.94009956800001,18.7301228004256],[-110.92866859699997,18.72787445342568],[-110.92009183399995,18.732295175425538],[-110.91710900999999,18.74562282342521],[-110.91746656199997,18.75186507742501],[-110.915932006,18.754595869424968],[-110.91797637399999,18.757738379424868],[-110.91695772999998,18.760654585424803],[-110.91903685399996,18.769722685424544],[-110.91567981599998,18.776953383424352],[-110.913334622,18.77730839742437],[-110.91263755699998,18.779365613424304],[-110.90774507599998,18.778911534424363],[-110.91505246199995,18.782390326424217],[-110.91391453399997,18.78464168942419],[-110.91634735099997,18.785625423424143],[-110.91753643399996,18.79186670642399],[-110.91579334799997,18.79835388942382],[-110.917663324,18.79881901042379],[-110.92667592699998,18.8104282364235],[-110.93004351799999,18.812208335423446],[-110.93030394299997,18.817340905423304],[-110.93282228099999,18.817695371423323],[-110.93638044499995,18.8223800924232],[-110.93941437599995,18.822523821423196],[-110.93782977399997,18.827766104423027],[-110.94122130999996,18.831632671422962],[-110.94026304899995,18.834317716422866],[-110.94388104399998,18.834138650422886],[-110.94458697799998,18.838560855422795],[-110.94681614899999,18.840264378422752],[-110.94980107599997,18.839078777422746],[-110.95098751799999,18.83641607042281],[-110.957743452,18.837958012422785],[-110.95946194,18.839367748422784],[-110.95841684799997,18.841302084422693],[-110.96219525899994,18.843561169422635],[-110.96263100999994,18.846739400422543],[-110.96929010299999,18.851955498422413],[-110.96980351599997,18.85441271942233],[-110.97564904499997,18.852753585422423],[-110.977746713,18.854759013422335],[-110.97713540099994,18.8615456244222],[-110.97862330499999,18.861168812422186],[-110.97979347699999,18.85749866642229],[-110.98227564499996,18.859195691422254],[-110.98201664599998,18.860630236422214],[-110.98551652599998,18.85941316042226],[-110.98633627599999,18.861140358422183]]],[[[-112.06431266,18.991570179418797],[-112.06565227999995,18.993246219418758],[-112.06624490999997,18.993362629418733],[-112.06613128999999,18.992148179418805],[-112.06431266,18.991570179418797]]],[[[-110.79451023999997,19.333452898409966],[-110.80223705099996,19.334113014409958],[-110.80066477399998,19.329852178410054],[-110.80193805699999,19.32851717641006],[-110.80052702499997,19.32625812341014],[-110.80236729099995,19.324890050410186],[-110.80330828099996,19.326726246410136],[-110.80567629299999,19.325207269410193],[-110.80319543599995,19.320099011410317],[-110.80507780999994,19.317917989410365],[-110.80872151799997,19.318035493410378],[-110.81569393399997,19.314386408410464],[-110.81885127199996,19.306517532410627],[-110.81794695999997,19.301347467410803],[-110.81265532499998,19.298234778410848],[-110.80851874899997,19.301237883410774],[-110.80461838499997,19.29861399741087],[-110.80145729699996,19.298618354410824],[-110.79628387899999,19.30270215541076],[-110.79747194099997,19.30689523241062],[-110.80063355399996,19.308361758410577],[-110.80056488399998,19.311697626410517],[-110.79685700599998,19.31449531141047],[-110.79417015999996,19.322816568410225],[-110.79140414999995,19.324538648410165],[-110.792058979,19.326841835410104],[-110.794739355,19.327706218410103],[-110.79451023999997,19.333452898409966]]]]}}]}
