{"type":"FeatureCollection","features":[{"type":"Feature","properties":{"cve_ent":"07","cvegeo":"07","nombre_inegi":"Chiapas","nombre_catalogo":"Chiapas"},"geometry":{"type":"Polygon","coordinates":[[[-91.99567108999997,17.94258996944639],[-91.99988788999997,17.94334464944637],[-91.99128973999996,17.919612309447025],[-91.99840254999998,17.89896577944756],[-92.00050161999997,17.898736939447577],[-92.00335505999999,17.89051817944783],[-92.01554662999996,17.897501119447636],[-92.01924965999996,17.895472079447664],[-92.02060819999997,17.891803999447763],[-92.01970790999997,17.887823919447897],[-92.02969893999995,17.88914393944784],[-92.06707322999995,17.8764057694482],[-92.07179704999999,17.87767364944817],[-92.07206828999995,17.87451822944821],[-92.06730768999995,17.870352919448365],[-92.06054174999997,17.871871679448272],[-92.05245797999999,17.867246109448427],[-92.04844937999997,17.85803805944869],[-92.04940707999998,17.854772029448757],[-92.05339768999994,17.85267933944883],[-92.05342868999998,17.8484939394489],[-92.05630821999995,17.84675444944897],[-92.06829519999997,17.84868984944891],[-92.09046881999996,17.856599489448723],[-92.09049762999996,17.85072777944887],[-92.10203334999994,17.85088016944885],[-92.10646288999999,17.838127049449177],[-92.09939825999999,17.834633569449295],[-92.10460130999996,17.827626019449454],[-92.10553517999995,17.81293871944986],[-92.12048162999997,17.795972689450323],[-92.14658276999995,17.814675999449854],[-92.14662262999997,17.81241956944987],[-92.12713807999995,17.7858983794506],[-92.13597188999995,17.779012309450778],[-92.13255447099993,17.77506394045088],[-92.13204721999995,17.770278149450995],[-92.12991342999999,17.766974419451117],[-92.13082541999995,17.766080349451123],[-92.15170816999995,17.764568879451186],[-92.15245401999994,17.779065569450783],[-92.17195017999995,17.786567849450574],[-92.18848714999996,17.768134629451115],[-92.19449939999998,17.776641179450877],[-92.22933756999998,17.74558085945171],[-92.27462288999999,17.692258049453145],[-92.28868153999997,17.702667339452848],[-92.29480094999997,17.69992941945291],[-92.29835468999994,17.703236939452836],[-92.30867153999998,17.70628477945272],[-92.31331591999998,17.70451181945279],[-92.31527811999996,17.709671059452656],[-92.32158924999999,17.709804109452637],[-92.32808996999995,17.71373002945251],[-92.32955930999998,17.710712859452624],[-92.33734725999994,17.71208962945257],[-92.33823065999997,17.70623364945275],[-92.34012921999994,17.70375797945279],[-92.34365119999995,17.704066259452794],[-92.34380102999995,17.702074349452825],[-92.34588934999994,17.701557149452857],[-92.34989702999997,17.70278471945285],[-92.34915948999998,17.654727519454124],[-92.35494144999996,17.654056059454167],[-92.35585768999994,17.642013369454446],[-92.35813167999999,17.64195913945445],[-92.35802893999994,17.636295999454642],[-92.35627970999997,17.6360050294546],[-92.35119542999996,17.62473942945492],[-92.35067370999997,17.617934059455102],[-92.40085813999997,17.586032549455947],[-92.40207859999998,17.57804010945621],[-92.40821958,17.580620059456127],[-92.41781177999997,17.576364799456197],[-92.42123687999998,17.57724370945622],[-92.43677564999996,17.570096879456408],[-92.44504987999994,17.57433219945631],[-92.45622439999994,17.5730242794563],[-92.46761690999995,17.577118859456203],[-92.47381147999994,17.574569799456295],[-92.48468836999996,17.574920739456264],[-92.49719636999998,17.57224914945635],[-92.50859259999999,17.5739548294563],[-92.51998488999999,17.57304976945634],[-92.53007341999995,17.54999841945696],[-92.55803053999995,17.540225419457215],[-92.55994259999994,17.544794429457056],[-92.57141091999995,17.549608619456976],[-92.59698968999999,17.520359649457735],[-92.59230736999996,17.512891599457937],[-92.59234301999999,17.509617249458053],[-92.59391433999997,17.505109649458177],[-92.59990142999999,17.500800019458264],[-92.59406365999996,17.492952229458496],[-92.60582513999998,17.477375739458918],[-92.62433802999999,17.46586339945921],[-92.64135902999999,17.46349213945925],[-92.64886585999994,17.46069941945934],[-92.65453248999995,17.455662599459487],[-92.65940827999998,17.444284739459807],[-92.66579585999995,17.45684674945947],[-92.66818514999994,17.456694569459433],[-92.66790536999997,17.425954829460267],[-92.67623874999998,17.411619419460653],[-92.67851537999996,17.397749349461034],[-92.67770273999997,17.379988619461546],[-92.67876502999997,17.378493569461575],[-92.69706059999999,17.36974339946182],[-92.70408959999997,17.36360179946195],[-92.70851933999995,17.363407539461953],[-92.72950833999994,17.348128509462388],[-92.75418019999995,17.34329865946255],[-92.75832859999997,17.349113139462368],[-92.75873741999999,17.35819777946215],[-92.77066330999997,17.36039631946208],[-92.76705654999995,17.381237889461474],[-92.76830899999999,17.385504119461398],[-92.77436801999994,17.392252539461218],[-92.79079422999996,17.40498513946087],[-92.78564828999998,17.41458722946061],[-92.78579470999995,17.41752728946053],[-92.79105428999998,17.41501013946058],[-92.80016373999996,17.413844519460618],[-92.80627730999998,17.41056213946068],[-92.82939959999999,17.40859933946073],[-92.83064290999994,17.405006799460825],[-92.82758173999997,17.398953849461023],[-92.82921631999994,17.39630048946109],[-92.83807427999994,17.403530109460917],[-92.85426445999997,17.411197629460702],[-92.85619101999998,17.4188762194605],[-92.82582474999998,17.42378421946037],[-92.82227976999997,17.427110249460267],[-92.81963084999995,17.432745949460084],[-92.82225572,17.45220162945958],[-92.82690888999997,17.453627199459522],[-92.82831756999997,17.470500339459093],[-92.83155247999997,17.480857169458794],[-92.83390199999997,17.48218764945879],[-92.83584984999999,17.48052450945883],[-92.83429497999998,17.4774311694589],[-92.83610014999994,17.47487221945898],[-92.84987591999999,17.46897813945912],[-92.85568948999997,17.478965939458835],[-92.85980874999996,17.500281549458297],[-92.86618974999999,17.504327309458183],[-92.88735616999998,17.510463539457994],[-92.89806204999996,17.503001689458234],[-92.90455030999999,17.503272739458207],[-92.90729190999997,17.50520274045817],[-92.91065596999994,17.502372419458208],[-92.91034841999999,17.49948354945829],[-92.91293753999997,17.49821305945836],[-92.91629467999998,17.498902879458335],[-92.92046113999999,17.502677799458237],[-92.93919942999997,17.502447309458212],[-92.93850239999995,17.499813879458276],[-92.94029742999999,17.499940379458295],[-92.93969153999997,17.49835676945833],[-92.94179844999996,17.496631149458377],[-92.94155364999995,17.490781089458533],[-92.94448104999998,17.48726659945864],[-92.94465848999994,17.48331147945875],[-92.94811982999994,17.482743019458745],[-92.95806751999999,17.49197422945849],[-92.95900757999999,17.497397859458346],[-92.96257831999998,17.503265549458185],[-92.96269342999994,17.507178539458085],[-92.96570101999998,17.51040313945801],[-92.96804211999995,17.517972719457802],[-92.97506457999998,17.518638739457764],[-92.97488808999998,17.51695387945786],[-92.97839411999996,17.51481233945789],[-92.97865914999994,17.512591029457965],[-92.98487341999999,17.51130785945797],[-92.98563477999994,17.515170219457904],[-92.98299668999994,17.51891391945778],[-92.99264831999994,17.530015719457477],[-92.99085031999994,17.531943369457398],[-92.98219067999997,17.533443399457404],[-92.97975736999996,17.535730859457335],[-92.98048967999995,17.53756282945729],[-92.98837059999994,17.54135222945715],[-92.98938219999997,17.544006659457086],[-92.98834047999998,17.550005949456967],[-93.00006205999995,17.551931429456868],[-93.00556524999996,17.555248019456766],[-93.00581001999996,17.559282770456676],[-93.00769397999994,17.561331319456617],[-93.00575734999995,17.56434625045658],[-93.00711521899996,17.565647599456508],[-93.00448884899998,17.569173819456427],[-93.00614901999995,17.571408569456395],[-93.00424287999994,17.575875949456265],[-93.00592341999999,17.576688259456198],[-93.00435164999999,17.5776311394562],[-93.00581296999997,17.578890289456176],[-93.00448753999996,17.579587649456162],[-93.00709973999994,17.581495579456067],[-93.01065294999995,17.580491679456088],[-93.01496665999997,17.591469579455797],[-93.02952416999996,17.597751259455652],[-93.04052533999999,17.609828149455335],[-93.04023911999997,17.61200862945526],[-93.04194167999998,17.61355345945523],[-93.04088590999999,17.61526130945519],[-93.04414908999996,17.620045949455076],[-93.04260294999995,17.626112519454892],[-93.04514929,17.640017679454495],[-93.04545764999995,17.659105449453975],[-93.04365959999996,17.660020539453996],[-93.04338214999996,17.662923599453904],[-93.04504622999997,17.667311629453764],[-93.04110824999998,17.667106139453793],[-93.04042382999995,17.668497319453735],[-93.04442991999997,17.6734062494536],[-93.04040144999999,17.674681049453593],[-93.04181596999996,17.680677919453426],[-93.03790304999995,17.680657079453436],[-93.04070233999994,17.682310479453395],[-93.03797085999997,17.682592119453354],[-93.03854482999998,17.68421128945334],[-93.04203105999994,17.68638524945328],[-93.04111981999995,17.690492279453156],[-93.03911842999997,17.69196299945311],[-93.03792674999995,17.688364509453216],[-93.03840179999997,17.692505859453096],[-93.03714625999999,17.693669079453088],[-93.04027657999995,17.692551289453096],[-93.04080468999996,17.693562309453085],[-93.03993067999994,17.69810234945296],[-93.03788382999994,17.698607279452926],[-93.04023193999996,17.701042419452854],[-93.03754525999994,17.700999709452912],[-93.03711607999998,17.703381909452844],[-93.03775807999995,17.704919649452748],[-93.03940044999996,17.704504049452762],[-93.03885153999994,17.706817749452693],[-93.04075684999998,17.704125819452806],[-93.04314481999995,17.70437022945279],[-93.04149745999996,17.70748114945269],[-93.04479591999996,17.707975049452713],[-93.04478156999994,17.711077019452613],[-93.04333496999999,17.708797339452662],[-93.04205547999999,17.710330169452654],[-93.04436797999995,17.713387949452517],[-93.04798264999994,17.71107888945263],[-93.04978479999994,17.714187419452504],[-93.05384316999994,17.711415999452587],[-93.05478625999996,17.713199319452563],[-93.05362068999995,17.716116539452454],[-93.05501334999997,17.71706753945247],[-93.05347173999996,17.71878179945239],[-93.05772470999995,17.72048874945238],[-93.05535293999998,17.721777349452296],[-93.05724370999997,17.723439549452255],[-93.05412010999999,17.729314979452095],[-93.05539321999998,17.730370459452114],[-93.05411322999998,17.732039739452055],[-93.05522856999994,17.734702829451983],[-93.05304494999996,17.73687005945192],[-93.05419708999995,17.738286109451877],[-93.05233728999997,17.741731999451808],[-93.05427956999995,17.74240174945177],[-93.05280462999997,17.743886889451733],[-93.05135911999997,17.743072829451776],[-93.05199022999994,17.745593539451704],[-93.05001790999995,17.745204859451704],[-93.04951110999997,17.74750171945165],[-93.04686917,17.74843211945163],[-93.04661407999998,17.750059059451583],[-93.04869201999998,17.751089219451526],[-93.04606414999995,17.75306727945146],[-93.04568801999994,17.75604170945138],[-93.04776713999996,17.75835276945134],[-93.04437053999999,17.760484709451305],[-93.04534227999994,17.762229089451242],[-93.04316311999997,17.763910859451205],[-93.04263827999995,17.768411509451102],[-93.03986113999997,17.76992642945104],[-93.03951168999998,17.76674282945113],[-93.03659042999999,17.766354119451144],[-93.03722617999995,17.768989179451076],[-93.02780050999996,17.771644949450987],[-93.02600736999995,17.774578479450913],[-93.02662793999997,17.776448019450832],[-93.02341439999998,17.776591509450864],[-93.02385067999995,17.779119319450785],[-93.02001236999996,17.78065062945072],[-93.01892825999994,17.784126659450628],[-93.01591205999995,17.78534713945062],[-93.01837857999999,17.787052029450567],[-93.01733264999996,17.789372769450512],[-93.01870299999996,17.79070811945045],[-93.01477611999996,17.792202979450455],[-93.01394585999998,17.794266369450394],[-93.01201339999994,17.793669029450392],[-93.01401377999997,17.794940419450352],[-93.01217022999998,17.796168709450352],[-93.01224704999998,17.798490769450268],[-93.01573525899994,17.79809902945028],[-93.01591677999994,17.801148059450206],[-93.01955036999999,17.80312454945016],[-93.01641374899998,17.808134200449985],[-93.01948273999994,17.809366999449995],[-93.02046525999998,17.81419668944987],[-93.02725887999998,17.820324569449653],[-93.02543627999995,17.825418449449515],[-93.04027648999994,17.840934479449118],[-93.04130616999998,17.838287619449222],[-93.04445005999997,17.84059639944912],[-93.04312630899994,17.842577309449055],[-93.05870782999995,17.84419068944905],[-93.09408987999996,17.84117174944912],[-93.10164545999999,17.84582833944898],[-93.11564074999995,17.82221262944961],[-93.12040465999996,17.83388405944932],[-93.12902788899999,17.844741849449022],[-93.13180031999997,17.852316419448805],[-93.13027219999998,17.85288057944879],[-93.12943142899998,17.858757310448635],[-93.12360825999997,17.86777091944843],[-93.12470401999997,17.868176889448385],[-93.12362597999999,17.874450379448216],[-93.12137621999996,17.876645309448193],[-93.11425424999999,17.8753795394482],[-93.11362399999996,17.87709236944818],[-93.11156479999994,17.876583219448168],[-93.09195928999998,17.886575879447925],[-93.08970462999997,17.892674949447752],[-93.09137593999998,17.897561249447584],[-93.09598713999998,17.89848654944757],[-93.09734127999997,17.901090019447494],[-93.10137222999998,17.903080659447472],[-93.10082004899994,17.906034965447386],[-93.10497502899995,17.907419321447367],[-93.11499745999998,17.90898647944733],[-93.12240705999994,17.906822719447355],[-93.12912888999995,17.90785237944735],[-93.13693277999994,17.91835893944708],[-93.14598207899996,17.919926659447015],[-93.14707005899999,17.92378774944689],[-93.14486767999995,17.926040119446846],[-93.14507802899999,17.932352969446704],[-93.14968861799997,17.934899172446634],[-93.15787125999998,17.936362780446597],[-93.16731053999996,17.935235979446627],[-93.17266370999994,17.93973707944648],[-93.17899231899997,17.938902820446515],[-93.18314388999994,17.94030904944648],[-93.18845910999994,17.953634986446115],[-93.19200157999997,17.956135719446078],[-93.20074339999996,17.956371429446033],[-93.20735876999998,17.960637939445906],[-93.21265874999995,17.95722057944604],[-93.21699059999997,17.95710890944602],[-93.22997951999997,17.94904482944623],[-93.24092097999994,17.950094689446225],[-93.24530942999996,17.960090139445924],[-93.25671490999997,17.96304318044586],[-93.26048916799994,17.966069739445757],[-93.26146779999999,17.97013654044567],[-93.26815959899994,17.97428914944557],[-93.27336267899994,17.981966879445373],[-93.27821988899996,17.982579119445322],[-93.27832268999998,17.98528780044525],[-93.28141850999998,17.98235928944533],[-93.28300761999998,17.96749937944574],[-93.28770745999998,17.96101488944593],[-93.29354982999996,17.95712941944603],[-93.29547090999995,17.949704819446193],[-93.29838059999997,17.947861739446278],[-93.29536101999997,17.941788909446455],[-93.29800968999996,17.938581779446515],[-93.30295242999995,17.93582313944657],[-93.30770387999996,17.935870219446567],[-93.31353273999997,17.930864049446704],[-93.32583285999999,17.92791350944681],[-93.32855004999999,17.928781579446806],[-93.33073008999997,17.932294049446696],[-93.33667019999996,17.936601249446543],[-93.34089684999998,17.93033065944673],[-93.34076673999994,17.92364022944691],[-93.33884384999999,17.920485279446986],[-93.33930564999997,17.91494861944718],[-93.33602244999997,17.904986549447404],[-93.34126191999997,17.90314396944744],[-93.34459847999995,17.893787999447696],[-93.34429750999999,17.888464089447872],[-93.34997485999997,17.882592349448],[-93.35058276999996,17.876066029448197],[-93.34971271999996,17.8679627994484],[-93.33656314999996,17.856408479448696],[-93.33429510999997,17.85169888944881],[-93.33527351999999,17.846208829448962],[-93.34095290999994,17.84323502944909],[-93.33920396999997,17.840927969449126],[-93.33949368999998,17.83567411944924],[-93.34695854999995,17.82369904944962],[-93.34931076999999,17.815427599449833],[-93.34058597999997,17.79812054945025],[-93.35209247999995,17.795423459450348],[-93.36260110999996,17.80198531945014],[-93.36661094999994,17.802923319450144],[-93.36550025999998,17.79955565045023],[-93.37048596999995,17.794037429450402],[-93.37351028999996,17.793609980450377],[-93.37393122999998,17.795941819450334],[-93.37640877999996,17.79585234045034],[-93.37829473999994,17.784793569450617],[-93.38094848899999,17.783164950450683],[-93.37956814999995,17.78057509045075],[-93.37347062999999,17.781312379450693],[-93.36441870999994,17.77908431945077],[-93.36375853999994,17.782312569450696],[-93.35850307999999,17.788396319450552],[-93.34311187999998,17.787516679450587],[-93.34913508999995,17.767085279451113],[-93.35281967999998,17.763736199451184],[-93.37541994999998,17.76679801945113],[-93.37728479999998,17.771523799451003],[-93.38106885899998,17.77450567945092],[-93.38439334999998,17.773085290450926],[-93.38657054999999,17.777565289450813],[-93.38965914899995,17.77595537945084],[-93.39054782999995,17.773399709450924],[-93.38156611999995,17.748539649451605],[-93.36984887999995,17.737383049451907],[-93.37071216999999,17.734657819451982],[-93.37394656999999,17.732994769452038],[-93.36950537999996,17.733006059452006],[-93.36956461999996,17.729164489452142],[-93.36809791999997,17.72759937945219],[-93.36255184999999,17.728687979452165],[-93.36449844999999,17.72666684945221],[-93.36239994999994,17.7234109494523],[-93.36397441999998,17.723490519452266],[-93.36270545999997,17.72201779945232],[-93.36156473999995,17.72348942945225],[-93.36005447999997,17.722466649452315],[-93.35869534999995,17.71694161945246],[-93.35430234999995,17.71288217945257],[-93.35646774999998,17.710623459452595],[-93.35519568999996,17.70639364945273],[-93.35377981999994,17.707396489452723],[-93.35292825999994,17.70584911945274],[-93.35403785999995,17.706168739452753],[-93.35323596999996,17.70466802945278],[-93.35440954999996,17.704020909452794],[-93.35357522999999,17.701742879452844],[-93.35579253999998,17.699766449452888],[-93.35322982999998,17.696750379452972],[-93.35594402999999,17.69286059945312],[-93.35672216999995,17.68715073945325],[-93.35378456999996,17.681074749453416],[-93.36050385999994,17.66489407945387],[-93.35627776999996,17.648037449454314],[-93.36196219999994,17.646287919454377],[-93.38478871999996,17.64437793945437],[-93.38496828999996,17.63417610945467],[-93.39658619999994,17.629594419454794],[-93.39918114999995,17.625850749454884],[-93.40410339999995,17.624142259454935],[-93.40959928999996,17.619297859455095],[-93.41451074999998,17.60265037945553],[-93.42048990899997,17.59004794045583],[-93.42735924999994,17.587364340455952],[-93.44594561999997,17.585985689455956],[-93.44796987899997,17.58076043045611],[-93.45170704899994,17.546484229457015],[-93.45864953899996,17.54561417945704],[-93.47297524999999,17.55349367945683],[-93.48156122899996,17.55199219945687],[-93.48414581999998,17.54987654945692],[-93.49062642999996,17.535129050457357],[-93.49428113999994,17.53125609045744],[-93.49561682899997,17.522728969457688],[-93.49880691899995,17.522249460457694],[-93.49712447999997,17.521514659457697],[-93.49974508999999,17.51930505045778],[-93.49856067999997,17.51657985945783],[-93.49978245899996,17.51793359945781],[-93.49928474999996,17.51414263045788],[-93.50135417899997,17.51302565045796],[-93.49914541999999,17.511413259457964],[-93.50230859999994,17.507247429458108],[-93.50252127999994,17.499522579458333],[-93.50474645999999,17.499720950458276],[-93.50334724899994,17.501288229458265],[-93.50755819999995,17.50140405045826],[-93.50439937999994,17.49753164945834],[-93.50501539999999,17.49542131945841],[-93.50637622999994,17.49380795045847],[-93.50734216899997,17.496703800458356],[-93.50858901899994,17.49608658045839],[-93.50961894999995,17.493860399458477],[-93.50765857899995,17.49344964945848],[-93.50916682999997,17.490481050458577],[-93.51199902899998,17.491446940458527],[-93.51487859899999,17.49032281945858],[-93.51287945999997,17.48842002945859],[-93.51402234999995,17.486344400458655],[-93.51117850899999,17.485667229458674],[-93.51155990999996,17.483242689458752],[-93.50759281899997,17.48117320045879],[-93.50849586,17.47951867945886],[-93.50604141999997,17.477491200458932],[-93.50913477899996,17.475844630458926],[-93.50720925999997,17.474071550459],[-93.50983741999994,17.473994679458976],[-93.50940433899996,17.470902350459085],[-93.50796317899994,17.47206728045901],[-93.50816302899995,17.46996222045911],[-93.50702024999998,17.470438419459093],[-93.50832539899994,17.469006949459132],[-93.50713174999999,17.466488169459193],[-93.50838288899996,17.462571149459276],[-93.51163297999994,17.45954385045936],[-93.51226304999994,17.452473860459563],[-93.51101154999998,17.448369370459705],[-93.51368534999995,17.44553634945976],[-93.51380471999994,17.44280526045984],[-93.51544148899995,17.44033317945989],[-93.51943122899996,17.43952298045992],[-93.52044473999996,17.434685290460052],[-93.52435267999994,17.43288423046011],[-93.52532004999995,17.430802289460136],[-93.52410442999997,17.429646140460175],[-93.52604008999998,17.426785879460283],[-93.60793981599994,17.314930020463304],[-93.63813233399998,17.290948362463936],[-93.66441145799998,17.286193384464074],[-93.66269436499995,17.256276901464865],[-93.68987225499997,17.255306268464935],[-93.69566894599996,17.247230177465134],[-93.71752158399994,17.24934329946511],[-93.72436910799996,17.247085911465128],[-93.73679311299998,17.24751113846511],[-93.74618260999995,17.243688998465206],[-93.75420985299996,17.243644803465227],[-93.76297648099995,17.23934449146534],[-93.77245019799994,17.24582355846515],[-93.78860950499995,17.23232734146557],[-93.78985954699999,17.233367232465486],[-93.79122129899997,17.232118077465525],[-93.79128966099995,17.237446611465387],[-93.79343674299997,17.23990352746535],[-93.79830584299998,17.24192264046526],[-93.80144868299999,17.240379502465316],[-93.80215210899996,17.23434148946551],[-93.80594757999995,17.230221750465592],[-93.80376248899995,17.224868172465747],[-93.81835956799995,17.20347512246631],[-93.81807554899996,17.19932985246644],[-93.82011996999995,17.195323372466557],[-93.82663016999999,17.190494029466652],[-93.82713768999997,17.172503480467146],[-93.83904521999995,17.172946878467158],[-93.84396893899998,17.168611748467256],[-93.86091576999998,17.163741139467422],[-93.86231684999996,17.151544019467757],[-93.87012327999999,17.146647418467847],[-93.86742677099994,17.136964912468123],[-94.13915599999996,16.46178642948669],[-94.05066484999998,16.32971391949035],[-94.05163650999998,16.327492279490393],[-94.03296099999994,16.275944969491828],[-94.04353436999997,16.25568691949241],[-94.03513897999994,16.248278919492613],[-94.03519554999997,16.2395536794928],[-94.03850037999996,16.23020174949309],[-94.04695173999995,16.220701579493323],[-94.04846991999995,16.216171479493493],[-94.09540950999997,16.185534169494318],[-94.10956759999999,16.179101249494494],[-94.10276368999996,16.14251591949553],[-94.03600810999997,16.022094719498874],[-94.01365508999999,16.01083425949917],[-94.00021667999994,16.006585259499328],[-94.00021882999994,16.00308871949942],[-93.95715014999996,15.984601969499908],[-93.95511765199997,15.987821786499817],[-93.94923604099995,15.987878650499859],[-93.94123288999998,15.983006739499995],[-93.93749356499995,15.983645972499925],[-93.92854203899999,15.981285653500004],[-93.91710489099995,15.982899955499965],[-93.89075590999995,15.972624459500294],[-93.84076693999998,15.948678429500916],[-93.74898128999997,15.89651501950239],[-93.70200716999994,15.866930599503233],[-93.63116028699994,15.818744928504573],[-93.54046633399997,15.753961276506379],[-93.45183577599994,15.686384502508298],[-93.33234554999996,15.591124579510979],[-93.24931807399997,15.520997978512984],[-93.16470042399999,15.446623907515061],[-92.95644405199994,15.255666240520446],[-92.88000335,15.183001279522529],[-92.85893394399994,15.158854332523196],[-92.85397770999998,15.158786599523216],[-92.85388945999995,15.153176419523355],[-92.85136494099999,15.149898842523498],[-92.80015203999994,15.100183335524887],[-92.70191612999997,14.999968300527723],[-92.65839005999999,14.954974369529044],[-92.62311057999995,14.915755149530158],[-92.51589804999998,14.805035689533335],[-92.46639708999999,14.757554779534711],[-92.43701804899996,14.732314032535381],[-92.43446501199998,14.728422396535496],[-92.43257321999994,14.728423459535517],[-92.42951384299994,14.724550067535633],[-92.43013201299999,14.721405365535725],[-92.40870148999994,14.702455679536278],[-92.41137970599999,14.699295780536353],[-92.40869279199995,14.701815694536288],[-92.41089117499996,14.695358226536467],[-92.41553563999997,14.692790561536519],[-92.41146790699997,14.694813694536489],[-92.40877673699998,14.693228973536497],[-92.37372846599999,14.66655164553732],[-92.32686198099998,14.625525535538483],[-92.22675193999999,14.532098369541146],[-92.22007124999999,14.53592685954108],[-92.21654119999994,14.543148289540833],[-92.21526041999994,14.556898349540436],[-92.20809464999996,14.559187689540382],[-92.20430685999997,14.564271849540257],[-92.19824930999994,14.564286719540226],[-92.18247634999994,14.57832947953982],[-92.18184111999994,14.591067479539465],[-92.17785799999996,14.600951449539162],[-92.17771816999999,14.607771919538997],[-92.17444404999998,14.611619259538882],[-92.17529630999996,14.61310625953883],[-92.18121981999997,14.614462249538777],[-92.17692277999998,14.620641379538627],[-92.17705437999996,14.62622562953843],[-92.17288405999994,14.630043679538327],[-92.16826490999995,14.640584569538039],[-92.15909893999998,14.64192530953799],[-92.16043802999997,14.650717219537748],[-92.15013368999996,14.655908179537596],[-92.14573813999993,14.66344257953738],[-92.14726077999995,14.669105879537247],[-92.14705142999998,14.679440259536909],[-92.14299817999995,14.69115922953658],[-92.14741614999997,14.697758599536394],[-92.14895016999998,14.705401049536174],[-92.14749470999999,14.719034539535786],[-92.15444379999997,14.72597902953561],[-92.15783724899995,14.736367059535318],[-92.16993059999999,14.74374965953508],[-92.16877281999996,14.74723779953498],[-92.17180670999994,14.752745169534798],[-92.17176090999999,14.756746139534734],[-92.16431137999996,14.759249969534627],[-92.16185541999994,14.76202477953455],[-92.16072584999995,14.77349653953423],[-92.16425213999997,14.776596709534122],[-92.16485213999994,14.782976109533957],[-92.17107173999995,14.789426379533781],[-92.17174185999994,14.793007649533672],[-92.17727971999994,14.800973689533425],[-92.17890930999994,14.810444139533192],[-92.17707448999994,14.815785859533024],[-92.18483408999998,14.828264249532685],[-92.18150321999997,14.839071509532356],[-92.18279125999999,14.842568369532234],[-92.18178617999996,14.846866879532126],[-92.17227845999997,14.855993740531892],[-92.17174193999995,14.860192659531752],[-92.16588141999995,14.860252949531763],[-92.14656277899996,14.870205419531462],[-92.14201222899999,14.884534650531032],[-92.13788477999998,14.88648540053102],[-92.13621630899996,14.891649570530864],[-92.14156111999995,14.906360579530446],[-92.14469496899994,14.90950371053036],[-92.14166993999999,14.916701880530129],[-92.14119704999996,14.922598769529944],[-92.14364850899995,14.927851220529787],[-92.14327841999994,14.93983717052944],[-92.14669719899996,14.944114739529319],[-92.14856736899998,14.952923679529068],[-92.14601722899994,14.959230850528895],[-92.14710373899999,14.970190449528623],[-92.14477404999998,14.97494708952848],[-92.14717590999999,14.98033148052833],[-92.15078057999995,14.983631279528224],[-92.15076762899997,14.986917570528128],[-92.14744964999994,14.990650059528027],[-92.13943824999996,14.994569519527879],[-92.13789482999994,14.999931549527751],[-92.13923736999999,15.002511019527677],[-92.13534194999994,15.003975149527617],[-92.13144608999994,15.01284362952741],[-92.12840224999997,15.012777219527367],[-92.12698291999999,15.01523661952732],[-92.12337599999995,15.01500364952731],[-92.11955681999996,15.011538139527401],[-92.11835771999995,15.015258119527308],[-92.11711730999997,15.015308079527333],[-92.11391470999996,15.012721279527383],[-92.11131797999997,15.01358751952736],[-92.10974977999996,15.011116569527452],[-92.09879128999995,15.0096074295275],[-92.09730265999997,15.015078889527308],[-92.09096884999997,15.019818969527199],[-92.08566581999997,15.020728859527178],[-92.07865894999998,15.032300689526837],[-92.07966291999998,15.03482431952674],[-92.07692171999997,15.042974419526535],[-92.07792405999999,15.045881479526443],[-92.07268784999997,15.044216949526517],[-92.07019601999997,15.046781109526401],[-92.07085450999995,15.050930769526273],[-92.06881861999994,15.052346539526232],[-92.06835447999998,15.055357149526197],[-92.07232408999994,15.057724509526123],[-92.07315954999996,15.061510819525969],[-92.06999044999998,15.06267999952597],[-92.06371205999994,15.069865279525747],[-92.06090487999995,15.068863429525754],[-92.05919721999999,15.070333649525754],[-92.21007593999997,15.261215379520326],[-91.73138414999994,16.074020369497415],[-90.44084088999995,16.074194889497434],[-90.44518593999999,16.080508679497246],[-90.44515379999996,16.08302214949716],[-90.43864814999995,16.08864517949705],[-90.43516317999996,16.095992539496823],[-90.42560724999998,16.09624668949681],[-90.42410591999999,16.099542259496747],[-90.42503839999995,16.10366701949661],[-90.42863629099998,16.105957579496536],[-90.43377253999995,16.10514334949656],[-90.44286031999997,16.098909799496745],[-90.44636162999996,16.093352659496894],[-90.45366956999999,16.09225913949694],[-90.45563957999997,16.093440679496915],[-90.45400251999996,16.09814417949679],[-90.45668053999998,16.104575029496566],[-90.45661156999995,16.112148719496382],[-90.45404808999996,16.121449909496086],[-90.45144590999996,16.12450401949605],[-90.44550473999999,16.12039554949616],[-90.43596339999999,16.117234019496255],[-90.42976579999998,16.117768859496234],[-90.42860736999995,16.121982689496082],[-90.42998981999995,16.129567279495895],[-90.42788113999995,16.137121379495674],[-90.43048061999997,16.1404283194956],[-90.44851485999999,16.14379774949547],[-90.45025011999996,16.149950799495322],[-90.44731782999997,16.154105419495213],[-90.43517711999993,16.156663779495116],[-90.42450499999995,16.163184449494974],[-90.42662830999996,16.173247649494687],[-90.43146225999999,16.17764810949456],[-90.45197821999994,16.185040369494313],[-90.45667330999999,16.20950567949367],[-90.45461581999996,16.219337319493363],[-90.45119084999999,16.224895219493245],[-90.43814402999999,16.231682659493046],[-90.42877225999996,16.230274229493112],[-90.42782685999998,16.233195539493003],[-90.43053864999996,16.236819879492884],[-90.43808916999996,16.24008553949282],[-90.44004393999995,16.247574419492583],[-90.44436971999994,16.245646059492678],[-90.44727016999997,16.24103425949278],[-90.45055141999995,16.240540519492775],[-90.45403453999995,16.242753449492753],[-90.45471657999997,16.248647909492565],[-90.44970954999997,16.257500349492314],[-90.44547477999998,16.261524739492184],[-90.43878957999999,16.260800519492214],[-90.42826477999995,16.25389328949244],[-90.42520910999997,16.25522731949241],[-90.42242987999998,16.259178909492288],[-90.42285164999998,16.263145149492196],[-90.42722656999996,16.269597119492012],[-90.43218248999995,16.274625889491833],[-90.43815614999994,16.276526539491826],[-90.44048157999998,16.279792169491728],[-90.43999630999997,16.28715267949153],[-90.43179185999998,16.292224479491384],[-90.43289950999997,16.29505642949128],[-90.43885988999995,16.29802344949122],[-90.43857014999998,16.302095339491082],[-90.43272853999997,16.305147599491015],[-90.41818947999997,16.304688399491],[-90.41164371999997,16.30723628949095],[-90.40865585999995,16.312341399490784],[-90.40868414999994,16.316188549490693],[-90.41212279999996,16.324676489490464],[-90.41001090999998,16.32918293949036],[-90.40322188999994,16.33214641949027],[-90.40044162999999,16.33773008949008],[-90.39753525999998,16.33959856949007],[-90.39331719999996,16.339165579490047],[-90.38686927999998,16.334248749490175],[-90.38417539999995,16.33497707949017],[-90.38164230999996,16.33844957949007],[-90.38150957999994,16.342485079489986],[-90.38332859999997,16.345211799489913],[-90.39924096999994,16.34939328948975],[-90.40085991999996,16.352345949489667],[-90.40070030999999,16.35843785948951],[-90.40303436999994,16.361056569489474],[-90.40752397999995,16.35890285948952],[-90.40813744999997,16.35430188948963],[-90.40621090999997,16.347727219489787],[-90.40698547999995,16.34587048948986],[-90.40931419999998,16.345899139489852],[-90.41207150999998,16.355704519489638],[-90.40976587999995,16.363015889489393],[-90.39581202999995,16.374511549489043],[-90.38892617999994,16.372750399489107],[-90.37972197999994,16.36002748948948],[-90.37455576999997,16.359620349489497],[-90.37032602999994,16.36592791948932],[-90.37079985999998,16.371086429489168],[-90.37292754999999,16.374350319489107],[-90.38645205999995,16.37793870948896],[-90.39681656999994,16.38534176948875],[-90.40112599999998,16.391431889488597],[-90.40225884999995,16.39533073948853],[-90.40134631999996,16.398632999488438],[-90.39129813999995,16.401806659488305],[-90.38780487999998,16.406143169488214],[-90.38729225999998,16.412002079488026],[-90.39426893999996,16.415935519487938],[-90.39840267999995,16.41576294948793],[-90.40219097999994,16.407049949488165],[-90.40771987999995,16.404033249488265],[-90.41174214999995,16.40743448948819],[-90.41610762999994,16.42160234948777],[-90.42072421999995,16.424896539487715],[-90.44385984999997,16.424266569487695],[-90.45877408999996,16.421019599487764],[-90.47181559999996,16.42503551948768],[-90.48254676999994,16.422841149487752],[-90.48608744999996,16.42391199948769],[-90.48651065999996,16.430925379487537],[-90.48082162999998,16.437179849487354],[-90.47788784999995,16.443683319487167],[-90.47950681999998,16.449835049486992],[-90.47723622999996,16.457911719486756],[-90.48035299999998,16.461262939486666],[-90.48655068999994,16.460424139486697],[-90.49157041999996,16.454047319486854],[-90.49580413999996,16.45348854948687],[-90.49942633999996,16.4574930794868],[-90.49901561999997,16.46487741948657],[-90.50060910999997,16.466915169486516],[-90.51421576999996,16.46989633948643],[-90.52381017999994,16.4671914494865],[-90.52546488999997,16.464430479486573],[-90.52506391999998,16.458674219486735],[-90.52780170999995,16.457716219486795],[-90.54693911999999,16.46805561948647],[-90.54799621999996,16.471953179486405],[-90.54291887999995,16.479854449486172],[-90.54401745999996,16.4817065094861],[-90.54701190999998,16.482351089486116],[-90.56496916999998,16.477532969486198],[-90.58374042999998,16.470012459486462],[-90.58844567999995,16.469685819486447],[-90.59366959999994,16.47534533948628],[-90.59245581999994,16.4887631094859],[-90.59519664999999,16.49077537948587],[-90.60420787999999,16.48733633948597],[-90.61344956999994,16.488449969485902],[-90.61659774999998,16.479800979486168],[-90.62042262999995,16.477178089486237],[-90.62768745999995,16.477565319486235],[-90.63249365299998,16.480079850486135],[-90.63493260699994,16.483490770486057],[-90.63344191799996,16.489111540485915],[-90.63105860799999,16.49015112148587],[-90.62354092799995,16.487780311485928],[-90.61859162799999,16.48863820048593],[-90.60921868799994,16.494193711485746],[-90.60562545799996,16.50363734048551],[-90.60921625799995,16.514366460485224],[-90.61658369799994,16.521789620484984],[-90.61947655799997,16.521994541485014],[-90.63559482799997,16.513520850485243],[-90.64208622699994,16.514489780485224],[-90.64541008699996,16.518643481485118],[-90.64260925799994,16.534347851484657],[-90.64856266799995,16.54476015148436],[-90.64648771699996,16.55078808048422],[-90.64707757699995,16.560517780483927],[-90.63911328799998,16.569201201483686],[-90.62615942799994,16.5754505704835],[-90.62560072799994,16.57770434048348],[-90.63517978699997,16.592342340483068],[-90.64049252699994,16.59581426048295],[-90.64249322799998,16.595069351482984],[-90.64040335799996,16.58858169148316],[-90.64080677799996,16.584535021483287],[-90.64463491799995,16.57907722048341],[-90.65755952699999,16.577181780483464],[-90.66684143799995,16.581806450483338],[-90.66697372699997,16.58918558148313],[-90.65622258699995,16.591848711483074],[-90.65335788999994,16.594503049483016],[-90.65620911999997,16.603476149482763],[-90.65558596999995,16.61105991948255],[-90.66018370999996,16.619501859482327],[-90.66198451999998,16.627965879482055],[-90.65731479999994,16.63706636948184],[-90.65759561999994,16.63945764948177],[-90.67594822999996,16.660561489481204],[-90.67594307999997,16.664655379481072],[-90.67937893999994,16.673510829480833],[-90.67943614999996,16.68344782948053],[-90.68169162999999,16.688570339480425],[-90.68944908999998,16.691557019480335],[-90.69867876999996,16.69971148948008],[-90.70951228999996,16.704754749479974],[-90.70776573999996,16.718095279479602],[-90.70944502999998,16.721947719479495],[-90.71525802999997,16.72789065947935],[-90.72251511999997,16.729739689479256],[-90.75684511999998,16.751060939478702],[-90.75856047999997,16.759415579478457],[-90.76243084999999,16.76275421947835],[-90.78244856999999,16.76818925947821],[-90.80280937999999,16.776234509478],[-90.80489951999994,16.782091479477867],[-90.80174882999995,16.795083119477503],[-90.80409191999996,16.798715799477346],[-90.82225161999997,16.798987289477395],[-90.83692761999998,16.79595507947746],[-90.84878447999995,16.796534879477413],[-90.85564057999994,16.798760599477365],[-90.86130514999996,16.81164907947703],[-90.87771253999995,16.823786219476688],[-90.89199297999994,16.82524751947666],[-90.91621108999999,16.82048239947679],[-90.92176511999998,16.82193537947676],[-90.92605664999996,16.833170749476405],[-90.93388874999994,16.842321089476187],[-90.93421844999995,16.847598119476032],[-90.93218401999997,16.85517991947585],[-90.93363879999998,16.859326489475727],[-90.95004688999995,16.865403739475532],[-90.95683654999999,16.86520727947556],[-90.96792919999996,16.860367599475715],[-90.97405477999996,16.863626459475586],[-90.97454717999995,16.86712324947553],[-90.97213076999998,16.870959089475384],[-90.95769676999998,16.878622689475183],[-90.95450921999998,16.884474169475013],[-90.95730310999994,16.896579799474683],[-90.96500933999994,16.90150001947459],[-90.97607556999998,16.902899029474543],[-90.98193139999995,16.900924379474578],[-90.98506308999998,16.897954079474648],[-90.98634461999995,16.89172093947481],[-90.98061030999997,16.877112769475232],[-90.98050284999994,16.87268045947533],[-90.98229054999996,16.865767429475557],[-90.98783148999996,16.86308494947559],[-90.98995597999999,16.864389319475574],[-90.99387368999999,16.877057889475243],[-91.00711225999999,16.886183509474954],[-91.04853193999998,16.898459569474646],[-91.05997750999995,16.89977644947461],[-91.06562731999998,16.902858249474544],[-91.07307699999996,16.910342109474307],[-91.07404430999998,16.913635659474245],[-91.07251944999996,16.91663025947413],[-91.06772370999994,16.918710909474104],[-91.06460814999997,16.92209799947401],[-91.06448005999994,16.925129749473918],[-91.07173030999996,16.93197479947371],[-91.07981754999997,16.943510259473406],[-91.09320191999996,16.95181947947318],[-91.09916241999997,16.96510728947282],[-91.10440908999999,16.97020064947267],[-91.11249727999996,16.974449679472595],[-91.11625114999998,16.97442822947258],[-91.12004968999997,16.97752833947248],[-91.12223531999996,16.983022379472306],[-91.11995867999997,16.997581689471946],[-91.12275902999994,17.003383939471764],[-91.12771930999997,17.00616474947169],[-91.13671702999994,17.00690094947167],[-91.14904496999998,17.00423771947175],[-91.15440299999995,17.004870049471705],[-91.17525328999994,17.015703999471423],[-91.18984930999994,17.034845149470893],[-91.20335965999999,17.044948599470644],[-91.21030699999994,17.05307813947039],[-91.21458404999998,17.063241879470173],[-91.21706807999999,17.06501471947006],[-91.21725245999994,17.07658553946978],[-91.22695801999998,17.09505896946925],[-91.23445854999994,17.10058748946914],[-91.25629636999997,17.10103950946914],[-91.26694322999998,17.107878109468935],[-91.27056767999994,17.115961459468704],[-91.27306781999994,17.13773447946813],[-91.27208802999996,17.143866289467947],[-91.26344345999996,17.158264249467557],[-91.26311696999994,17.16446316946736],[-91.26644705999996,17.17013302946723],[-91.27908550999996,17.179632519466956],[-91.28478508999996,17.178093459467036],[-91.30188313999997,17.180807179466928],[-91.30898308999997,17.17939985946697],[-91.31852437999999,17.18291165946689],[-91.32445027999995,17.18274730946687],[-91.33123814999999,17.17679265946705],[-91.33557056999996,17.16124416946745],[-91.33971121999997,17.15854214946757],[-91.34648976999995,17.15902711946756],[-91.34948374999999,17.160339659467482],[-91.35030699999999,17.163703199467403],[-91.34695354999997,17.17680442946706],[-91.35474765999999,17.190771139466644],[-91.36563756999999,17.196326379466534],[-91.37552939999995,17.204554829466304],[-91.38613853999999,17.206415179466216],[-91.40211748999997,17.20456479946631],[-91.41122217999998,17.206194489466238],[-91.41881745999996,17.20929527946616],[-91.42742434999997,17.216594829466],[-91.43108777999998,17.227919429465658],[-91.43455381999996,17.23289688946554],[-91.43975885999998,17.250000049465044],[-91.43888333999996,17.254288889464952],[-91.43214939999996,17.264635629464646],[-91.42749634999996,17.276583619464343],[-91.42552934999998,17.301844119463652],[-91.41868174999996,17.303475509463613],[-91.41259250999997,17.3075489994635],[-91.38954917999996,17.299516449463717],[-91.38351422999995,17.312830549463364],[-91.38504461999997,17.320252229463154],[-91.39699741999999,17.33794505946266],[-91.40510405999999,17.342696319462565],[-91.41677534999997,17.34562711946249],[-91.41677087999994,17.352055219462308],[-91.41437588999997,17.359185509462073],[-91.41983261999997,17.374070679461685],[-91.43032070999999,17.377712949461582],[-91.43929845999997,17.384287369461408],[-91.44717644999997,17.38289936946148],[-91.45271588999998,17.375823169461643],[-91.45649562999995,17.375721539461626],[-91.48427307999998,17.38806159946133],[-91.49781602999997,17.39505291946114],[-91.50050033999997,17.398330079461044],[-91.50500476999997,17.399482449461],[-91.50993553999996,17.392202709461213],[-91.51508457999995,17.39482341946111],[-91.51724424999998,17.39823271946105],[-91.52727501999999,17.402356749460896],[-91.53032304999994,17.405499739460836],[-91.53684713999996,17.407362679460807],[-91.53724421999999,17.419736169460432],[-91.55209322999997,17.42256693946035],[-91.55243331999998,17.421506279460427],[-91.55785668999994,17.422244149460383],[-91.55879353999995,17.400529579460983],[-91.57968831999995,17.40734381946079],[-91.60689817999997,17.416891379460516],[-91.60894816999996,17.42549982946029],[-91.61748593999994,17.42624248946028],[-91.62020767999996,17.43170044946013],[-91.63488733999998,17.43649491945998],[-91.63733734999994,17.42995717946017],[-91.64273961999999,17.432007739460154],[-91.64332642999995,17.430987979460152],[-91.67204313999997,17.444058819459816],[-91.66520559999998,17.461660229459337],[-91.67163124999996,17.464493749459233],[-91.67296053999996,17.4618087994593],[-91.69979724999996,17.46711104945916],[-91.69725897999996,17.46821697945912],[-91.69209319999999,17.467021949459188],[-91.69204922999995,17.47294431945904],[-91.69024085999996,17.47499216945897],[-91.68190565999998,17.469447970459083],[-91.67672211999997,17.474126580459007],[-91.67678861999997,17.475882429458963],[-91.67511299999995,17.471541979459047],[-91.67467107999994,17.47403365945897],[-91.67145965999998,17.473652180458984],[-91.67263799999995,17.478141879458892],[-91.67020894999996,17.476400319458918],[-91.67106099999995,17.47871545945886],[-91.66941619999994,17.47974322945884],[-91.66785421999998,17.478210089458898],[-91.66685759999996,17.4821206004588],[-91.66601225999995,17.480291970458815],[-91.66432507999997,17.481692399458776],[-91.66281676999995,17.479816739458826],[-91.66102684999998,17.48737285945863],[-91.65768802999997,17.486655059458627],[-91.65917777999994,17.488067139458614],[-91.65678847999999,17.488509510458623],[-91.65715999999998,17.491251119458546],[-91.65584848999998,17.490427939458574],[-91.65221748999994,17.492193510458485],[-91.65207576999995,17.49381219945845],[-91.65416167999996,17.494706140458437],[-91.65279839999994,17.495657570458395],[-91.65447451999995,17.496694970458393],[-91.65192230999997,17.497475049458355],[-91.65007308999998,17.4956850794584],[-91.65244388999997,17.500405709458274],[-91.65031359999995,17.50015042945832],[-91.65059911999998,17.502588749458198],[-91.64725531999994,17.504046060458187],[-91.64825517999998,17.5058937404581],[-91.64994570999994,17.505785050458122],[-91.64800847999999,17.507195370458067],[-91.64831397999995,17.508982229458063],[-91.64659988999995,17.509141540458064],[-91.64924854999998,17.51135139945795],[-91.64919465999998,17.51572316945787],[-91.64802777999995,17.516255260457825],[-91.64907716999994,17.5177727404578],[-91.64431914999994,17.51722912045784],[-91.64182130999995,17.51892202945778],[-91.64063259999995,17.521233150457707],[-91.64289359999998,17.524921279457626],[-91.64141759999995,17.527159379457572],[-91.64249111999999,17.52901664945753],[-91.64043407999998,17.528222519457515],[-91.63918919999998,17.529610879457504],[-91.64005011999996,17.53313129045742],[-91.63749299999995,17.53205322045745],[-91.63428773999999,17.534624260457335],[-91.63697173999998,17.537846450457273],[-91.63657328999994,17.53957448045722],[-91.63894491999997,17.540649079457175],[-91.63751981899998,17.541428030457194],[-91.63918919999998,17.541593539457185],[-91.63569104999999,17.54270077945716],[-91.63728793999996,17.543121949457138],[-91.63681393999997,17.54587105945703],[-91.63482087999995,17.54511482045704],[-91.63578004999994,17.54742194945702],[-91.63704697999998,17.546168629457057],[-91.63791245999994,17.547092549457027],[-91.63497514999995,17.548222140456986],[-91.63476968999998,17.55050143045692],[-91.63776545999997,17.55202951945692],[-91.63804017999996,17.556657219456742],[-91.63965341999995,17.555304629456778],[-91.64103107999995,17.55801402945671],[-91.64009187999994,17.56099175045666],[-91.64161302999997,17.566342429456537],[-91.63877788999997,17.570831750456406],[-91.64055653999998,17.572638030456336],[-91.63882739999997,17.58146942945607],[-91.64066662999994,17.582183739456084],[-91.64139974999995,17.585012429456004],[-91.64324962999996,17.58420818045603],[-91.64234553999995,17.586748909455935],[-91.64403014999994,17.587879780455893],[-91.64470779999994,17.586823919455924],[-91.64714776999995,17.59019130945583],[-91.64433334999995,17.591453310455837],[-91.64708010999999,17.592402969455776],[-91.64391511999997,17.593715629455794],[-91.64462074999994,17.595703800455723],[-91.64768851999997,17.594177280455746],[-91.64922593999995,17.598003260455627],[-91.65308488999995,17.5986652804556],[-91.65285296999997,17.603213019455517],[-91.65694730999996,17.603994799455506],[-91.65672908999994,17.605823319455464],[-91.66219177999994,17.60856286045536],[-91.66222865999998,17.610571320455318],[-91.66063776999994,17.6112732604553],[-91.66356319999994,17.612167139455263],[-91.65948196999994,17.613633769455223],[-91.65679621999999,17.61220398045527],[-91.65699559999996,17.61533665945516],[-91.65079059999994,17.61725748045511],[-91.65219367999998,17.61975917045507],[-91.64970442999999,17.619312049455104],[-91.64971621999996,17.6177531194551],[-91.64789617999998,17.61901082945507],[-91.64674236999997,17.617901460455098],[-91.64732061999996,17.620999120455046],[-91.64456748999999,17.621924550455013],[-91.65182014999993,17.625909200454913],[-91.65219148999995,17.624837020454944],[-91.65703687999996,17.62543232045492],[-91.65672413999994,17.627779379454843],[-91.65989857999995,17.630447460454803],[-91.65490494999995,17.630548199454804],[-91.65591604999997,17.631838569454754],[-91.65431824999996,17.633016570454696],[-91.65790653999994,17.63199042045475],[-91.65808111999996,17.634539339454676],[-91.65444956999994,17.633962000454684],[-91.65617539999994,17.63601648045465],[-91.65325211999999,17.635829339454627],[-91.65281125999996,17.638570739454536],[-91.65601467999994,17.639554029454533],[-91.65594968999994,17.64192917945445],[-91.65878759999998,17.63970798045454],[-91.65851304999995,17.642464519454432],[-91.65652668999996,17.64313994945441],[-91.65673317999995,17.64563119945434],[-91.65526370999999,17.643004200454445],[-91.65405456999997,17.645229430454407],[-91.65649508999996,17.649533229454242],[-91.65976448999999,17.649194769454287],[-91.66064248999999,17.652936850454175],[-91.65878033999996,17.65418690945416],[-91.65865877999994,17.65645470945407],[-91.66324727999995,17.658040459454035],[-91.66057921999999,17.660280749453943],[-91.66141022999994,17.6626899094539],[-91.66360745999998,17.66215482945395],[-91.66244754999997,17.664189059453882],[-91.66057221999995,17.663595689453857],[-91.66039150999995,17.665524399453822],[-91.66433928999999,17.666660629453776],[-91.65900757999998,17.665935229453837],[-91.65930756999995,17.67030198045368],[-91.65474350999995,17.676157119453524],[-91.65854411999999,17.674809630453602],[-91.66099993999995,17.67876588945345],[-91.66573244999995,17.679997849453457],[-91.66451431999997,17.682053260453355],[-91.66582253999997,17.683518550453375],[-91.67299248999996,17.68347242945335],[-91.67688501999999,17.675294550453557],[-91.67922928999997,17.67446408045359],[-91.67842999999999,17.671255630453693],[-91.68137725999998,17.67013371945368],[-91.68321708999997,17.672665599453666],[-91.68302110999997,17.67557424945358],[-91.69371122999996,17.685001200453286],[-91.69655781999995,17.685391510453275],[-91.69694867999999,17.683181139453357],[-91.69914188999996,17.68276034045338],[-91.69669877999996,17.679606679453464],[-91.70095797999994,17.678939780453472],[-91.70103767999996,17.68967964945321],[-91.70403576999996,17.692225089453085],[-91.70452454999997,17.68985991045317],[-91.70823174999998,17.688130059453226],[-91.71272436999999,17.68933647945321],[-91.71707748999995,17.68774650945325],[-91.71724048999994,17.69277624945311],[-91.71464082999995,17.695014049453043],[-91.71847344999998,17.694768249453038],[-91.71754541999996,17.69840922945294],[-91.71985741999998,17.697509229452955],[-91.71921291999996,17.69327067945311],[-91.72476353999997,17.69206388945311],[-91.73329399999994,17.69658034045302],[-91.73403342999995,17.70019373945287],[-91.73652125999996,17.700574579452862],[-91.73824761999998,17.70284694945282],[-91.73793217999997,17.705393149452778],[-91.74138351999994,17.705774029452748],[-91.73855211999995,17.706884969452698],[-91.73880622999997,17.710808649452613],[-91.74437524999996,17.706724459452712],[-91.74824396999998,17.700177019452916],[-91.75391477999995,17.705347320452745],[-91.76785261999999,17.703115450452806],[-91.77149259999999,17.70998659945263],[-91.77660257999997,17.71543168045248],[-91.77595616999997,17.709158320452694],[-91.78053168999998,17.70781947945271],[-91.78273711999998,17.710592799452606],[-91.78401453999999,17.71674120045246],[-91.78651587999997,17.71902567945242],[-91.79542961999994,17.722742850452324],[-91.81843394999999,17.727432229452152],[-91.82131813999996,17.731960779452066],[-91.83066168999994,17.737677229451872],[-91.81032502999994,17.751323339451535],[-91.79836865999994,17.744183479451735],[-91.79016173999997,17.74601810945164],[-91.79204591999996,17.750128169451543],[-91.79115888999996,17.756539029451396],[-91.78859434999998,17.75651547945142],[-91.78225311999995,17.782484629450707],[-91.78222099999994,17.791952259450454],[-91.79082421999999,17.814187419449844],[-91.79237157999995,17.82451693944954],[-91.79038699999995,17.835416719449295],[-91.78068342999995,17.847130169448977],[-91.77969045999998,17.851298579448844],[-91.78187293899998,17.854288220448762],[-91.79796679999998,17.86213104944858],[-91.80436873999997,17.868866449448362],[-91.80887416999997,17.883556219448003],[-91.80892487999995,17.89545202944768],[-91.81090754999997,17.899401169447543],[-91.81618437999998,17.900146339447545],[-91.83540556999998,17.886592819447888],[-91.84968628999997,17.88286459944802],[-91.85793714999994,17.884649169447954],[-91.87068930999999,17.890780719447815],[-91.89416147999998,17.88750025944786],[-91.90296681999996,17.896034229447654],[-91.91247056999998,17.89980765944752],[-91.91812768999995,17.89951964944757],[-91.92343341999998,17.895580919447667],[-91.92549682999999,17.891934169447786],[-91.92390556999999,17.88238519944801],[-91.92806133999994,17.87082250944831],[-91.93759204999998,17.864488399448472],[-91.94840916999999,17.863308349448545],[-91.95260864999995,17.865408049448472],[-91.95708156999996,17.870640259448354],[-91.95683276999995,17.87992990944808],[-91.93943417999998,17.90111494944749],[-91.93959784999998,17.906293059447375],[-91.94498617999994,17.91025950944729],[-91.96993096999995,17.91039525944725],[-91.97845256999994,17.91368864944717],[-91.98515524999999,17.920389059447004],[-91.99048981999994,17.936021779446563],[-91.99567108999997,17.94258996944639]]]}}]}
