{"type":"FeatureCollection","features":[{"type":"Feature","properties":{"cve_ent":"08","cvegeo":"08","nombre_inegi":"Chihuahua","nombre_catalogo":"Chihuahua"},"geometry":{"type":"Polygon","coordinates":[[[-106.52852327999994,31.783817449154807],[-108.20837345999996,31.78375401915479],[-108.20847317,31.33336333916149],[-108.75591613999995,31.332419019161463],[-108.81723143,31.239005659162892],[-108.87981247999996,31.23878593916295],[-108.88169513999998,31.235560179162952],[-108.89832614999995,31.225238399163096],[-108.90629079999997,31.213343089163274],[-108.90622133999995,31.20636333916341],[-108.90033230999997,31.202452119163457],[-108.86068717999996,31.218927199163215],[-108.84833196899997,31.195107579163597],[-108.80502465999996,31.192955539163627],[-108.83501234999994,31.169334709163966],[-108.84564005999994,31.13557621916451],[-108.83329732,31.125458539164654],[-108.76999685899996,31.102471829165005],[-108.77019448999994,31.09232867916513],[-108.76655057999996,31.081916979165342],[-108.76615651999998,31.07362817916545],[-108.75045101999996,31.069750739165517],[-108.74018873999997,31.0580862191657],[-108.73454627999996,31.05362257916572],[-108.72989913999999,31.05215417916577],[-108.74010874999999,31.047078149165866],[-108.75246601999999,31.033847509166055],[-108.68438668,31.033739539166042],[-108.68380744999997,31.005973319166497],[-108.80325545999995,31.00482925916651],[-108.80239256999995,30.90410099916803],[-108.93924273999994,30.907565169168006],[-108.92984924999996,30.861020919168702],[-108.93545679999994,30.773631259170095],[-108.94830244999997,30.736911279170684],[-108.91896836999997,30.73935365917064],[-108.88691945999994,30.719286539170934],[-108.86692524999995,30.689386629171423],[-108.87774357999996,30.637838399172256],[-108.87646527999999,30.624574319172464],[-108.84827728999996,30.614252029172594],[-108.83939056999999,30.605902449172703],[-108.83426436999997,30.60574131917273],[-108.83064742999994,30.60173301917279],[-108.76201974999998,30.587271969173045],[-108.75654172099996,30.596075719172884],[-108.72666566,30.59454807917291],[-108.72743948999994,30.580476909173157],[-108.68739830999999,30.55476476917356],[-108.67779219999996,30.557072719173515],[-108.67408999999998,30.532291489173875],[-108.66197290999997,30.521941889174073],[-108.65711650999998,30.470316749174888],[-108.66477187999999,30.46815164917491],[-108.66098291999998,30.466650199174964],[-108.60384322999994,30.465112999174952],[-108.61355868,30.435716379175407],[-108.64865224999996,30.41686471917572],[-108.61983988999998,30.374796379176438],[-108.62205648999998,30.340318169176953],[-108.58000596999996,30.33748210917701],[-108.57491708999999,30.327543509177186],[-108.57145301999998,30.327733859177144],[-108.56577376999998,30.3081863791775],[-108.542199021,30.283512169177882],[-108.55054665999995,30.26664217917818],[-108.55995205999996,30.26992837917811],[-108.56500077999999,30.269731459178114],[-108.56719811999996,30.272899279178045],[-108.57294291999995,30.274330309178026],[-108.57315201999997,30.276927859178],[-108.58307097999995,30.28140985917792],[-108.58352670999994,30.285407079177826],[-108.62021762999996,30.29822971917764],[-108.61165573999995,30.10234942918084],[-108.61822288999997,30.089452539181014],[-108.61453012,30.089275549181007],[-108.61473757,30.057838539181528],[-108.60692208999997,30.028617919182036],[-108.61549957999996,29.96587242918306],[-108.62870897,29.95303439918327],[-108.62807521999997,29.951335689183324],[-108.62287154999996,29.950471649183314],[-108.61877551899995,29.93132131918364],[-108.61911297999995,29.909377689183984],[-108.61486305999996,29.89512525918423],[-108.61469338099995,29.884464019184403],[-108.62169070999994,29.878209489184528],[-108.60719925999997,29.847140059185048],[-108.60838319999999,29.84514407918508],[-108.61489305999999,29.844077999185053],[-108.63475010999997,29.83205430918527],[-108.63571773999996,29.829684479185282],[-108.62944417999995,29.80627384918567],[-108.61855959999997,29.800465999185768],[-108.60166765999998,29.79711167918586],[-108.54125876999996,29.796137849185843],[-108.53496427999994,29.751364509186594],[-108.53839742999997,29.74761133918668],[-108.54077556999994,29.736227969186892],[-108.54780934999998,29.73735027918684],[-108.59275131,29.728391489186976],[-108.59253437999998,29.7176457191872],[-108.65909895,29.71612739918722],[-108.64516732,29.691957579187626],[-108.61828002999995,29.66052544918811],[-108.65498791999994,29.64943288918834],[-108.64465714999996,29.627549219188687],[-108.64632510999996,29.610442279188952],[-108.64113711999995,29.588885659189355],[-108.65950507999997,29.58404067918941],[-108.63832419999996,29.558318829189876],[-108.66230913999999,29.544481659190073],[-108.64871265999994,29.509101029190713],[-108.63071401999997,29.504310309190764],[-108.62515537999998,29.50103128919085],[-108.64398631999997,29.488839509191028],[-108.66597499999996,29.485127059191075],[-108.68960646099998,29.4840004191911],[-108.69433191999997,29.46711419919138],[-108.71775385999996,29.465953829191413],[-108.71907824999995,29.45978925919151],[-108.70737965999996,29.439479109191854],[-108.70362204999998,29.408454859192403],[-108.66973291999996,29.307416919194115],[-108.68220856999994,29.267429819194838],[-108.73030239999999,29.269093619194763],[-108.73066708999995,29.263402779194852],[-108.74142231999997,29.25853531919499],[-108.74290648,29.260146169194932],[-108.75005008999995,29.256727459194984],[-108.75430300000001,29.259457199194934],[-108.75725857999998,29.25566733919502],[-108.76103041999994,29.25545890919504],[-108.76188762999999,29.253883579195033],[-108.75869647999997,29.250922539195077],[-108.75109596999994,29.250936829195105],[-108.74124454999999,29.24042699919529],[-108.74282836999998,29.22586434919552],[-108.73540833999999,29.217712689195654],[-108.739829951,29.200820319195966],[-108.75386948999994,29.20009805919599],[-108.74915833999997,29.180637169196313],[-108.74555254999997,29.17399431919644],[-108.74529690999998,29.16234273919661],[-108.72885354,29.171801139196482],[-108.70950050899997,29.149133539196832],[-108.70001711999998,29.135046679197107],[-108.69852819999994,29.127739569197235],[-108.70826121999994,29.114277289197467],[-108.72958952,29.096532689197762],[-108.72747148999999,29.085761199197925],[-108.71152873999996,29.087417779197935],[-108.70943817999995,29.083003319197996],[-108.71104977999994,29.077547029198094],[-108.71496662,29.07660825919812],[-108.71310711999998,29.070367339198228],[-108.72435311999999,29.069896999198185],[-108.71131339999994,29.003489339199362],[-108.71421814999998,29.00146533919938],[-108.71000007999999,28.98323094919974],[-108.70781310999996,28.985571349199684],[-108.69814536999996,28.936265659200544],[-108.69782010999997,28.93138836920061],[-108.70106845,28.927645309200717],[-108.70593805099998,28.90658581920105],[-108.70892093999998,28.905900719201068],[-108.70490893999994,28.90023565920122],[-108.70613282,28.892784849201323],[-108.70979771999998,28.88951545920136],[-108.70597930999998,28.889240379201357],[-108.70684419999998,28.884264319201478],[-108.68712966,28.875650249201584],[-108.67817622999998,28.863275879201833],[-108.68120051999995,28.854771169201967],[-108.66583514999996,28.82821611920243],[-108.65784954999998,28.809224489202794],[-108.62962508999999,28.811722349202714],[-108.62381738,28.80612299920286],[-108.62439564999995,28.800116419202944],[-108.63632843,28.791882769203056],[-108.64555674999997,28.794727089203025],[-108.64329441999996,28.76506754920353],[-108.63009947999996,28.759817479203633],[-108.62523374999995,28.75933653920365],[-108.62074339999998,28.750327509203796],[-108.60662044999998,28.744597139203925],[-108.58378519999997,28.740139379204013],[-108.58390764999996,28.665931369205328],[-108.57898421999994,28.657336049205437],[-108.5801512,28.63244633920591],[-108.56439636999994,28.612709649206252],[-108.5613618,28.591173509206623],[-108.55563573999996,28.58726228920672],[-108.55162501999996,28.577774029206875],[-108.53128684999996,28.556668579207265],[-108.53185998,28.538973089207584],[-108.52328665,28.50591034920818],[-108.50767170999995,28.508215909208122],[-108.50773174999995,28.499853179208277],[-108.50479517999997,28.493357289208404],[-108.50905430999997,28.487080599208518],[-108.51369674999995,28.484489949208562],[-108.513472059,28.472906749208757],[-108.52038877999996,28.459758819208986],[-108.51744291999997,28.455622689209058],[-108.50414121999995,28.454439279209062],[-108.50865053999996,28.44929913920918],[-108.51363379999998,28.43960333920938],[-108.51554139999996,28.42628431920958],[-108.48898191999997,28.37511568921049],[-108.47970102,28.369551059210615],[-108.50136539999994,28.355729259210847],[-108.50568285999998,28.360805879210773],[-108.52165099999996,28.365060629210713],[-108.51963772,28.334762179211232],[-108.53588275,28.32373197921144],[-108.550927851,28.31805544921153],[-108.60350742999998,28.347561909210995],[-108.61116728999997,28.335256819211228],[-108.63618093999997,28.335228019211225],[-108.63548597,28.306256109211763],[-108.64129313999997,28.291608649212034],[-108.64436450999996,28.298280199211924],[-108.65237312,28.298351769211926],[-108.65583228999998,28.301806949211855],[-108.66193387999999,28.295475109211935],[-108.66721250999997,28.29940391921186],[-108.67212026,28.298200399211904],[-108.67648655,28.302894029211828],[-108.68722510999999,28.303462489211828],[-108.71389044999995,28.287975079212064],[-108.75098387999998,28.271569349212385],[-108.79668450999998,28.267163449212468],[-108.79166317999996,28.253617059212722],[-108.83042294999996,28.265049279212466],[-108.83583541999998,28.262753779212513],[-108.84199690999999,28.253257369212687],[-108.85138325999998,28.259482999212597],[-108.85608856999994,28.251538289212732],[-108.86158287999996,28.25678705921268],[-108.86925921999996,28.25701491921268],[-108.88066333999996,28.264726429212512],[-108.89130894,28.261020649212554],[-108.90370581999997,28.261705709212563],[-108.90758373999995,28.259835579212613],[-108.91267539999997,28.26000124921261],[-108.92201444999996,28.251491779212742],[-108.92881613999998,28.25955590921262],[-108.96141270999999,28.262004199212544],[-108.96726110999998,28.26499974921252],[-108.97367121999997,28.273095449212327],[-108.98355890999994,28.276964709212304],[-108.98607839999994,28.283709719212165],[-108.98291356999995,28.287068659212093],[-108.98905587999997,28.291451819212053],[-108.98804954999999,28.29498610921193],[-108.98904722999998,28.29681468921194],[-108.99397437999994,28.297959659211916],[-108.99692176999999,28.295496079211983],[-108.99554508999996,28.286386969212096],[-108.98705477,28.277832679212292],[-108.98956172,28.270933889212383],[-108.98830877999997,28.262540709212548],[-108.99313991999999,28.260478629212557],[-108.99424847999995,28.25631465921265],[-108.99744376999998,28.255054539212697],[-109.00309584999997,28.262179709212557],[-109.01379017,28.267079619212478],[-109.02277699999996,28.277531939212295],[-109.02804217999994,28.277230739212275],[-109.03116982999995,28.272715229212388],[-109.03431201999996,28.27296254921235],[-109.04068194999998,28.266990019212457],[-109.04639468,28.273170679212374],[-109.04641423,28.276085489212317],[-109.04441705,28.278455909212255],[-109.04576473999998,28.281161649212226],[-109.05044610999994,28.280840619212213],[-109.05188325999997,28.27642462921231],[-109.05641741999995,28.27918304921222],[-109.05951148999999,28.284736049212142],[-109.06388296999997,28.283596659212172],[-109.06625688999999,28.286442969212118],[-109.06869639999996,28.28613884921211],[-109.07010788999997,28.284284219212175],[-109.06708791999996,28.28098816921222],[-109.06331933999996,28.28006493921222],[-109.05843617999994,28.267268859212468],[-109.06883001999996,28.27365708921232],[-109.07488616999997,28.27260941921235],[-109.06918853999998,28.24982101921279],[-109.06199010999997,28.19920193921367],[-109.07289419999996,28.148572349214632],[-109.0667896,28.141711769214727],[-109.06868534999995,28.140050849214738],[-109.06856194999996,28.130129489214966],[-109.06554488999996,28.12530517921504],[-109.06280193999999,28.12580154921505],[-109.06223851999994,28.118307859215186],[-109.05966725999997,28.115561259215227],[-109.05987174999996,28.11324450921529],[-109.05359121999999,28.10019610921552],[-109.05119437999998,28.09907182921554],[-109.05313922,28.096779459215576],[-109.04894791999999,28.09265034921563],[-109.05179144999994,28.090145629215687],[-109.04949613999997,28.087067339215725],[-109.04992710999994,28.0835677392158],[-109.04156331999998,28.063887449216157],[-109.03656787999995,28.033093489216736],[-109.03189961999999,28.01828802921702],[-109.01636070999996,28.008027999217173],[-108.99168493999997,27.979980889217696],[-108.98198196999999,27.980272509217723],[-108.96370539999998,27.97252401921784],[-108.95031377999999,27.954039539218186],[-108.92651102999999,27.940594229218437],[-108.92452554999994,27.900860939219157],[-108.92008974999999,27.890813749219376],[-108.91975074999999,27.870944549219715],[-108.91486797999995,27.854005229220032],[-108.86914021999998,27.839286339220322],[-108.87283156999996,27.83159728922045],[-108.88314571999997,27.819964369220646],[-108.88608172,27.813670029220766],[-108.90451773999996,27.80768279922092],[-108.91046413999999,27.80913574922088],[-108.92029421999996,27.78397305922134],[-108.89551565,27.744807089222075],[-108.83296377999994,27.744349569222084],[-108.81700365999997,27.73216607922232],[-108.80738434999995,27.7379907492222],[-108.80488125999996,27.73617607922224],[-108.80383651999995,27.73020199922236],[-108.79927568999996,27.72302839922246],[-108.78449463,27.73046524922236],[-108.78444693999997,27.714906859222616],[-108.76602477999995,27.705833569222783],[-108.77278676999998,27.69650147922297],[-108.76475697999996,27.69349734922301],[-108.76234541999997,27.675045579223386],[-108.74931377999997,27.66473081922355],[-108.75405504999999,27.64564128922394],[-108.75419938,27.636733429224087],[-108.73985237999995,27.59995457922475],[-108.72295808999996,27.58814773922501],[-108.71280771,27.566246479225438],[-108.69025644999999,27.559181119225567],[-108.65527705999995,27.543797429225826],[-108.65240534999998,27.53703290922595],[-108.65577870999999,27.477310909227064],[-108.65302290999996,27.469031629227263],[-108.66164839999999,27.464744349227317],[-108.63341768999999,27.428136479228],[-108.62773924999999,27.410567029228325],[-108.62912519999999,27.382920599228857],[-108.59104511999999,27.318080479230115],[-108.62559062999999,27.289245859230657],[-108.64733896999998,27.256983919231267],[-108.66437548999994,27.239395829231583],[-108.65808850999997,27.23165221923176],[-108.65823965999999,27.227550709231846],[-108.66142125999995,27.224058679231902],[-108.66257807999995,27.219542919231962],[-108.65310525999996,27.19532025923246],[-108.65334142999995,27.18998153923258],[-108.64934388999995,27.19120494923252],[-108.64751890999997,27.186700849232636],[-108.65322054999997,27.176054599232803],[-108.64966987999999,27.175837579232837],[-108.64432014999996,27.178811149232782],[-108.63208213999997,27.168945769232955],[-108.62242242999999,27.15689087923318],[-108.61142670999999,27.154144749233236],[-108.60073073999996,27.1189724892339],[-108.59695617999995,27.076899649234708],[-108.60618896999996,27.06358501923499],[-108.60227604999994,27.036943279235498],[-108.56253527999998,27.046018939235335],[-108.57224741999994,27.01265582923595],[-108.55176342999994,26.997145289236258],[-108.50248611999996,26.987357029236456],[-108.50418976999998,26.992432979236355],[-108.50176105999999,26.996661179236263],[-108.50448592,27.002337509236174],[-108.50626042999994,27.003079509236176],[-108.50443853999997,27.00718387923608],[-108.50219884999997,27.004071049236128],[-108.50086771999997,27.004437059236118],[-108.50157205999996,27.008397949236073],[-108.49779430999997,27.010423059236004],[-108.49730042999994,27.013408749235953],[-108.48880914999995,27.016279379235915],[-108.48697453999996,27.015344969235922],[-108.48417187999998,27.017438939235852],[-108.48350701999999,27.021154139235836],[-108.48537664999998,27.027833679235695],[-108.49173487999997,27.031380199235606],[-108.48703533999998,27.032531109235574],[-108.48778227999999,27.035662629235517],[-108.47997402,27.039587709235434],[-108.47551445999994,27.03994519923543],[-108.47131322999998,27.0304951392356],[-108.46994156999996,27.031282949235603],[-108.46952887999998,27.0358739992355],[-108.46430896999999,27.040099909235423],[-108.45895250999997,27.034619649235513],[-108.45778304999999,27.028944749235652],[-108.45479105999999,27.027035859235703],[-108.44310159999999,27.029498059235628],[-108.42524341999996,27.02395534923574],[-108.41945105999997,27.020482519235802],[-108.41372745999998,27.020158419235806],[-108.40992836999999,27.01607507923591],[-108.40964044999998,27.013404949235944],[-108.37163739999994,27.02301182923575],[-108.35010994,27.022554429235793],[-108.34764687999996,27.01836019923587],[-108.34099088,27.013670369235946],[-108.33853411999998,27.008959799236056],[-108.33332621999995,27.00459630923613],[-108.32761230999995,27.007730139236035],[-108.32490734999999,27.006206489236096],[-108.32202601999995,27.008936549236033],[-108.32224524999998,27.014458719235932],[-108.32598136999998,27.020492949235813],[-108.32271354999995,27.027665019235652],[-108.31655804999997,27.034488349235545],[-108.30742630999998,27.03485279923555],[-108.30338765999996,27.036620349235527],[-108.29463353999996,27.02586824923569],[-108.28891423,27.02657991923573],[-108.29093227999999,27.014830309235908],[-108.28601013999997,27.012470649235986],[-108.28160536999997,27.013165519235933],[-108.27474916999995,27.018199289235845],[-108.27313022,27.022493889235804],[-108.26987907999995,27.02512059923571],[-108.26293129,27.0267555992357],[-108.26302771999998,27.02894916923563],[-108.26046289,27.02932456923562],[-108.26085456999999,27.03312879923556],[-108.25818904999996,27.033710119235526],[-108.25858562999997,27.035269109235543],[-108.250447599,27.04103148923539],[-108.24616656999996,27.038810659235427],[-108.24294056999997,27.042047999235372],[-108.24121869,27.041846049235406],[-108.23214274999998,27.031602049235605],[-108.22585404999997,27.02722134923569],[-108.21472062999999,27.03021613923562],[-108.21156620000001,27.034448889235566],[-108.20954781999995,27.0322943992356],[-108.20542727999998,27.03257168923558],[-108.20283616999996,27.030660089235585],[-108.19948576999997,27.035172219235527],[-108.19506867999996,27.032703919235594],[-108.19445209099996,27.028925629235662],[-108.19181851999997,27.02589171923571],[-108.19486184999995,27.02622679923572],[-108.19406646,27.023179689235768],[-108.19016057,27.019740849235838],[-108.18948101999997,27.014538939235898],[-108.18675416899998,27.01216621923596],[-108.18728402999994,27.010270379236022],[-108.18359691999996,27.009063619236045],[-108.18391925999998,27.006682459236064],[-108.18028259999994,27.000160659236204],[-108.18362425999999,26.99530988923629],[-108.18152402,26.99410991923631],[-108.18627705999995,26.99311377923634],[-108.18849631999996,26.98888417923644],[-108.18789331,26.98636111923644],[-108.19705004999999,26.983795259236555],[-108.19690724999998,26.98112356923654],[-108.20126884999996,26.98302471923655],[-108.20471162999998,26.980293459236577],[-108.20797247999997,26.98106456923657],[-108.20737812,26.98311091923654],[-108.20905211999998,26.980457489236585],[-108.21085141999998,26.980381909236595],[-108.21088845999998,26.977990399236646],[-108.21582782999998,26.97768290923664],[-108.21532924999997,26.970398779236774],[-108.21897519999999,26.971904289236743],[-108.21837356999998,26.964786999236896],[-108.22629970999998,26.963644199236892],[-108.23501570999998,26.958619849236996],[-108.23549319999995,26.953472349237085],[-108.23050650999994,26.947964819237214],[-108.23102904999996,26.943477429237277],[-108.22925484999996,26.942665379237308],[-108.23139334999998,26.94070754923737],[-108.22877468999997,26.938566579237385],[-108.23101628999997,26.932804549237527],[-108.22625105999998,26.929533579237575],[-108.22502091999996,26.9228769492377],[-108.22780150999996,26.91802839923777],[-108.22734431999999,26.914397539237854],[-108.23023690999999,26.905724579238008],[-108.22067444999999,26.89780124923818],[-108.21444156999998,26.888008749238363],[-108.20971748999995,26.885437649238405],[-108.20620857999995,26.88554957923841],[-108.20352659899999,26.88767217923838],[-108.20277959999999,26.890618709238353],[-108.20739017999995,26.906000079238044],[-108.19766697999997,26.902670739238115],[-108.19008050999997,26.89587213923822],[-108.18391556999997,26.89973799923817],[-108.18109550999999,26.896539139238232],[-108.17758442999998,26.88220044923847],[-108.17454862999996,26.881464829238485],[-108.17143861999996,26.88393456923847],[-108.17174977099997,26.892336399238275],[-108.16855839999994,26.89507094923825],[-108.15591325999999,26.895216509238256],[-108.14754804999997,26.90850713923797],[-108.14310154999998,26.90788413923801],[-108.14151661999996,26.90585311923805],[-108.14200096999998,26.897757229238163],[-108.13960045999994,26.89547948923826],[-108.14424734999994,26.867649319238765],[-108.09410724999998,26.87046367923872],[-108.02682085,26.798466369240096],[-108.03764904999997,26.769780799240657],[-108.01426423,26.773152939240617],[-108.00570073999995,26.76104879924084],[-108.01372171999999,26.750312539241065],[-108.01524184999994,26.737054029241296],[-108.01923096999998,26.730666749241475],[-108.00929048999997,26.72398514924156],[-108.00677937999995,26.71548754924173],[-108.00678548999998,26.705531339241933],[-108.00896885999998,26.701580719242003],[-108.00789662999996,26.69933045924207],[-108.01171602999996,26.693609089242173],[-108.01174662999996,26.689482429242258],[-108.01491676999996,26.687593279242286],[-108.01462785999996,26.68571451924231],[-108.02545877999995,26.67836010924245],[-108.02848017999999,26.673527169242572],[-108.03032498,26.674261739242585],[-108.03172357999995,26.667981249242658],[-108.04269482999996,26.666758259242705],[-108.04313370999996,26.6632320292428],[-108.04653355,26.659794679242843],[-108.05028439999995,26.659634059242823],[-108.05300810999995,26.65831891924287],[-108.05297528999995,26.6563787492429],[-108.05595125999997,26.656467779242927],[-108.05501882,26.654753919242957],[-108.05627902999998,26.65189508924298],[-108.06019619999996,26.65157374924301],[-108.06464627999999,26.647370509243068],[-108.06643232,26.648262649243065],[-108.07129837999999,26.646050049243097],[-108.07279019999999,26.647182289243084],[-108.07673819999998,26.64531844924312],[-108.07792739999996,26.646174419243085],[-108.08160344999999,26.64199382924319],[-108.07442714999998,26.63644799924327],[-108.07388611999994,26.63369094924338],[-108.07606536999998,26.63022874924344],[-108.07455837999998,26.627993749243444],[-108.07172382999994,26.626918279243473],[-108.06881670999996,26.631448249243412],[-108.06299137999997,26.63042637924345],[-108.06125608999999,26.6272352492435],[-108.05867062999994,26.62658754924351],[-108.05389951999996,26.627173709243515],[-108.05158235,26.629835849243445],[-108.04453293999995,26.624968169243516],[-108.04515005999998,26.6197134892436],[-108.03746210999998,26.61970534924364],[-108.03180953999998,26.61592434924371],[-108.03543622999997,26.609714999243824],[-108.03251362999998,26.603182219243962],[-108.02709957999998,26.59849850924407],[-108.02028147999995,26.597001379244077],[-108.01217488999998,26.591395509244176],[-108.01077777999997,26.588377909244272],[-108.01248402,26.57964301924441],[-108.00100213999998,26.572555509244527],[-107.99707581999996,26.56709684924466],[-107.99764611999996,26.56470542924472],[-107.99204591999995,26.562283449244763],[-107.98974482999995,26.548039799245014],[-107.98759542,26.54589842924506],[-107.98364393999998,26.546036969245076],[-107.98167701999996,26.542880649245124],[-107.97969099999996,26.543184599245162],[-107.97750851999997,26.536112749245255],[-107.97043691,26.53289177924534],[-107.96400127999999,26.527449879245463],[-107.96101674999994,26.526955399245487],[-107.96199137999997,26.517804579245663],[-107.95546031999999,26.505983689245877],[-107.95806982,26.496855079246046],[-107.95726530999997,26.493743949246134],[-107.97051939999994,26.489068829246218],[-107.98562259999994,26.472099769246547],[-107.96963910999995,26.4701678592466],[-108.01279702,26.43904805924721],[-108.00058628999996,26.422162149247566],[-107.97302544999998,26.39252697924815],[-107.97411782999995,26.388634309248207],[-107.85626456999995,26.226035119251463],[-107.85401850999995,26.19651937925204],[-107.83994962999999,26.18293817925233],[-107.82401507999998,26.184113779252314],[-107.82275476999997,26.187629089252194],[-107.81824576999998,26.18345448925229],[-107.81027676999997,26.18368142925228],[-107.80453597999998,26.17480193925249],[-107.79625359999994,26.17266333925251],[-107.79301796999995,26.168359949252586],[-107.78892390999994,26.1686137792526],[-107.78069045999996,26.13693757925324],[-107.75517214999996,26.134512449253283],[-107.74792016999999,26.143494249253113],[-107.74759714999999,26.153793169252882],[-107.74519514999999,26.15564887925288],[-107.73787310999997,26.156947119252823],[-107.74007456999999,26.162289479252706],[-107.73871602999998,26.167239689252614],[-107.73523292,26.168084629252647],[-107.72488901999999,26.163171459252723],[-107.71743153999996,26.16474157925268],[-107.71460011999994,26.16730550925264],[-107.71325537999998,26.173052119252485],[-107.71107550999996,26.174413059252508],[-107.70825894999996,26.173675399252485],[-107.70613881999998,26.170067679252565],[-107.69919351999995,26.17073650925255],[-107.69631927999997,26.165473649252643],[-107.68726461999995,26.16539188925264],[-107.68084841999998,26.16285717925273],[-107.67941168999995,26.164395109252673],[-107.66895430999996,26.1645119992527],[-107.65971641999994,26.1626497692527],[-107.65276429,26.163640969252732],[-107.64608201999995,26.15828897925283],[-107.63574956999997,26.15457804925289],[-107.62076996999997,26.162645689252702],[-107.59318321999996,26.166042799252683],[-107.58976331999999,26.169801829252567],[-107.58202727999999,26.17064011925254],[-107.57752879999998,26.164695709252683],[-107.57028401999997,26.163342119252693],[-107.56538925999998,26.164641339252693],[-107.55567733999999,26.159623059252795],[-107.55395716999999,26.151750249252967],[-107.54794419999998,26.14744110925303],[-107.54327739999997,26.146348939253052],[-107.53999656999997,26.14080436925318],[-107.54368017999997,26.137319569253233],[-107.53738776999997,26.137661859253207],[-107.53459464999997,26.130938279253378],[-107.52626704999994,26.127747649253436],[-107.52811256999996,26.12138068925353],[-107.52421347999996,26.113174179253704],[-107.52212945999997,26.111820449253727],[-107.52214331,26.108552109253818],[-107.52394021999999,26.107230119253835],[-107.52001997999997,26.104227169253903],[-107.51694624999999,26.108404939253827],[-107.513341171,26.110938859253743],[-107.51018642999999,26.111100579253737],[-107.50611521999997,26.11578747925367],[-107.50390668999995,26.115917319253658],[-107.49683933999995,26.11128942925376],[-107.49217115,26.11146265925373],[-107.49059247999999,26.113659309253723],[-107.48526137999995,26.11542137925368],[-107.48545201999998,26.119698799253573],[-107.47775322999998,26.120957019253563],[-107.47791628999995,26.123452219253508],[-107.46956116999998,26.12885211925338],[-107.46000314999998,26.138314949253214],[-107.45096904999998,26.137616859253214],[-107.43104268999998,26.142859919253112],[-107.43234745999996,26.13824576925319],[-107.41611822999994,26.141220249253163],[-107.34652779999999,26.109523119253797],[-107.32703513999996,26.090889849254168],[-107.30488979999996,26.07640242925444],[-107.30669171999995,26.048784149255052],[-107.27634625999997,26.001976539255963],[-107.27834564999995,25.99419557925613],[-107.28175424999995,25.99228147925615],[-107.28237776999998,25.989924819256213],[-107.28062870999997,25.988400519256206],[-107.28244491999999,25.985741399256298],[-107.28048936999994,25.980701649256417],[-107.2825686,25.97537611925654],[-107.28009313999996,25.97023387925658],[-107.28221577,25.96219296925676],[-107.28003708999995,25.958095879256835],[-107.28703477999994,25.95398482925691],[-107.29612821999997,25.924793399257542],[-107.24247065999998,25.892369649258182],[-107.24450042999996,25.88741071925828],[-107.24322197999999,25.88523219925837],[-107.24574477999995,25.883499149258366],[-107.24651001999996,25.877774489258474],[-107.24482508999996,25.878141219258453],[-107.24512345999995,25.877153629258512],[-107.24148128999998,25.881010749258394],[-107.23938225399996,25.880382512258407],[-107.22903294999998,25.869741749258655],[-107.21312327999999,25.861894419258817],[-107.20694913999995,25.863919419258767],[-107.20886553999998,25.856312769258917],[-107.20439934999997,25.856703219258918],[-107.19457701999994,25.85230781925903],[-107.05790477,25.757367969260965],[-107.06174211999996,25.753850279261012],[-107.06468344999998,25.748164219261117],[-107.06364390999995,25.744329719261216],[-107.06137391,25.744443349261193],[-107.06101427999994,25.743034859261222],[-107.06249482999999,25.74266522926126],[-107.06049828999996,25.739996199261313],[-107.06474224999994,25.732777969261438],[-107.06537973999998,25.725203369261582],[-107.06196078,25.722942149261648],[-107.06422370999998,25.719074089261724],[-107.06037661999994,25.71529399926178],[-107.04807945999994,25.710826919261905],[-107.04689959999996,25.700579199262112],[-107.04312661999997,25.697698779262186],[-107.03159782999997,25.69788239926215],[-107.02529299999998,25.696202569262173],[-107.02001782999999,25.692223969262272],[-107.01068002999995,25.691459379262273],[-107.01061713999997,25.698368019262134],[-107.00552008999995,25.698713479262135],[-107.00476675,25.70313401926206],[-107.00056197999999,25.707035369261956],[-106.99140739999996,25.710489879261925],[-106.99029874999997,25.714924059261804],[-106.96532268999994,25.697878579262184],[-106.96915241999994,25.68300567926248],[-106.96594617999996,25.677095019262573],[-106.96693982,25.66833081926277],[-106.99432451999996,25.662232599262882],[-106.92238697999994,25.646082169263245],[-106.90680957999997,25.646619949263222],[-106.89378368999996,25.64429134926327],[-106.89922207999996,25.6437420492633],[-106.87375597999994,25.571864829264754],[-106.81782571999999,25.573389429264758],[-106.74479636999997,25.58516337926448],[-106.70254868999996,25.58120574926455],[-106.70575813999996,25.59734973926421],[-106.69892034999998,25.586204519264435],[-106.69884591,25.580839419264606],[-106.68196851999996,25.579168449264618],[-106.70796984999998,25.60245125926415],[-106.68563768999998,25.589736539264393],[-106.68309916999999,25.59082990926435],[-106.68024493999998,25.589323089264393],[-106.67769594999999,25.583657249264505],[-106.67704981999998,25.576442859264656],[-106.67141984999996,25.567421649264833],[-106.66472043,25.563813509264925],[-106.65932647999995,25.564517119264927],[-106.65282630999997,25.558843619265044],[-106.65747991999996,25.57019373926478],[-106.65559545999999,25.5751658292647],[-106.64290762999998,25.58518599926451],[-106.63500342999998,25.586310709264495],[-106.63251130999998,25.584457109264527],[-106.63084764999996,25.585800119264473],[-106.62922014999998,25.59091116926434],[-106.62925553999999,25.603791629264094],[-106.62324564999996,25.607035539264015],[-106.62381662999996,25.60954776926399],[-106.62185458,25.61081853926394],[-106.62012581999996,25.616852029263853],[-106.61570717999997,25.61905819926378],[-106.6149046,25.62197131926372],[-106.60441937999997,25.634536289263455],[-106.59262181999998,25.643535259263302],[-106.59182379999999,25.647391719263183],[-106.57929334999994,25.653349769263055],[-106.57639711999997,25.653193659263092],[-106.57402853999997,25.656098229263034],[-106.56966515,25.657662909263006],[-106.56552977999998,25.666568309262818],[-106.55501194,25.668417169262785],[-106.54745228999997,25.6709516892627],[-106.54478059999998,25.67385393926269],[-106.53644124999995,25.675963479262627],[-106.53381577999994,25.681067649262506],[-106.53122944999997,25.68232188926246],[-106.53096001999995,25.685767599262448],[-106.52733733999997,25.686531259262388],[-106.52798973999995,25.691772649262322],[-106.52494099999997,25.69450927926221],[-106.52102419999994,25.694905399262208],[-106.51174582,25.70282237926206],[-106.50883177999998,25.70750801926195],[-106.50272839999997,25.709201059261936],[-106.50108953999995,25.712156489261858],[-106.48578876999994,25.716142449261795],[-106.46361750999996,25.729043679261554],[-106.46404157999996,25.74170965926124],[-106.52655456999997,25.713379769261874],[-106.55596774999998,25.691706629262296],[-106.56012977999997,25.91270676925778],[-106.54730610999998,25.95242174925695],[-106.53371545999994,25.945761519257122],[-106.50147316999994,25.954955749256925],[-106.49166530999997,25.968053479256643],[-106.45581545999994,25.972579199256547],[-106.44471261999996,26.005088219255917],[-106.47040668999995,26.005425749255878],[-106.46745157999999,26.01828836925564],[-106.46409756999998,26.017860539255658],[-106.45339663,26.02784068925545],[-106.45409828999999,26.046357029255034],[-106.46504325999996,26.051936939254972],[-106.47122930899998,26.06052291925477],[-106.45440685999995,26.095260419254068],[-106.46124567999999,26.105219229253873],[-106.45864357999996,26.11216068925374],[-106.41561494999998,26.139400289253167],[-106.43277551999996,26.204013419251865],[-106.34462521999997,26.309877539249765],[-106.34283645999994,26.309081769249772],[-106.33297034999998,26.319867539249596],[-106.31225756999999,26.348754399249025],[-106.29951956999997,26.337082849249235],[-106.28704094999995,26.33508156924927],[-106.27545791999997,26.367415459248647],[-106.30217654999996,26.363876319248664],[-106.29759801999997,26.396454799248072],[-106.26437404999996,26.40611591924785],[-106.26522062,26.42413970924751],[-106.24203045999998,26.466823849246627],[-106.24440809,26.467938569246634],[-106.24486291999995,26.471999889246568],[-106.25085539999998,26.478584969246402],[-106.24747365999998,26.48218413924636],[-106.25142894999999,26.486908999246225],[-106.25129847999995,26.49108191924617],[-106.25518216999996,26.49891042924598],[-106.25388101999995,26.507355549245855],[-106.27402085999996,26.50767731924581],[-106.28066599999994,26.511753549245743],[-106.26957143,26.527169429245472],[-106.28013545,26.53206722924537],[-106.24121711999999,26.544989919245086],[-106.23952713999995,26.562437319244783],[-106.23866999999997,26.56319596924473],[-106.23296107999995,26.559560369244803],[-106.23203950999999,26.561608379244774],[-106.23456059999997,26.56559042924468],[-106.23463488999994,26.569173889244638],[-106.23064188099994,26.57630145924447],[-106.23394667999997,26.580694849244388],[-106.23244034999999,26.587715419244255],[-106.23689656999994,26.58860324924425],[-106.23536992,26.603323449243955],[-106.23654005999998,26.612167489243774],[-106.23510711999997,26.613486649243725],[-106.23350577999997,26.60963474924383],[-106.23091766,26.609560309243847],[-106.23000102999998,26.6112149792438],[-106.23203950999999,26.613651309243714],[-106.23061139999999,26.6162003692437],[-106.22673485999998,26.61495645924371],[-106.22696450999996,26.618685689243662],[-106.22347584999996,26.627824629243506],[-106.22557437999995,26.635377399243307],[-106.21948224999996,26.63914202924328],[-106.22231361999998,26.642746819243197],[-106.22144985999995,26.647678179243105],[-106.21811254999994,26.65161381924297],[-106.21982608999997,26.656355979242907],[-106.21111005999995,26.667733969242672],[-106.20604223,26.668948089242676],[-106.20792267999997,26.67806474924247],[-106.20302417999994,26.681225819242428],[-106.19834670999995,26.67600928924249],[-106.19968374999998,26.6809845792424],[-106.19712847999995,26.683779019242348],[-106.19328613999994,26.681876799242414],[-106.18924782999994,26.67463242924253],[-106.18798947999996,26.67447576924257],[-106.19042556999995,26.680230079242445],[-106.18861045999996,26.683492909242357],[-106.18512957999997,26.684533289242356],[-106.18498494999994,26.686659599242297],[-106.18721037999995,26.69325005924215],[-106.18967499999998,26.695139319242156],[-106.18629965999997,26.69910684924209],[-106.17767479999999,26.699727599242078],[-106.17266207999995,26.705166799241926],[-106.16686182999997,26.70592170924192],[-106.16013267999995,26.70233844924202],[-106.14746279999997,26.709237739241864],[-106.14230882999999,26.706513999241896],[-106.13857914999996,26.70115679924201],[-106.13301673999996,26.697332599242095],[-106.13067448,26.702203379242025],[-106.13178201999995,26.713796249241756],[-106.14144399999998,26.720786649241628],[-106.15261310999995,26.725235979241543],[-106.17658082999998,26.727722049241525],[-106.17942519999998,26.736268289241348],[-106.17653448999995,26.740463119241287],[-106.17893065,26.741930259241236],[-106.17872945999994,26.74443648924118],[-106.17778141999999,26.745448339241165],[-106.17633514999996,26.743438569241174],[-106.17396359999998,26.743467369241223],[-106.17245764999996,26.748623819241086],[-106.17043393999995,26.750125539241076],[-106.17970904999999,26.7630630592408],[-106.17762644999999,26.772336579240644],[-106.17010288999995,26.77521297924058],[-106.16437870999995,26.77504022924059],[-106.15779396999994,26.770974179240664],[-106.14923639999995,26.772617139240612],[-106.14446196999995,26.776546819240576],[-106.14277527999997,26.775123079240604],[-106.13347731999994,26.77905890924051],[-106.12526239999995,26.779410369240495],[-106.11429890999995,26.76514388924077],[-106.11031888999997,26.764423279240816],[-106.10496554999997,26.759364739240866],[-106.10064265999995,26.75933317924089],[-106.08418716999995,26.78643785924034],[-106.06504841999998,26.827633349239544],[-106.04733909,26.844875909239203],[-106.01532701999997,26.819727119239694],[-105.99553390999995,26.807530829239973],[-105.93919350999994,26.763215519240834],[-105.93757253999998,26.766675259240742],[-105.92810701999997,26.765931969240764],[-105.91397508999995,26.758195909240907],[-105.90860608999998,26.752837819240984],[-105.90693437,26.753085659241027],[-105.89833696999995,26.763853879240806],[-105.89410173999994,26.74100948924128],[-105.87454224999999,26.738575739241284],[-105.86543745999995,26.747375859241096],[-105.81455288999997,26.69096690924222],[-105.77580867999995,26.66093313924282],[-105.79426128999995,26.698767259242093],[-105.79141342999999,26.69800627924211],[-105.78776261999998,26.703797619241975],[-105.78130499999999,26.707454649241903],[-105.76966608999999,26.707234689241922],[-105.76150471999996,26.71288434924177],[-105.75467391999996,26.711164879241853],[-105.75001791999996,26.714055229241765],[-105.74634184999996,26.713868579241772],[-105.74442752,26.707341479241887],[-105.74561850999999,26.705945999241926],[-105.73950642999995,26.70147616924202],[-105.73818173999996,26.693625049242158],[-105.73507902999997,26.69207990924223],[-105.73496357999996,26.68481961924234],[-105.72890796999997,26.6978960592421],[-105.70479876899998,26.652907689242983],[-105.68988004999996,26.657188849242914],[-105.68270774999998,26.65053062924301],[-105.68034439999998,26.644984379243134],[-105.67843907999998,26.643888709243164],[-105.67537084999998,26.636963109243297],[-105.67659247999995,26.63580961924329],[-105.67094799999995,26.635226459243338],[-105.67488305999997,26.617670309243664],[-105.64553331999998,26.6166099692437],[-105.63720281999998,26.609141879243825],[-105.64044144999998,26.613557319243743],[-105.64089297999999,26.61999619924363],[-105.63251565999998,26.61968877924362],[-105.60936730999998,26.613732259243758],[-105.60101005999996,26.614848889243746],[-105.61948725999999,26.683509449242354],[-105.54900302999994,26.546578579245097],[-105.49608531999996,26.542851879245152],[-105.49497411999994,26.5357568792453],[-105.49722744999998,26.53063030924538],[-105.49542025999995,26.529120779245392],[-105.49657193999998,26.528755779245415],[-105.49562901999998,26.525631079245482],[-105.49174561999997,26.523512799245523],[-105.49021828999999,26.519265509245585],[-105.48244844999999,26.51685047924569],[-105.48087770999996,26.512889519245732],[-105.47151397999994,26.50870167924583],[-105.46793274999999,26.51105684924577],[-105.46862553999996,26.517323649245633],[-105.47438705999997,26.526379259245466],[-105.47014241999995,26.527898049245426],[-105.46759116999999,26.526051519245488],[-105.45912541999998,26.52960701924542],[-105.45589868999998,26.529719319245377],[-105.45310219999999,26.527062319245424],[-105.45073579999998,26.527183939245443],[-105.45024577,26.528580399245442],[-105.44693324999997,26.527212619245457],[-105.44441097999999,26.52907839924542],[-105.44254731999997,26.52732879924548],[-105.43860204999999,26.528344749245417],[-105.43056251999997,26.52382948924549],[-105.41649585,26.520581029245605],[-105.40730247999994,26.520464979245585],[-105.40342756999996,26.51752465924564],[-105.39886668999998,26.51883567924562],[-105.39680124999995,26.52180061924559],[-105.39335605999997,26.52317294924554],[-105.38872968999999,26.524063109245517],[-105.38492965999995,26.522832349245533],[-105.38587714,26.524663859245493],[-105.38198881999996,26.52918710924543],[-105.37283473999997,26.5296645992454],[-105.36862468,26.534269449245325],[-105.36541234999999,26.531452619245353],[-105.36252707999995,26.532024309245358],[-105.35629024999997,26.524723229245506],[-105.35574794999998,26.521846509245556],[-105.34802588999999,26.512489849245757],[-105.34953830999997,26.508720289245815],[-105.34854454999999,26.50550084924587],[-105.34270610999995,26.504515509245884],[-105.35095876999999,26.497899109246024],[-105.35452391999996,26.49261717924611],[-105.35716159999998,26.485618059246264],[-105.35276537,26.47887647924641],[-105.34461584999997,26.477381229246436],[-105.34203257999997,26.47947259924641],[-105.33875365999995,26.4780501792464],[-105.33824717999994,26.473871689246526],[-105.33398550999999,26.469359089246623],[-105.31675242999995,26.46228677924674],[-105.31548168999996,26.470347909246577],[-105.31280427999997,26.47145979924655],[-105.30863842999997,26.46968156924657],[-105.30510579999999,26.472617879246517],[-105.30192696999995,26.472445679246565],[-105.30224476999996,26.475605679246488],[-105.29845687999995,26.48201824924635],[-105.29163214999994,26.480889859246364],[-105.29218021999998,26.4844143392463],[-105.28993361999994,26.488111119246224],[-105.27908187999998,26.48747536924622],[-105.27508371999996,26.485600569246262],[-105.26946334999998,26.47976373924641],[-105.27064549,26.47541948924646],[-105.26883803,26.471438259246575],[-105.27060582999997,26.466455769246632],[-105.26468257999994,26.46207274924675],[-105.10154954999996,26.52140551924555],[-105.05663402999994,26.41930053924759],[-105.05257781999995,26.42976457924737],[-105.04897002999998,26.429659689247384],[-105.04645368999998,26.432641619247306],[-105.03733968999997,26.435756939247245],[-105.03258993999998,26.434377289247294],[-105.02935948,26.437718199247236],[-105.02706910999997,26.436942059247226],[-105.02390456999996,26.441736549247114],[-105.01639811999996,26.445359169247094],[-105.01502157999995,26.448282509247036],[-105.01275216999996,26.446199199247037],[-105.00977141999999,26.44862767924703],[-105.00557956999995,26.448475739247016],[-105.00038936999995,26.454950829246865],[-104.99995821999994,26.45386767924688],[-104.99231776999994,26.45653468924687],[-104.98730947999996,26.45217225924694],[-104.98104614999995,26.454352939246878],[-104.98012130999996,26.45099247924693],[-104.97374979999995,26.453039739246933],[-104.96616099999996,26.44830633924701],[-104.96534095,26.45038968924699],[-104.96310359999997,26.449184349247002],[-104.96072609,26.45398164924692],[-104.95754762999997,26.455807969246838],[-104.95844727999999,26.45936696924682],[-104.95623904999998,26.462844679246725],[-104.95986031999996,26.464989829246672],[-104.96539321999997,26.463035089246727],[-104.96959185999998,26.465952289246687],[-104.96321517999996,26.47339091924652],[-104.94437667999995,26.4683446892466],[-104.94388528999998,26.472987279246524],[-104.94181250999998,26.473464579246507],[-104.94078814999996,26.47632990924647],[-104.93893862999994,26.475967059246493],[-104.94031707999996,26.47939270924642],[-104.93672991999996,26.483711579246293],[-104.93225849,26.48751264924623],[-104.91825168999999,26.493843399246117],[-104.90855071999994,26.50549919924586],[-104.89890031999994,26.51001830924582],[-104.87584468999997,26.50554608924589],[-104.87363424999997,26.507960459245837],[-104.87046547999995,26.504172939245898],[-104.86054334999996,26.505767349245865],[-104.85893899999996,26.505294819245904],[-104.85896404999995,26.503332779245923],[-104.85658322999996,26.50286884924591],[-104.85502182999996,26.505101819245894],[-104.85210351999997,26.505635689245906],[-104.80927413999996,26.50849741924579],[-104.79461216999994,26.50386937924589],[-104.79122579999995,26.504561079245885],[-104.77691064999999,26.492595769246122],[-104.76095605999997,26.48581871924627],[-104.74784207999996,26.492447199246165],[-104.73921547999998,26.483024829246308],[-104.73656382999998,26.482122219246364],[-104.73788482999998,26.481051749246383],[-104.73717179999996,26.4793966292464],[-104.73122442999994,26.48004577924641],[-104.72703633999998,26.47796491924641],[-104.72175348999997,26.469274429246592],[-104.71182239999996,26.465062629246667],[-104.70968621999998,26.45588811924688],[-104.70462057999998,26.453139119246924],[-104.68660065999995,26.435567969247302],[-104.68687377999998,26.433190319247306],[-104.67729341999996,26.42933307924738],[-104.67785174999995,26.42797285924744],[-104.67390251999996,26.42318779924752],[-104.67411829099996,26.421139489247537],[-104.66877079999995,26.418563859247616],[-104.67198814999996,26.415469749247666],[-104.67020787999996,26.41208837924774],[-104.66223461999999,26.409338549247767],[-104.65407537999995,26.391053019248176],[-104.64531754999996,26.391612279248154],[-104.63476416999998,26.380748169248367],[-104.62682444999997,26.376887049248435],[-104.62775768999997,26.374388419248493],[-104.62613325999996,26.371554419248532],[-104.62008857999996,26.368842649248567],[-104.59385648999996,26.380439649248345],[-104.57445147999994,26.34046827924915],[-104.50097437999996,26.4147574292477],[-104.49622244999996,26.426390549247454],[-104.49540176999994,26.433418949247294],[-104.49696202999996,26.44356734924708],[-104.50143599999996,26.44958287924698],[-104.50282862999995,26.465845919246664],[-104.49589931999998,26.466859309246676],[-104.48411157,26.494655999246124],[-104.47897905999997,26.500431679246002],[-104.47290947999994,26.51155531924579],[-104.47147506,26.517559079245654],[-104.46855544999995,26.520341449245596],[-104.45546914999994,26.54924488924503],[-104.45090043,26.571588549244584],[-104.44467570999997,26.58326464924434],[-104.44005605999996,26.596586939244105],[-104.43477524999997,26.604520539243946],[-104.39528121999996,26.628882059243423],[-104.38563144999995,26.632295709243383],[-104.37542254,26.640716489243218],[-104.33038742999999,26.656532919242935],[-104.31047841999998,26.694331539242175],[-104.30578025999995,26.700674289242038],[-104.30679533999995,26.7071681692419],[-104.29692813999999,26.717918199241684],[-104.28654347999998,26.725402999241535],[-104.29032214999997,26.73619807924135],[-104.29975971999994,26.75194553924104],[-104.30432504999999,26.755418909240962],[-104.31150964999996,26.75629404924096],[-104.31727959999995,26.760736749240845],[-104.30176193999996,26.77194856924066],[-104.30323584999998,26.783808849240433],[-104.30682304999999,26.788759939240297],[-104.30531547999999,26.792891799240248],[-104.30952930999997,26.79351882924021],[-104.31530656999996,26.799069519240106],[-104.30914133999994,26.80522976923998],[-104.29355254999996,26.811307139239865],[-104.29153831999997,26.815767819239813],[-104.28616148999998,26.815204819239828],[-104.28750489,26.81673487923979],[-104.29488805999996,26.817751019239758],[-104.28884868999995,26.82049974923972],[-104.28361924999997,26.825314149239603],[-104.28086854999998,26.831030319239467],[-104.28188239999999,26.835643819239376],[-104.27304241999997,26.842279519239256],[-104.27110661999996,26.838869769239306],[-104.26746969,26.83803125923934],[-104.26139398,26.83038048923949],[-104.25120154999998,26.811547429239898],[-104.25139639999998,26.808996479239934],[-104.22767128,26.77930767924049],[-104.22780884999999,26.777153629240537],[-104.18393588999999,26.773571999240616],[-104.05693321999996,26.748158289241104],[-104.04573781999994,26.742976539241187],[-104.04160408999996,26.74963205924109],[-104.03319061999997,26.774391489240575],[-103.99499548999995,26.777540259240496],[-103.99388373999994,26.776362849240567],[-103.99383282999997,26.753610419240978],[-103.93257747999996,26.753994979241014],[-103.92775341999999,26.752729649241015],[-103.88118828999995,26.754918019240964],[-103.86129741999997,26.750420819241054],[-103.86129848999997,26.75409456924101],[-103.69909410999998,26.725256379241586],[-103.70164094999996,26.730783089241445],[-103.71524868999995,26.73507725924133],[-103.72487079999996,26.772106519240605],[-103.75061973999999,26.809905079239922],[-103.75396791999998,26.829573449239525],[-103.76194801999999,26.833401379239447],[-103.77960544999998,26.836126249239395],[-103.79005045999997,26.84555559923923],[-103.80447801999998,26.85500959923904],[-103.82253493999997,26.875374339238633],[-103.83141828999999,26.880532029238516],[-103.84215802999995,26.891450309238294],[-103.85170071,26.896133829238217],[-103.85194345999997,26.90523044923802],[-103.83591917999996,26.93581334923745],[-103.85208902999996,26.93461941923747],[-103.78462874999997,26.98069851923656],[-103.77994768999997,27.008886289236052],[-103.74578913999994,27.022699569235765],[-103.74083436999997,27.022521749235793],[-103.74431102999995,27.02669794923567],[-103.74536281999997,27.041417949235395],[-103.74847621999999,27.051814819235215],[-103.75246119999997,27.07791959923468],[-103.75627008,27.08210611923462],[-103.76305322999998,27.083912849234586],[-103.77379528999997,27.08961562923445],[-103.78347032,27.091205599234424],[-103.79939847999998,27.124729539233787],[-103.79842734,27.213475689232116],[-103.80939542999994,27.24920307923139],[-103.81976348999996,27.242956549231515],[-103.82655307999995,27.269443509231014],[-103.83059325999996,27.276847479230906],[-103.83212254999995,27.29829347923047],[-103.87687601999994,27.311592139230246],[-103.86365041999996,27.440920739227742],[-103.85850513999998,27.439891489227772],[-103.85460094999996,27.54943273922571],[-103.86883765999995,27.607136829224643],[-103.88355551999997,27.600771749224748],[-103.89726285999997,27.656548769223694],[-103.88324457999994,27.65759181922369],[-103.89553265999996,27.67402119922336],[-103.88950493999994,27.71321713922264],[-103.89669228999998,27.740557249222146],[-103.88114533999999,27.739185739222165],[-103.93564954999994,27.7975527392211],[-103.90084391999996,27.82685725922054],[-103.94390670999996,27.82687054922052],[-103.94723567999996,27.830490479220447],[-103.96000191999997,27.835309019220407],[-103.94578304999999,27.856388229219988],[-103.94564465999997,27.888861819219382],[-103.94333127999994,27.888843219219407],[-103.95497349,27.950820999218262],[-103.93564308999999,27.945342369218345],[-103.94186757999996,27.927796489218665],[-103.89288584999997,27.91402296921896],[-103.87771593999997,27.957490339218126],[-103.92669188999997,27.971356749217854],[-103.88948524999995,28.06037691921625],[-103.86094128999997,28.109021939215346],[-103.86749985999995,28.11213567921528],[-103.76817977999998,28.300372519211862],[-103.76287124999999,28.29819677921192],[-103.72833285999997,28.356491019210882],[-103.64301079999996,28.512461879208043],[-103.64335502999997,28.530634449207707],[-103.64794445999998,28.53298347920767],[-103.62456759999998,28.581146509206818],[-103.60100840099994,28.574907399206896],[-103.59191587999999,28.59083425920666],[-103.61604602999995,28.5981947192065],[-103.59637370999997,28.63947454920578],[-103.58200148999998,28.62879350920595],[-103.57265894999996,28.640639169205755],[-103.55729530999999,28.611280679206278],[-103.51976197999994,28.66874502920523],[-103.51451213999997,28.66499784920535],[-103.46325459999997,28.756614539203692],[-103.46634535,28.759457629203645],[-103.43166304999994,28.81318034920269],[-103.42355362999996,28.821289709202546],[-103.41001537999995,28.84092237920223],[-103.40458610999997,28.829551519202422],[-103.40026622,28.828573519202468],[-103.39634671999995,28.833528569202347],[-103.39422977999999,28.840117629202247],[-103.39491484999996,28.843847719202152],[-103.40409028999994,28.86636842920173],[-103.40365024999994,28.86925416920171],[-103.35770065999999,28.92025062920083],[-103.30770239999998,29.00227653919937],[-103.30696188999998,29.003925419199348],[-103.31059374999995,29.004541289199384],[-103.31598119999995,29.010847139199264],[-103.30873408999999,29.017748949199124],[-103.30688777999995,29.023778629199004],[-103.30935268999997,29.025709909198977],[-103.31462339999996,29.026045549198976],[-103.32636410999999,29.01622139919916],[-103.33647502999997,29.018173309199128],[-103.33998090999995,29.021764649199017],[-103.34221213999996,29.028005519198974],[-103.33498990999999,29.028132339198947],[-103.32910227999997,29.030780019198904],[-103.32739868999994,29.034128479198845],[-103.32748474999994,29.039895319198724],[-103.33057607999996,29.04315042919866],[-103.34169936999996,29.04455150919868],[-103.34508151999997,29.046802219198632],[-103.34863934999998,29.042800969198677],[-103.34812794999999,29.039272339198725],[-103.35114496999995,29.02805165919897],[-103.35579230999998,29.020929369199045],[-103.35960404999999,29.018786089199104],[-103.37687451999994,29.023902949199005],[-103.38374647999997,29.024148279199036],[-103.38632697999999,29.022092249199076],[-103.38778428999996,29.02426197919902],[-103.38802936999997,29.03206748919885],[-103.39092867999994,29.034643819198823],[-103.4016486,29.031286709198916],[-103.40353777999998,29.03289416919888],[-103.40499508,29.039506579198775],[-103.41447321999999,29.038046649198794],[-103.41741016999998,29.038953579198772],[-103.41858928999996,29.0430493091987],[-103.42819870999995,29.042035679198673],[-103.43281713999994,29.04363164919869],[-103.43374250999995,29.045492919198658],[-103.43000504999998,29.04871996919856],[-103.43470188999999,29.055252779198472],[-103.43442222999994,29.0573201691984],[-103.44590424999997,29.061203279198335],[-103.44989461999995,29.065217169198288],[-103.45001253999999,29.07266953919818],[-103.46079748999995,29.072434569198165],[-103.46149004999995,29.068229719198232],[-103.46359005999994,29.065911549198297],[-103.47169251999999,29.066792459198265],[-103.47405165999999,29.070845749198202],[-103.47069491999999,29.077860259198104],[-103.47070830999996,29.085124139197966],[-103.48585224999994,29.09567214919777],[-103.49434899999994,29.10847176919755],[-103.50249430999999,29.10697682919758],[-103.50471107999999,29.107926059197577],[-103.50493361999997,29.111453089197493],[-103.50132965999995,29.114682629197457],[-103.50182137999997,29.11790516919736],[-103.52485365999996,29.121334279197324],[-103.52361154999996,29.128757909197187],[-103.52477354999996,29.137272199197042],[-103.53916907999997,29.144755629196936],[-103.55020584999994,29.14385644919694],[-103.55269734999997,29.149225399196833],[-103.55042284999998,29.154459279196725],[-103.55407247999995,29.158516029196672],[-103.55917591999999,29.15533754919676],[-103.57292216999997,29.15364702919678],[-103.58501784999999,29.149669149196875],[-103.59350413999994,29.150309169196845],[-103.59918874,29.15481822919676],[-103.60067376999996,29.158231849196678],[-103.60588804999998,29.16015316919666],[-103.61221387999996,29.165298539196552],[-103.61865217999997,29.162827279196595],[-103.62786574999997,29.162785739196618],[-103.63361462999997,29.1584544291967],[-103.64013988999996,29.16089565919665],[-103.65014596999998,29.1566939491967],[-103.65159974999995,29.16172904919665],[-103.65684710999994,29.169408109196507],[-103.65922656999999,29.170590419196472],[-103.66469004999999,29.1707940891965],[-103.66988905999996,29.173588549196406],[-103.67907114999997,29.174666219196418],[-103.68848334999996,29.178185779196333],[-103.69833394999995,29.177607139196386],[-103.70365916999998,29.184872419196203],[-103.71330968099994,29.185071399196207],[-103.71554921999996,29.181372649196305],[-103.71827847999998,29.181147509196318],[-103.72429730999995,29.191177479196153],[-103.72868268999997,29.1936574191961],[-103.73004501999998,29.19794221919603],[-103.73977270999997,29.205404709195868],[-103.74330014999998,29.21532697919571],[-103.74080034999997,29.219453059195608],[-103.74264711999996,29.22229664919557],[-103.74885131999997,29.219953769195637],[-103.75587636999995,29.220044909195643],[-103.75736061999999,29.223575279195536],[-103.75427191999995,29.22773327919551],[-103.75817299999994,29.23297039919541],[-103.76038021999996,29.233457169195407],[-103.76812957,29.227588109195494],[-103.76775267999994,29.224536259195542],[-103.76957004999998,29.22126573919558],[-103.77626210999995,29.220725509195645],[-103.77730274,29.221933779195574],[-103.78181244999996,29.228149429195458],[-103.78147482999998,29.240523659195276],[-103.78059011999994,29.243475579195216],[-103.77597862999995,29.244974579195215],[-103.77555253999998,29.249566169195095],[-103.777062721,29.255941429195016],[-103.78332465999995,29.265518879194843],[-103.78860708999997,29.26546822919486],[-103.79649401999995,29.259736739194945],[-103.80077681999995,29.259299939194957],[-103.80636784999996,29.261454739194885],[-103.80912467999998,29.266965429194794],[-103.80762336999999,29.269902779194766],[-103.80837902999998,29.271608739194726],[-103.81403844999994,29.27451479919471],[-103.82671719999996,29.26977139919474],[-103.83623882999997,29.274079119194724],[-103.83790291999999,29.278429219194656],[-103.84439694999999,29.28000507919457],[-103.85586071999995,29.28195519919453],[-103.86341101999996,29.279799119194617],[-103.86632733999994,29.28222574919457],[-103.86954395,29.280697079194564],[-103.87940022,29.2855143091945],[-103.88516891999997,29.284182819194534],[-103.88536011999999,29.281569599194587],[-103.88947644999996,29.27941568919462],[-103.89953544999997,29.287732519194495],[-103.91358192099996,29.2844420191945],[-103.91799104999996,29.28494027919452],[-103.91860577999995,29.2903165091944],[-103.92573990999995,29.294324689194358],[-103.93832268999995,29.29298207919438],[-103.94370824999999,29.295346089194354],[-103.94858677999999,29.295130709194307],[-103.95236248999998,29.2974718891943],[-103.96802557999996,29.29988927919425],[-103.97045970999994,29.29684151919429],[-103.97619893999996,29.2967294591943],[-103.99158370999999,29.303922539194165],[-104.00163647999995,29.30553950919418],[-104.03789388999998,29.319905169193888],[-104.05443847999999,29.329979179193757],[-104.05635473999996,29.332073769193734],[-104.05593934999996,29.336880859193634],[-104.06743908999995,29.341640549193574],[-104.07292112,29.346189909193487],[-104.07740205999995,29.3444135391935],[-104.08307910999999,29.346582709193456],[-104.09126538,29.35346542919332],[-104.08934251999995,29.357226999193234],[-104.09108176999996,29.359631079193218],[-104.09814897999996,29.361578259193195],[-104.09848211999999,29.3662265091931],[-104.10781322999998,29.373574689192996],[-104.11251474999995,29.37367317919297],[-104.11951013999999,29.37072957919304],[-104.12199039999997,29.37276267919301],[-104.12210222,29.3788742791929],[-104.12421599999999,29.381198369192855],[-104.12940927999995,29.379849889192887],[-104.13392386,29.381668909192836],[-104.13611762999996,29.3848139691928],[-104.13798039899996,29.381735119192847],[-104.14299170999999,29.380578679192872],[-104.14450816999994,29.387761429192768],[-104.15055122999996,29.386955879192772],[-104.15338308999999,29.39325990919265],[-104.15611788999998,29.39396925919266],[-104.16230113999995,29.39165468919268],[-104.16792934999995,29.395514849192605],[-104.16861630999995,29.39768508919257],[-104.16645805999997,29.399901489192526],[-104.16778847999996,29.4028790891925],[-104.17408630999995,29.410014999192374],[-104.18035454999995,29.412847749192295],[-104.18221199999999,29.427218019192082],[-104.18841231999994,29.43040485919204],[-104.19340432099995,29.43526744919191],[-104.19550922999997,29.441400509191837],[-104.20981468999999,29.449254229191713],[-104.21750684999996,29.456118549191594],[-104.21742648999998,29.458613369191514],[-104.21332990999997,29.461560619191488],[-104.21086051999998,29.47660222919121],[-104.20881519999996,29.480674309191166],[-104.21288221999998,29.485088829191103],[-104.21454028999996,29.48565916919111],[-104.23075042999994,29.479118149191176],[-104.23391417999996,29.487129219191054],[-104.23337502,29.492857349190984],[-104.23682121999998,29.497145569190888],[-104.24276656999996,29.498925449190864],[-104.25406356999997,29.50649727919076],[-104.26030651999999,29.50666974919075],[-104.26231724999998,29.509770539190665],[-104.26111794999998,29.511729119190633],[-104.26364445999997,29.514158429190605],[-104.29206185999999,29.51976674919049],[-104.29512908,29.523875059190416],[-104.31109364999999,29.523633379190432],[-104.31107167999994,29.52861973919039],[-104.31340837999996,29.53175854919032],[-104.31854433999997,29.531744939190325],[-104.32118676999994,29.52873761919038],[-104.32042642999996,29.525299939190393],[-104.32177745999996,29.522278579190445],[-104.32617393999999,29.52348299919045],[-104.33538325999996,29.519795689190474],[-104.33803237099994,29.520897739190506],[-104.33980930999998,29.52722853919039],[-104.35313699999995,29.52866917919037],[-104.35385622999996,29.53221242919032],[-104.35235717999996,29.536765779190226],[-104.35615364999995,29.541194749190133],[-104.35858993999996,29.54039397919014],[-104.35810624999999,29.538400259190198],[-104.36022348999995,29.535862689190232],[-104.36825022999996,29.5389077991902],[-104.36928668999997,29.542000949190122],[-104.37334910999999,29.544145889190094],[-104.38001665999998,29.54183036919016],[-104.38492331999998,29.542991459190116],[-104.38583070999994,29.54446339919009],[-104.38356207999999,29.54968350919003],[-104.38421045999998,29.55386221918992],[-104.39321491,29.553509709189957],[-104.39408893999996,29.560390089189823],[-104.39752079999995,29.56745530918973],[-104.39647987999997,29.570005689189685],[-104.39898176999999,29.57300448918963],[-104.45247628,29.60465967918909],[-104.45634961999997,29.608461149189004],[-104.46666274999997,29.609695969189016],[-104.46557581999998,29.61831401918888],[-104.47400370999998,29.618644419188854],[-104.47635074999995,29.628329719188695],[-104.48585657999996,29.628694479188656],[-104.48743834,29.633802909188574],[-104.49478979999999,29.634049949188615],[-104.49689268099996,29.63611911918855],[-104.49675194999998,29.639365649188502],[-104.49807445999994,29.639609459188467],[-104.50347709099998,29.63726782918852],[-104.50617554999998,29.637731199188543],[-104.50548241999998,29.634541109188575],[-104.50833439999997,29.632651279188615],[-104.51586035099996,29.64100754918845],[-104.50999008999999,29.644483659188396],[-104.51225601999994,29.646621289188364],[-104.51722011999999,29.64736442918835],[-104.51826670999999,29.648951479188334],[-104.51659525999999,29.65240353918825],[-104.52499404999998,29.659573709188177],[-104.52616991999999,29.667978309187987],[-104.52864867999995,29.668091029187995],[-104.53092365999998,29.67076908918798],[-104.53356648999994,29.669257369187974],[-104.53347407999998,29.666695379188067],[-104.53617487999998,29.667252179188022],[-104.53564966,29.673489479187932],[-104.53878261999995,29.677685939187867],[-104.54415994999994,29.6807042191878],[-104.54251825999997,29.68432084918775],[-104.53288821999998,29.6868066591877],[-104.53084319999999,29.69049830918765],[-104.54307222999995,29.696000949187532],[-104.54573197999997,29.699121079187492],[-104.54359729,29.703989659187418],[-104.54636484999997,29.70887207918732],[-104.54443633999995,29.711363369187303],[-104.54733964999997,29.714527679187245],[-104.54497264999998,29.716530249187212],[-104.55236582999999,29.717338089187205],[-104.54952407999998,29.720004649187175],[-104.55248128999996,29.72314470918708],[-104.54944534899994,29.727224349186997],[-104.54950330999998,29.73103293918693],[-104.55633228999994,29.731870629186943],[-104.55597853999996,29.7351667191869],[-104.56043802999996,29.736078799186856],[-104.55941588999998,29.737948339186854],[-104.55059547999998,29.739062049186813],[-104.54971497999998,29.741400139186794],[-104.55533381999999,29.74234597918675],[-104.55762230999994,29.74575236918671],[-104.56970988999996,29.752467379186584],[-104.56968062999995,29.756703169186505],[-104.56733542999997,29.756710369186546],[-104.56595997999995,29.75860470918649],[-104.56678625999997,29.759862909186467],[-104.56394106,29.761514849186426],[-104.56576441999994,29.761812549186434],[-104.56598188999999,29.764696739186377],[-104.56833711999997,29.766288849186335],[-104.56534653999995,29.77013491918629],[-104.57072027999999,29.778348369186187],[-104.57419908999998,29.779774219186134],[-104.57483685999995,29.781981539186123],[-104.57872784999995,29.782589619186112],[-104.57802345999994,29.78727804918603],[-104.58229879999999,29.79226859918596],[-104.58127136999997,29.79459499918593],[-104.58979691999997,29.7960607991859],[-104.59056130999994,29.799062429185827],[-104.58708868999999,29.800130349185842],[-104.58601033999997,29.8020355391858],[-104.59115361999994,29.809458419185653],[-104.59207087999995,29.810406709185642],[-104.59380690999996,29.809155199185692],[-104.59180661999996,29.808136229185692],[-104.59381630999998,29.805061399185735],[-104.59866096999998,29.81007385918564],[-104.60096019999997,29.81585539918552],[-104.60319479999998,29.817193429185508],[-104.60606496999999,29.81643356918556],[-104.60756062999998,29.819473939185464],[-104.60998676999999,29.818968549185524],[-104.60857771999999,29.82782827918535],[-104.61199450999999,29.827185709185354],[-104.62035894999997,29.83096219918529],[-104.62004794999996,29.833069509185226],[-104.61309565999994,29.834171909185258],[-104.60940333999997,29.839437419185135],[-104.61565935,29.846434719185044],[-104.6195264,29.843749219185092],[-104.61903392,29.8422179791851],[-104.62193421999997,29.843385599185073],[-104.62105137999998,29.8421066191851],[-104.62371485999995,29.842437599185086],[-104.62481171999998,29.843683709185086],[-104.62180351999996,29.846284909185048],[-104.62164050999996,29.84956204918496],[-104.62733801999997,29.851031169184964],[-104.62993854999996,29.853552649184905],[-104.62981362999994,29.86219193918479],[-104.63293445999996,29.870007429184646],[-104.63784737999998,29.874239349184553],[-104.64088184999997,29.873495179184616],[-104.64326811999997,29.8774373391845],[-104.64580076999994,29.87829117918454],[-104.64634976999999,29.883607489184403],[-104.65217828999995,29.88824588918436],[-104.65070999999995,29.891344939184318],[-104.65291853999997,29.892189339184295],[-104.65561755,29.889365739184335],[-104.65802561999999,29.890465629184316],[-104.65887437999999,29.90089184918414],[-104.65517697999996,29.902794629184136],[-104.65565867999999,29.905996549184053],[-104.66241899999994,29.905229939184043],[-104.66254419999996,29.901319179184107],[-104.66553122999994,29.901611709184127],[-104.66563119999995,29.909417849184017],[-104.67031128999997,29.91195453918397],[-104.67444459999996,29.910882089183946],[-104.67694872,29.91307488918396],[-104.67637322999998,29.916036889183882],[-104.67992139999997,29.921359879183818],[-104.67869157999996,29.926554649183736],[-104.68294990999999,29.929174549183646],[-104.68315868999998,29.93171494918365],[-104.68038122999997,29.930485909183673],[-104.67924172,29.932411859183617],[-104.68274348999996,29.935312309183548],[-104.68191967999996,29.94015521918351],[-104.67979171999997,29.938339629183503],[-104.67814205999997,29.93922964918353],[-104.67853264999997,29.944239849183408],[-104.68044245999994,29.9468310591834],[-104.67724561999997,29.950422219183334],[-104.67829505999998,29.95171804918331],[-104.67416445999999,29.95130896918333],[-104.67347554999999,29.95601099918323],[-104.67979525999999,29.95593108918321],[-104.68092507999995,29.957485769183204],[-104.68500557999995,29.956601049183252],[-104.68205274099996,29.96929425918298],[-104.68555911,29.971042259182983],[-104.68011982999997,29.974605029182946],[-104.68102965999998,29.977593819182854],[-104.68849561999997,29.973776689182962],[-104.69348702999997,29.975833379182895],[-104.68844901999995,29.98080842918279],[-104.68561310999996,29.990256479182648],[-104.69492714999996,29.99255762918266],[-104.69370701999998,29.994177799182594],[-104.68787016999995,29.99463567918258],[-104.68719054999998,29.9961393491826],[-104.69042668999998,30.00080682918249],[-104.6898882,30.002875399182464],[-104.69250654999996,30.00167524918249],[-104.69404657999996,30.00277897918248],[-104.69351034999994,30.007620939182353],[-104.68946224999996,30.01098419918233],[-104.68984331999997,30.01495599918224],[-104.69349245999996,30.0191139391822],[-104.70329928999996,30.022656769182102],[-104.70394942999998,30.02481861918211],[-104.70077182999995,30.035749579181946],[-104.69720747999999,30.037209019181883],[-104.69569404999999,30.03629331918188],[-104.69510102,30.037821369181902],[-104.70659307999995,30.050576089181668],[-104.70397645999998,30.054949399181613],[-104.70465488999997,30.058262849181553],[-104.70219742999996,30.059604139181506],[-104.70371465999995,30.064303719181456],[-104.69728464999997,30.065083419181438],[-104.69382949,30.069339489181377],[-104.69085805999998,30.070492849181356],[-104.69342751999996,30.073570249181287],[-104.68829336999994,30.0736201391813],[-104.68680927999999,30.076558779181227],[-104.68997010999999,30.075428939181272],[-104.69070136999994,30.077590779181214],[-104.68632656999996,30.08170614918117],[-104.68508607999998,30.085396739181135],[-104.68757382999998,30.087346149181048],[-104.68827491999998,30.08520701918111],[-104.68995305999995,30.088613999181064],[-104.68649548999998,30.091083659181006],[-104.68498777999999,30.099263399180863],[-104.68642039999997,30.099356659180895],[-104.68901210999996,30.095242289180938],[-104.69222917999998,30.096204089180947],[-104.69247528999995,30.099846879180845],[-104.69431474999999,30.101679029180858],[-104.69107650999997,30.108614179180748],[-104.69018265999995,30.106240909180762],[-104.68726290999997,30.105678429180784],[-104.68553528999996,30.108969719180738],[-104.68607725,30.11080264918068],[-104.69143001999998,30.111316779180665],[-104.69051570999994,30.117592509180593],[-104.69397544999998,30.11681493918058],[-104.69535541999994,30.11834179918057],[-104.69370868999994,30.12132761918052],[-104.69568539999996,30.125180879180473],[-104.69645023,30.134675459180276],[-104.69258456999995,30.13578234918029],[-104.69112678,30.138791509180212],[-104.68944938,30.137570309180248],[-104.68955324999997,30.14084771918021],[-104.68645086,30.141520339180186],[-104.68537119999996,30.14427068918013],[-104.68850861999994,30.145115139180103],[-104.68813170999994,30.14737157918007],[-104.68989085999999,30.149227319180103],[-104.68667484999997,30.15207284917999],[-104.68938107999999,30.154586169179993],[-104.68730262999999,30.159969349179892],[-104.68809159999996,30.16624408917981],[-104.68625719999994,30.172919749179684],[-104.68734436999995,30.180016909179574],[-104.69140537,30.18433913917952],[-104.69308616999996,30.18885064917942],[-104.69679465999997,30.19145722917935],[-104.69639322999996,30.19676899917931],[-104.69942511999994,30.198717859179247],[-104.70016065,30.204522479179147],[-104.70476348999995,30.207856849179098],[-104.70260325,30.212864249179027],[-104.71102896999997,30.223199569178885],[-104.70791948,30.22609250917881],[-104.70619482999997,30.234131429178674],[-104.71377764999994,30.238497569178598],[-104.71873921999997,30.246390619178484],[-104.72445591999997,30.25056345917839],[-104.72403439999995,30.2528666791784],[-104.73332776999996,30.261122939178247],[-104.73714434999995,30.261484379178256],[-104.73698113999997,30.255942219178337],[-104.74024491999995,30.259358889178277],[-104.75024014999997,30.261692719178225],[-104.75190170999997,30.26384702917824],[-104.74902897999999,30.268156149178115],[-104.74808607999996,30.274195779178058],[-104.75102176999998,30.27155396917809],[-104.75160142999995,30.273759449178044],[-104.75456801999997,30.271868999178054],[-104.75755653999995,30.27418245917806],[-104.75775844999998,30.27141027917808],[-104.76063124999996,30.27229144917807],[-104.75993827999997,30.27429051917805],[-104.76318687999998,30.274582999178048],[-104.76014479999998,30.277530829177987],[-104.75808829,30.282682429177918],[-104.76143262999994,30.30101205917761],[-104.76691416999995,30.30366771917758],[-104.76533028999997,30.306116619177537],[-104.77281067999998,30.30291596917759],[-104.77903816999998,30.303313429177567],[-104.77707317999995,30.310273379177467],[-104.78330544999996,30.31635430917737],[-104.78804916999997,30.31750901917732],[-104.79180448999996,30.325830979177194],[-104.79757041999994,30.330503999177157],[-104.80662771999995,30.333025429177106],[-104.81128244999998,30.33265305917708],[-104.80997754999999,30.341090259176948],[-104.82213337999997,30.349938489176807],[-104.82154874999998,30.351819969176788],[-104.81473254999997,30.353188539176795],[-104.81382214999998,30.35960421917666],[-104.81109876999994,30.361659319176635],[-104.81153419999998,30.36668347917656],[-104.81651397999997,30.366051179176562],[-104.81936907999994,30.36796454917653],[-104.81656711999995,30.375116599176426],[-104.83061239999995,30.373011229176424],[-104.83728077999996,30.373873689176406],[-104.85916217,30.39040105917616],[-104.85429414999999,30.400405399176027],[-104.85740521999998,30.40828221917587],[-104.85112641999996,30.413830629175788],[-104.84795655,30.413915719175765],[-104.84893185999995,30.4182561391757],[-104.84783582999997,30.42068024917566],[-104.84935901999997,30.421589179175697],[-104.84996784999998,30.41926125917569],[-104.85218797999994,30.418945659175744],[-104.85675899999997,30.421883649175655],[-104.85748245999997,30.424886459175603],[-104.86147604999996,30.426441289175614],[-104.85801885999996,30.43261084917549],[-104.85829264999995,30.43735371917539],[-104.86031502999998,30.439998149175388],[-104.86824251999998,30.442027459175364],[-104.86536405999999,30.44544656917529],[-104.86447087999996,30.449913119175246],[-104.86980694999995,30.45773207917507],[-104.86594033999997,30.467802399174914],[-104.86955897099995,30.474008949174813],[-104.86950867999998,30.478847279174726],[-104.87184822999996,30.480033879174748],[-104.86924777999997,30.484672979174636],[-104.86708390999996,30.48552874917467],[-104.86648744999997,30.494033429174504],[-104.87389991899995,30.495407249174466],[-104.87199836999997,30.501675459174393],[-104.87340287999997,30.50371637917436],[-104.87188467999994,30.510357169174267],[-104.87329431999996,30.513597229174216],[-104.87659784999994,30.510652859174247],[-104.87943645999997,30.51532142917414],[-104.87913446,30.517449089174157],[-104.88263716999997,30.51633145917416],[-104.88568427999996,30.518076139174138],[-104.88484865,30.519847369174084],[-104.88138645999999,30.520140479174103],[-104.88155041999995,30.52180404917409],[-104.88580079999997,30.524256599174024],[-104.88370624999999,30.525839399174007],[-104.881390179,30.52350316917401],[-104.88029208999997,30.529846259173947],[-104.88190445,30.53223213917392],[-104.88918499999996,30.534971919173834],[-104.89078686,30.539874339173767],[-104.88753289,30.5438283791737],[-104.88764445999999,30.54662265917365],[-104.88999597999998,30.545829829173673],[-104.88967604999999,30.54868717917364],[-104.89393508999996,30.550739419173624],[-104.89247408999996,30.550864279173595],[-104.89263594999994,30.55248087917361],[-104.89774325999997,30.55410167917353],[-104.89516141999998,30.56010031917346],[-104.89915781999997,30.570510449173263],[-104.90650408999994,30.576680309173177],[-104.90976945999996,30.584930369173073],[-104.91699535,30.58484882917307],[-104.91981513999997,30.586883489173026],[-104.92110619999994,30.589327969172988],[-104.91853634999995,30.59664351917287],[-104.92147234,30.59773314917287],[-104.92236057999999,30.603532019172768],[-104.92697917999999,30.60455861917273],[-104.93050633999997,30.598453419172866],[-104.93449361999996,30.599903169172833],[-104.93570233999998,30.606113249172754],[-104.94421453999996,30.602924879172757],[-104.95146191099997,30.604322219172744],[-104.95468322999994,30.608904369172684],[-104.95891314,30.610297229172673],[-104.96558934999997,30.607905619172705],[-104.97167664999996,30.610004059172674],[-104.97516673999998,30.613964149172624],[-104.97437807999995,30.616110479172544],[-104.98000950999996,30.62154164917247],[-104.98081445999998,30.62508576917244],[-104.97917396999998,30.627593549172364],[-104.98218293999999,30.63009010917234],[-104.98418061999998,30.635164709172237],[-104.98539367999997,30.661763309171818],[-104.99337067999996,30.665106279171773],[-104.99202642999997,30.668096819171765],[-104.99485856999996,30.670294119171707],[-104.99931548999997,30.67073650917169],[-105.00141418,30.672613599171658],[-105.00218719999998,30.680707379171558],[-105.00690285999998,30.685779689171483],[-105.01360705999997,30.682218429171513],[-105.01858523,30.6846900191715],[-105.02121471999999,30.68134107917152],[-105.02585577999999,30.68120459917155],[-105.02724459999997,30.67885097917158],[-105.03182587999999,30.680759909171552],[-105.03641422999999,30.686907689171452],[-105.03954454999996,30.688529399171415],[-105.04279756999995,30.687190289171433],[-105.04711685999996,30.688166719171388],[-105.04473822999995,30.6835463191715],[-105.04689916999996,30.679866579171577],[-105.04877345999995,30.68231807917154],[-105.05462198,30.68205445917155],[-105.05443965999997,30.684305679171516],[-105.05725411999998,30.687747399171414],[-105.06193670999994,30.68582211917149],[-105.06335991999998,30.687708549171397],[-105.06160268999997,30.69463534917133],[-105.06269416999999,30.6981765991713],[-105.06565382999999,30.69832888917125],[-105.06889604999998,30.703487739171216],[-105.06956951999996,30.702015309171188],[-105.07594636999995,30.701612999171232],[-105.07826527999998,30.69958925917124],[-105.08258344999996,30.70138856917123],[-105.07934730999996,30.704071739171187],[-105.08058154999999,30.707926249171138],[-105.08746871999995,30.710022019171095],[-105.08778245999999,30.715383369170993],[-105.09177881999994,30.71711873917096],[-105.09846814999999,30.716542909170975],[-105.10050953999996,30.722157399170918],[-105.10561207999997,30.723666339170897],[-105.10355834999996,30.725798319170817],[-105.10343277999999,30.728829479170795],[-105.10673774999998,30.731918259170733],[-105.10875311999996,30.729949089170773],[-105.11203264999996,30.733413179170732],[-105.10984848999999,30.739447419170617],[-105.11204867999999,30.740360369170627],[-105.11113713999998,30.743327829170575],[-105.11410257999997,30.74581036917054],[-105.11700837999996,30.74277981917059],[-105.12083863,30.744176079170547],[-105.11858776999998,30.749594799170488],[-105.12673834999998,30.747608479170495],[-105.12980554999997,30.75044661917044],[-105.14071051999997,30.75226662917043],[-105.14279696999996,30.754625219170368],[-105.15162217999995,30.751241449170447],[-105.15567908999998,30.753391429170424],[-105.16168874,30.75241707917042],[-105.15623717999995,30.76944502917014],[-105.16358271999998,30.771176939170097],[-105.16591493999994,30.77953887917002],[-105.16856711999998,30.77876796917],[-105.17014514999994,30.772785179170075],[-105.17554988999996,30.76757962917018],[-105.18233971999996,30.77610711917006],[-105.18497753999998,30.777263029170005],[-105.18452410999998,30.781454119169943],[-105.18600653999994,30.784494719169928],[-105.19135344999997,30.786479829169913],[-105.19555954999998,30.7922541991698],[-105.19930464999999,30.788114539169847],[-105.20656641999994,30.786079549169912],[-105.20855917999997,30.782674089169955],[-105.21154187999998,30.78182050916995],[-105.216820371,30.783543449169898],[-105.22005350999996,30.78864634916988],[-105.21739468999999,30.793414349169765],[-105.21503299999996,30.79271599916978],[-105.21146927999996,30.79430044916976],[-105.21071096999998,30.798621369169688],[-105.21555248,30.80589947916958],[-105.21781682999996,30.8058184591696],[-105.22739931999996,30.79926039916967],[-105.22957744999998,30.803689459169604],[-105.23756517999999,30.8035130191696],[-105.24396877899994,30.800104479169693],[-105.24802468999997,30.80013567916966],[-105.25636494999998,30.794423289169774],[-105.26491570999998,30.80164704916965],[-105.26740896999996,30.808578679169525],[-105.27167550999997,30.80932202916952],[-105.27581337999999,30.807122179169593],[-105.27994797999999,30.81615841916945],[-105.28321856999997,30.8183460491694],[-105.28906485099998,30.81909924916941],[-105.29116159999995,30.82582784916926],[-105.30097657999994,30.823950749169306],[-105.30100407999998,30.818333649169393],[-105.30615910999997,30.80975236916954],[-105.30886730999998,30.81062610916951],[-105.30820047999998,30.814833179169433],[-105.30975997999998,30.816934679169385],[-105.31154139999995,30.81276791916948],[-105.31650764999996,30.810878829169475],[-105.31889981999997,30.813221859169474],[-105.31635167999998,30.818606859169392],[-105.31889457999995,30.822906349169312],[-105.31863361999997,30.82830342916925],[-105.32393355,30.828541659169222],[-105.32743770999997,30.824789419169292],[-105.32958232099998,30.825501349169244],[-105.32816971999996,30.831068489169205],[-105.33709949099996,30.833645109169183],[-105.33910391099995,30.84025641916906],[-105.34583967899994,30.84054368916905],[-105.35194182999999,30.835578489169116],[-105.35422412099996,30.837365619169116],[-105.35354087999997,30.842268319169026],[-105.35950402999998,30.846166649168946],[-105.36185944999995,30.850608119168896],[-105.36901711999997,30.84738350916892],[-105.37596214999998,30.84832305916892],[-105.38336699999996,30.85209684916886],[-105.38526436999996,30.850765249168884],[-105.38768774,30.853677089168865],[-105.39623524999996,30.850492969168904],[-105.40118645999998,30.853187999168856],[-105.39983962999999,30.857658059168784],[-105.39499448,30.85879197916875],[-105.39605474999998,30.86459921916867],[-105.39395257999996,30.867392429168618],[-105.39520845,30.871409339168576],[-105.39166277999999,30.874232179168505],[-105.39445649,30.87671322916849],[-105.40031299999998,30.87663968916847],[-105.40447090899994,30.88015008916841],[-105.39943727999997,30.884343599168382],[-105.40009525999996,30.889383429168287],[-105.40412382999995,30.89214436916824],[-105.41237191,30.8888713791683],[-105.41085417999994,30.892099349168205],[-105.41376125000001,30.898596849168147],[-105.41620697999997,30.9002854791681],[-105.42538136999998,30.900870659168124],[-105.43028589000001,30.905657429168052],[-105.44156637999998,30.908406949167965],[-105.44498101999996,30.913482889167934],[-105.44504354999998,30.917618309167814],[-105.44713745999996,30.91936074916783],[-105.45318023,30.916154889167846],[-105.45462450999999,30.919015549167817],[-105.45199384999995,30.9204575691678],[-105.45186062999994,30.924409059167772],[-105.46498576999996,30.92577808916772],[-105.46719318,30.92479131916773],[-105.46784231,30.92938442916764],[-105.47119501999998,30.931264429167637],[-105.47110068899998,30.933687349167617],[-105.47643574999995,30.934326549167565],[-105.47871165099997,30.938579579167538],[-105.48248714,30.940920399167464],[-105.48636867999994,30.942201149167484],[-105.48954983,30.9409347691675],[-105.49152523,30.942302949167477],[-105.49188742999996,30.94351744916745],[-105.48847151999998,30.943261119167452],[-105.48987716999994,30.945675629167397],[-105.49390306,30.949115489167365],[-105.49929622999998,30.95078670916733],[-105.49726595,30.955084309167283],[-105.49434411999994,30.955898779167246],[-105.49458302,30.95756247916721],[-105.50284879999998,30.96800981916709],[-105.51633053999997,30.965464369167105],[-105.51793714999997,30.97100030916705],[-105.52215276999999,30.976198019166922],[-105.52773962999999,30.978827549166912],[-105.53295613999997,30.984637919166826],[-105.53809487999997,30.985913459166785],[-105.54321791999998,30.98479171916679],[-105.557586051,30.990049629166712],[-105.57039514999997,31.008699449166436],[-105.56866182999995,31.014532679166344],[-105.56966716999995,31.01700441916629],[-105.57893771999994,31.021243599166237],[-105.58123377999999,31.02741699916617],[-105.57987834999994,31.035729139166033],[-105.58501796999997,31.05589657916569],[-105.58844430999994,31.06024154916566],[-105.59563773999997,31.064660519165596],[-105.59884602999995,31.07530116916541],[-105.60414224999994,31.083268059165267],[-105.62704019999997,31.098200429165086],[-105.64233101999997,31.098497549165053],[-105.64828284999999,31.115390539164817],[-105.70932351,31.13628985916446],[-105.71705271999997,31.141204719164428],[-105.71824525999995,31.147240079164348],[-105.72035344999996,31.149752749164293],[-105.74189888999996,31.164707739164044],[-105.76333237999997,31.164273449164053],[-105.77257748999995,31.16620817916403],[-105.78035350999996,31.182984369163776],[-105.77974381999996,31.19100902916362],[-105.78327493999996,31.198151029163558],[-105.79488870999995,31.203073889163456],[-105.81781446099995,31.23016979916305],[-105.83613016999999,31.24724207916277],[-105.85113339999998,31.265871109162475],[-105.85338097999995,31.27214493916239],[-105.85899265999996,31.276349319162367],[-105.87033130999998,31.289715829162123],[-105.87613431999995,31.291757289162145],[-105.89329015,31.290383659162107],[-105.89665885999996,31.292966339162135],[-105.90294137999996,31.306098319161883],[-105.90773882999997,31.31236910916183],[-105.93171557999996,31.312817619161777],[-105.93782773999999,31.3182399091617],[-105.94785639999998,31.3405069991614],[-105.94527510999997,31.352095289161234],[-105.95351087999997,31.364094339161024],[-105.97145273999996,31.366610049161007],[-106.00478205999998,31.392655019160603],[-106.08019656999994,31.39860277916048],[-106.10831637999996,31.42262581916015],[-106.13241814999999,31.425183059160094],[-106.15855504999996,31.43849971915991],[-106.17458008999995,31.45524285915966],[-106.20136204999996,31.462927369159537],[-106.20813085999998,31.46758190915945],[-106.21959713999998,31.481547519159243],[-106.22384368999997,31.500111979158966],[-106.23634184999999,31.513188549158784],[-106.24718882999998,31.542805829158368],[-106.28040642999997,31.56229199915808],[-106.28851944999997,31.58722905915766],[-106.30251331799998,31.610818579157357],[-106.30316610999995,31.622314679157157],[-106.33397382999999,31.66282579915658],[-106.34941441899997,31.696398020156078],[-106.37206813999995,31.7125965791558],[-106.37795174899999,31.728440629155635],[-106.38126845999994,31.732335049155576],[-106.41679970899999,31.751556599155286],[-106.43640967999994,31.755644629155206],[-106.45205101999994,31.764623229155067],[-106.46631261999995,31.759885819155166],[-106.47319585999999,31.750479119155308],[-106.48754550899999,31.74771685915529],[-106.50653282999998,31.760909629155137],[-106.50998781999999,31.761486169155134],[-106.51266716699998,31.76941165015499],[-106.52250037999995,31.77515356915492],[-106.52840836999997,31.78162801915481],[-106.52852327999994,31.783817449154807]]]}}]}
