{"type":"FeatureCollection","features":[{"type":"Feature","properties":{"cve_ent":"09","cvegeo":"09","nombre_inegi":"Ciudad de México","nombre_catalogo":"Ciudad de México"},"geometry":{"type":"Polygon","coordinates":[[[-99.11571862999995,19.556660260404236],[-99.10809721999999,19.564888490404005],[-99.11181804999995,19.56872692040394],[-99.11466171999997,19.57979630940366],[-99.11859756999998,19.584461719403507],[-99.11788785,19.59059230940335],[-99.12370608999998,19.59275727940333],[-99.12699259999995,19.5885076894034],[-99.13376084999999,19.586243629403494],[-99.13790437999997,19.581134709403624],[-99.13956813999994,19.57539504940376],[-99.14476044999998,19.57082736940389],[-99.14599554999995,19.56590128940401],[-99.14918591999998,19.562012849404073],[-99.15090062899998,19.56052034940413],[-99.15423821899998,19.561376060404093],[-99.15809551899999,19.55735133940419],[-99.15756896999994,19.555047399404256],[-99.16089999999997,19.54926087940445],[-99.15108488999994,19.544845709404548],[-99.15851347999995,19.533921029404805],[-99.15584724999997,19.532440479404848],[-99.15859872,19.528857859404965],[-99.15679811999998,19.52809076940498],[-99.15915864999994,19.526903349405],[-99.17601145999998,19.53203604940486],[-99.17704573999998,19.529328479404942],[-99.17536094999997,19.530094619404906],[-99.17136727999997,19.52718851940497],[-99.17418228999998,19.52346561940505],[-99.16297519999995,19.51796148940523],[-99.15718110999995,19.50284888940562],[-99.17304284999994,19.50858670940544],[-99.17705041999994,19.506194909405504],[-99.18229079999999,19.50746979940547],[-99.20467164999998,19.515135969405314],[-99.20925753999995,19.512409019405364],[-99.22111506,19.475068479406335],[-99.20682496999996,19.471215079406406],[-99.20717364999997,19.469568119406482],[-99.20886264999996,19.47008231940647],[-99.21153665999998,19.467993349406477],[-99.21528511999998,19.456223859406776],[-99.21997277999998,19.452880139406883],[-99.22014871999994,19.44611634940708],[-99.21813294999998,19.444111830407106],[-99.229627479,19.437374663407294],[-99.22617134899997,19.43396534040735],[-99.22681802899996,19.431338249407457],[-99.22337833999997,19.429505059407482],[-99.22227442899998,19.427022969407552],[-99.22546287999995,19.42658732040757],[-99.23084345899998,19.42170688940769],[-99.23730471,19.412359619407955],[-99.24831196999997,19.408648579408005],[-99.25603810899997,19.403561489408183],[-99.25697934999994,19.400431690408233],[-99.25813004999998,19.404763480408107],[-99.26171793299994,19.39598893540833],[-99.28283047999999,19.381404000408747],[-99.28569702999994,19.376439109408835],[-99.29061393999996,19.375022539408874],[-99.29388936999999,19.37014724940902],[-99.29791713899999,19.36932494940905],[-99.29901978,19.367515259409103],[-99.30123156999997,19.369700449409006],[-99.30130904999999,19.377083829408843],[-99.30348342999999,19.37783002940881],[-99.30776485899997,19.371561169408988],[-99.31308764999994,19.370448739408975],[-99.31538974999997,19.365888349409108],[-99.31760762999994,19.36572951940913],[-99.32069894999995,19.360443799409243],[-99.31813401899997,19.35815641940932],[-99.32328581899998,19.35833765940934],[-99.32639199899995,19.35367163040943],[-99.32848441999995,19.35309237940947],[-99.32827225999996,19.345202429409618],[-99.33384207999995,19.330590399410042],[-99.35660784999999,19.306675799410637],[-99.35627424999996,19.30201451941077],[-99.34998526,19.29683717941091],[-99.35349777999994,19.29740184941086],[-99.35149208999997,19.29415237941098],[-99.35453602999996,19.29328801941096],[-99.35358134999996,19.291934309411012],[-99.36492419999996,19.2777692494114],[-99.36192190999998,19.275741859411422],[-99.34821370999998,19.2739609494115],[-99.3446866,19.269475229411622],[-99.33915988999996,19.26769714941165],[-99.33762984999998,19.264039969411748],[-99.33985722999995,19.259652909411862],[-99.34234096999995,19.24112239941233],[-99.33082147999995,19.237935289412416],[-99.3267196,19.23256556941258],[-99.32129650999997,19.23266547941254],[-99.31534334999998,19.229196489412637],[-99.31624974999994,19.22150167941286],[-99.30713554,19.21372845941302],[-99.30276264999999,19.19085508941365],[-99.28760524999996,19.146600569414762],[-99.27869521899999,19.131701722415155],[-99.22677777999996,19.096060003416067],[-99.13537901799998,19.089296070416246],[-99.05980023199999,19.04823666241734],[-99.04320886399996,19.07575546041658],[-99.02899368199998,19.085368791416347],[-98.98359448599997,19.07876325041653],[-98.97899540199995,19.074455950416656],[-98.96572147999996,19.08586116941634],[-98.95906350999998,19.10427794941586],[-98.95750747999995,19.122383219415433],[-98.96645593999995,19.14387050941485],[-98.95462631,19.149524349414683],[-98.96736639999995,19.16443868941432],[-98.95238564999994,19.168637619414184],[-98.95617467999995,19.176763059413986],[-98.95984905999995,19.179167879413907],[-98.96769388999996,19.18974307941363],[-98.96702582999997,19.199909859413395],[-98.96770188999996,19.203128849413314],[-98.96967856999999,19.20425290941327],[-98.96722873999995,19.206251089413204],[-98.96682650999999,19.208961339413147],[-98.96852791999999,19.210571080413136],[-98.96269404999998,19.214142629413004],[-98.95394833999995,19.214645849413024],[-98.95108553999997,19.21818370941294],[-98.94255322,19.215614859413012],[-98.94030281999994,19.223239649412783],[-98.96858650999998,19.232217949412572],[-98.96598687999996,19.249940999412093],[-98.97653062999996,19.253125379412005],[-98.96722392399994,19.305969335410648],[-98.96477605999998,19.306880770410658],[-98.96296582899998,19.316727380410413],[-98.95790262899999,19.323227620410222],[-98.97432514899998,19.337026569409844],[-98.97879331999998,19.34328927940967],[-98.99455665899995,19.358141320409334],[-98.99193917799994,19.36759870940906],[-99.01957204999997,19.383256349408693],[-99.05813571999994,19.400692149408233],[-99.05519642999997,19.42427336940761],[-99.04645906599995,19.442364561407132],[-99.06336101999995,19.47860927940624],[-99.06327781999994,19.481267649406178],[-99.06485288999994,19.481835969406173],[-99.06799134,19.489083219405966],[-99.06386253999996,19.49877871040572],[-99.09739951999995,19.512631249405338],[-99.10730428999995,19.509684999405422],[-99.10763551999997,19.511026549405404],[-99.11440710999995,19.511060819405415],[-99.12800457899999,19.524531120405058],[-99.12736765999995,19.535083909404765],[-99.13057459999999,19.536091289404766],[-99.12103573899999,19.54913195040443],[-99.11562145999996,19.554039620404325],[-99.11571862999995,19.556660260404236]]]}}]}
