{"type":"FeatureCollection","features":[{"type":"Feature","properties":{"cve_ent":"10","cvegeo":"10","nombre_inegi":"Durango","nombre_catalogo":"Durango"},"geometry":{"type":"Polygon","coordinates":[[[-105.93919350999994,26.763215519240834],[-105.99553390999995,26.807530829239973],[-106.01532701999997,26.819727119239694],[-106.04733909,26.844875909239203],[-106.06504841999998,26.827633349239544],[-106.08418716999995,26.78643785924034],[-106.10064265999995,26.75933317924089],[-106.10496554999997,26.759364739240866],[-106.11031888999997,26.764423279240816],[-106.11429890999995,26.76514388924077],[-106.12526239999995,26.779410369240495],[-106.13347731999994,26.77905890924051],[-106.14277527999997,26.775123079240604],[-106.14446196999995,26.776546819240576],[-106.14923639999995,26.772617139240612],[-106.15779396999994,26.770974179240664],[-106.16437870999995,26.77504022924059],[-106.17010288999995,26.77521297924058],[-106.17762644999999,26.772336579240644],[-106.17970904999999,26.7630630592408],[-106.17043393999995,26.750125539241076],[-106.17245764999996,26.748623819241086],[-106.17396359999998,26.743467369241223],[-106.17633514999996,26.743438569241174],[-106.17778141999999,26.745448339241165],[-106.17872945999994,26.74443648924118],[-106.17893065,26.741930259241236],[-106.17653448999995,26.740463119241287],[-106.17942519999998,26.736268289241348],[-106.17658082999998,26.727722049241525],[-106.15261310999995,26.725235979241543],[-106.14144399999998,26.720786649241628],[-106.13178201999995,26.713796249241756],[-106.13067448,26.702203379242025],[-106.13301673999996,26.697332599242095],[-106.13857914999996,26.70115679924201],[-106.14230882999999,26.706513999241896],[-106.14746279999997,26.709237739241864],[-106.16013267999995,26.70233844924202],[-106.16686182999997,26.70592170924192],[-106.17266207999995,26.705166799241926],[-106.17767479999999,26.699727599242078],[-106.18629965999997,26.69910684924209],[-106.18967499999998,26.695139319242156],[-106.18721037999995,26.69325005924215],[-106.18498494999994,26.686659599242297],[-106.18512957999997,26.684533289242356],[-106.18861045999996,26.683492909242357],[-106.19042556999995,26.680230079242445],[-106.18798947999996,26.67447576924257],[-106.19328613999994,26.681876799242414],[-106.19712847999995,26.683779019242348],[-106.19968374999998,26.6809845792424],[-106.19834670999995,26.67600928924249],[-106.20302417999994,26.681225819242428],[-106.20792267999997,26.67806474924247],[-106.20604223,26.668948089242676],[-106.21111005999995,26.667733969242672],[-106.21982608999997,26.656355979242907],[-106.21811254999994,26.65161381924297],[-106.22144985999995,26.647678179243105],[-106.22231361999998,26.642746819243197],[-106.21948224999996,26.63914202924328],[-106.22557437999995,26.635377399243307],[-106.22347584999996,26.627824629243506],[-106.22696450999996,26.618685689243662],[-106.22673485999998,26.61495645924371],[-106.23061139999999,26.6162003692437],[-106.23203950999999,26.613651309243714],[-106.23000102999998,26.6112149792438],[-106.23091766,26.609560309243847],[-106.23350577999997,26.60963474924383],[-106.23510711999997,26.613486649243725],[-106.23654005999998,26.612167489243774],[-106.23536992,26.603323449243955],[-106.23689656999994,26.58860324924425],[-106.23244034999999,26.587715419244255],[-106.23394667999997,26.580694849244388],[-106.23064188099994,26.57630145924447],[-106.23463488999994,26.569173889244638],[-106.23456059999997,26.56559042924468],[-106.23203950999999,26.561608379244774],[-106.23296107999995,26.559560369244803],[-106.23866999999997,26.56319596924473],[-106.23952713999995,26.562437319244783],[-106.24121711999999,26.544989919245086],[-106.28013545,26.53206722924537],[-106.26957143,26.527169429245472],[-106.28066599999994,26.511753549245743],[-106.27402085999996,26.50767731924581],[-106.25388101999995,26.507355549245855],[-106.25518216999996,26.49891042924598],[-106.25129847999995,26.49108191924617],[-106.25142894999999,26.486908999246225],[-106.24747365999998,26.48218413924636],[-106.25085539999998,26.478584969246402],[-106.24486291999995,26.471999889246568],[-106.24440809,26.467938569246634],[-106.24203045999998,26.466823849246627],[-106.26522062,26.42413970924751],[-106.26437404999996,26.40611591924785],[-106.29759801999997,26.396454799248072],[-106.30217654999996,26.363876319248664],[-106.27545791999997,26.367415459248647],[-106.28704094999995,26.33508156924927],[-106.29951956999997,26.337082849249235],[-106.31225756999999,26.348754399249025],[-106.33297034999998,26.319867539249596],[-106.34283645999994,26.309081769249772],[-106.34462521999997,26.309877539249765],[-106.43277551999996,26.204013419251865],[-106.41561494999998,26.139400289253167],[-106.45864357999996,26.11216068925374],[-106.46124567999999,26.105219229253873],[-106.45440685999995,26.095260419254068],[-106.47122930899998,26.06052291925477],[-106.46504325999996,26.051936939254972],[-106.45409828999999,26.046357029255034],[-106.45339663,26.02784068925545],[-106.46409756999998,26.017860539255658],[-106.46745157999999,26.01828836925564],[-106.47040668999995,26.005425749255878],[-106.44471261999996,26.005088219255917],[-106.45581545999994,25.972579199256547],[-106.49166530999997,25.968053479256643],[-106.50147316999994,25.954955749256925],[-106.53371545999994,25.945761519257122],[-106.54730610999998,25.95242174925695],[-106.56012977999997,25.91270676925778],[-106.55596774999998,25.691706629262296],[-106.52655456999997,25.713379769261874],[-106.46404157999996,25.74170965926124],[-106.46361750999996,25.729043679261554],[-106.48578876999994,25.716142449261795],[-106.50108953999995,25.712156489261858],[-106.50272839999997,25.709201059261936],[-106.50883177999998,25.70750801926195],[-106.51174582,25.70282237926206],[-106.52102419999994,25.694905399262208],[-106.52494099999997,25.69450927926221],[-106.52798973999995,25.691772649262322],[-106.52733733999997,25.686531259262388],[-106.53096001999995,25.685767599262448],[-106.53122944999997,25.68232188926246],[-106.53381577999994,25.681067649262506],[-106.53644124999995,25.675963479262627],[-106.54478059999998,25.67385393926269],[-106.54745228999997,25.6709516892627],[-106.55501194,25.668417169262785],[-106.56552977999998,25.666568309262818],[-106.56966515,25.657662909263006],[-106.57402853999997,25.656098229263034],[-106.57639711999997,25.653193659263092],[-106.57929334999994,25.653349769263055],[-106.59182379999999,25.647391719263183],[-106.59262181999998,25.643535259263302],[-106.60441937999997,25.634536289263455],[-106.6149046,25.62197131926372],[-106.61570717999997,25.61905819926378],[-106.62012581999996,25.616852029263853],[-106.62185458,25.61081853926394],[-106.62381662999996,25.60954776926399],[-106.62324564999996,25.607035539264015],[-106.62925553999999,25.603791629264094],[-106.62922014999998,25.59091116926434],[-106.63084764999996,25.585800119264473],[-106.63251130999998,25.584457109264527],[-106.63500342999998,25.586310709264495],[-106.64290762999998,25.58518599926451],[-106.65559545999999,25.5751658292647],[-106.65747991999996,25.57019373926478],[-106.65282630999997,25.558843619265044],[-106.65932647999995,25.564517119264927],[-106.66472043,25.563813509264925],[-106.67141984999996,25.567421649264833],[-106.67704981999998,25.576442859264656],[-106.67769594999999,25.583657249264505],[-106.68024493999998,25.589323089264393],[-106.68309916999999,25.59082990926435],[-106.68563768999998,25.589736539264393],[-106.70796984999998,25.60245125926415],[-106.68196851999996,25.579168449264618],[-106.69884591,25.580839419264606],[-106.69892034999998,25.586204519264435],[-106.70575813999996,25.59734973926421],[-106.70254868999996,25.58120574926455],[-106.74479636999997,25.58516337926448],[-106.81782571999999,25.573389429264758],[-106.87375597999994,25.571864829264754],[-106.89922207999996,25.6437420492633],[-106.89378368999996,25.64429134926327],[-106.90680957999997,25.646619949263222],[-106.92238697999994,25.646082169263245],[-106.99432451999996,25.662232599262882],[-106.97329045999999,25.62957042926358],[-107.03415931999996,25.59632319926423],[-107.10998841999998,25.560556459264987],[-107.11308093999999,25.56106028926499],[-107.12112721899996,25.556411309265073],[-107.11953428999999,25.55422170926511],[-107.12456485999996,25.55041437926522],[-107.13117441999998,25.55021925926523],[-107.13255248999997,25.552694689265177],[-107.13826404999999,25.552198429265154],[-107.13935419999997,25.553198369265157],[-107.13874934999997,25.560095089265015],[-107.17006990999994,25.559546819265],[-107.16919479999996,25.557723879265026],[-107.17387948999999,25.5565525692651],[-107.17261468999999,25.551702049265213],[-107.17516502999997,25.549198319265255],[-107.17158639999997,25.546108079265313],[-107.17182888999997,25.542798939265378],[-107.17616751999998,25.54440384926532],[-107.17688045999995,25.540819629265393],[-107.17373765999999,25.53886242926545],[-107.17344908999996,25.533714079265547],[-107.16950639999999,25.532467799265593],[-107.17425437999998,25.529101289265622],[-107.17201082999998,25.52384337926577],[-107.17597279999997,25.52270674926578],[-107.17513519999996,25.520236999265837],[-107.17811731999996,25.51517636926595],[-107.17210581999996,25.507389969266114],[-107.16629028999995,25.50299531926617],[-107.14768422999998,25.50502721926614],[-107.13982230999996,25.496620889266307],[-107.13929497,25.489564859266444],[-107.14062369,25.486171749266525],[-107.14619194999995,25.483469309266574],[-107.14724184999996,25.479270429266666],[-107.15111742999996,25.4766978892667],[-107.15064516999998,25.4739494292668],[-107.15263236999999,25.46969633926686],[-107.15122416999999,25.467217149266943],[-107.15302219999995,25.46606614926697],[-107.15185499999997,25.46349379926699],[-107.15313074999996,25.461091769267068],[-107.15054284999997,25.45804444926711],[-107.15656179999996,25.45642365926715],[-107.15579567999998,25.446871579267345],[-107.16095725999998,25.444800519267393],[-107.15869054999997,25.441992139267416],[-107.16472874999994,25.43964016926752],[-107.18487439999996,25.43681579926754],[-107.21013222999996,25.417100509267982],[-107.17155079999999,25.326357879269853],[-107.20781656999998,25.33156422926972],[-107.15720274999995,25.261764979271216],[-107.14541301999998,25.257846459271295],[-107.12105711899994,25.24311121927161],[-107.13167505899997,25.232202229271813],[-107.13042321999995,25.22948274927188],[-107.13202136999998,25.22671179927193],[-107.14877479899997,25.224548139271956],[-107.12901368999997,25.188401369272757],[-107.12491854899997,25.18663982927278],[-107.12989162999999,25.053138799275597],[-107.06739899999997,25.030155199276052],[-107.063571289,25.025255349276197],[-107.06642190899998,25.02291499927625],[-107.06650428999995,25.020396879276305],[-107.06201416999996,25.01244956927646],[-107.06041979999998,25.00242742927668],[-107.01834390999994,24.933617369278096],[-107.02514667899999,24.928380509278245],[-107.02105287999996,24.909908279278596],[-107.00057542999997,24.928241019278218],[-106.97324941999995,24.909614689278648],[-106.95100944999996,24.887996659279093],[-106.94627807899998,24.88895173927906],[-106.93450764999994,24.88053584927926],[-106.93061611999998,24.873473109279423],[-106.93286288999998,24.871479289279417],[-106.92708025899998,24.866624379279575],[-106.95141810899997,24.859023719279694],[-106.95083181999996,24.85794768927974],[-106.94639324899998,24.858507919279692],[-106.94396111999998,24.85152736927985],[-106.94313668999997,24.843057459280068],[-106.94648781999997,24.839753169280115],[-106.93806093999997,24.835251019280204],[-106.93066257,24.820916679280497],[-106.91927677999996,24.813953119280676],[-106.90294887999994,24.82838784928038],[-106.86585287999998,24.822955339280487],[-106.79612870999995,24.753361139281946],[-106.79301072,24.743910339282174],[-106.78425428999998,24.741456429282188],[-106.71512530999996,24.672081879283713],[-106.70594837,24.66526165928385],[-106.68905039999999,24.623753719284718],[-106.68360859999997,24.598530479285305],[-106.64546065999998,24.5289794592868],[-106.63223782999997,24.52998950928677],[-106.62260699999997,24.524896679286854],[-106.63006707999996,24.506503139287272],[-106.62477499999994,24.500236049287416],[-106.60999493999998,24.49785127928748],[-106.60036171999997,24.48321081928778],[-106.60011490999996,24.486614289287672],[-106.59845637999997,24.48711816928766],[-106.59909230999996,24.490994569287597],[-106.59736956999996,24.49092468928758],[-106.59365274,24.495058739287508],[-106.59157391999997,24.491431089287577],[-106.58712448999995,24.492639769287553],[-106.58375865999996,24.490759909287608],[-106.58006484999999,24.48724416928767],[-106.57866196999998,24.482224199287813],[-106.57619576999998,24.481877969287773],[-106.57316969,24.477626939287884],[-106.56711262999995,24.475878859287896],[-106.56483094999999,24.473397229287972],[-106.56001579999999,24.47271061928798],[-106.55945257999998,24.469645049288065],[-106.56283841999999,24.458784279288274],[-106.56832153999994,24.453099179288404],[-106.56926650999998,24.44619082928855],[-106.56763216999997,24.442172549288664],[-106.56927601999998,24.43702057928873],[-106.60158830999995,24.414565849289232],[-106.59528836999999,24.409472199289343],[-106.58346565999994,24.390269919289764],[-106.58595861999999,24.379000309290003],[-106.53408891999999,24.309547779291535],[-106.53324437999999,24.30267285929166],[-106.52799122,24.29512373929186],[-106.51709354999997,24.286984259292023],[-106.50909659999998,24.29113930929194],[-106.46965465999995,24.277856949292214],[-106.42947008999995,24.285074309292042],[-106.36754465999998,24.301940799291714],[-106.35919765999995,24.307469889291568],[-106.35262368999999,24.31646814929137],[-106.34614527999997,24.34493397929078],[-106.34410076999995,24.348805649290654],[-106.33632981999995,24.355695319290536],[-106.32784825999995,24.36106299929042],[-106.26886942,24.374755289290114],[-106.19440565999999,24.3517851092906],[-106.16997519999995,24.333650179291016],[-106.15253961999998,24.338770369290916],[-106.08981676999998,24.285362429292075],[-106.08690468999998,24.277692229292242],[-106.08131834999995,24.27335341929229],[-106.07584322999999,24.271389199292347],[-106.07206654999999,24.25627133929271],[-106.06994834999996,24.220200579293458],[-106.04388356999999,24.220850349293446],[-106.04416042999999,24.21170474929363],[-106.03638205999994,24.204023419293833],[-106.03398248999997,24.191892399294066],[-106.02680785999998,24.18652850929423],[-106.02855725999996,24.180332289294316],[-106.02107525999998,24.17318182929448],[-106.01819794999996,24.164454619294716],[-106.01205345999995,24.161238479294784],[-106.01097645999995,24.156847659294844],[-106.00616631999999,24.150931909294997],[-106.00653137999996,24.148705259295042],[-106.00321076999995,24.14684102929511],[-106.00397116999994,24.140026279295206],[-106.00198894999994,24.138686889295247],[-106.00398753999997,24.137664489295307],[-106.00419810999995,24.12995810929548],[-106.00124039999997,24.12831519929547],[-106.00367257999994,24.125271949295573],[-106.00404636999997,24.12053279929565],[-105.99664961999997,24.114455679295776],[-105.98972399999997,24.114390169295778],[-105.98907722999998,24.10799767929592],[-105.99107847999994,24.105644419295967],[-105.98944090999998,24.10235811929608],[-105.99320311999999,24.10122496929607],[-105.99346711999999,24.099168849296134],[-105.99562807999996,24.098293939296166],[-105.99400697999994,24.093566919296258],[-105.99632048999996,24.08936019929633],[-105.99941579999997,24.090110289296327],[-106.00206888999998,24.088086829296387],[-106.00059796999994,24.08639141929639],[-106.00269984999994,24.083167309296503],[-106.00070931,24.076056149296637],[-106.00364042999996,24.076172049296602],[-106.00788344999995,24.072506629296743],[-106.00660822999998,24.067185859296817],[-106.00294847999999,24.066060909296834],[-106.00118168999997,24.063092949296923],[-106.00248657999998,24.059464019297014],[-106.00023333999997,24.058082769297034],[-105.99986441999995,24.0550659792971],[-105.99671724999997,24.054222229297118],[-105.99950144999998,24.049708949297194],[-105.99871973999997,24.043383139297358],[-105.99788087999997,24.042520399297374],[-105.99410222999995,24.044581279297322],[-105.99185336999996,24.041448969297374],[-105.98903136999998,24.042000429297357],[-105.98426687999995,24.038677879297428],[-105.98185554999998,24.041560769297387],[-105.97950584999997,24.041962369297412],[-105.97304319999995,24.03273810929756],[-105.96655337999995,24.03183610929758],[-105.96541344999999,24.0270688492977],[-105.95981164999996,24.02383497929778],[-105.96097084999998,24.0219226592978],[-105.95981087999996,24.01740334929792],[-105.95025811000001,24.014818829297948],[-105.94871254999998,24.011774749298024],[-105.94690384999996,24.01515754929795],[-105.94598273999999,24.012199179298026],[-105.94234293999995,24.014317919297998],[-105.93763202999997,24.004990939298175],[-105.92887036999998,23.999288309298326],[-105.92301367999994,23.99804556929833],[-105.91708619999999,24.000100019298298],[-105.91213584999998,23.997533859298347],[-105.91292548999996,23.992008399298456],[-105.90871790999996,23.986630169298625],[-105.90846157999995,23.983426629298673],[-105.94541505999996,23.948025689299463],[-105.89991939999999,23.943921289299542],[-105.88155350999996,23.93281961929976],[-105.87899230999994,23.926066309299948],[-105.86597639999998,23.91607105930014],[-105.86388644999994,23.912824019300256],[-105.86527737999997,23.908221619300353],[-105.86413994999998,23.905323599300377],[-105.85884393999999,23.902134599300478],[-105.85758795,23.89929614930053],[-105.85851225,23.89308591930064],[-105.86326922999997,23.889448309300736],[-105.86109525999996,23.88741868930081],[-105.86110002999999,23.88483037930084],[-105.86264951,23.885274829300855],[-105.86323873999999,23.881098119300926],[-105.86549368999995,23.880718579300947],[-105.86290459999998,23.877922179300988],[-105.86477325999999,23.87515622930109],[-105.86724131999995,23.875242979301063],[-105.88329816999999,23.878549339301],[-105.95366197999999,23.908584579300296],[-105.96126556999997,23.840742149301814],[-105.93933022999994,23.791430229302932],[-105.93217459999994,23.794695999302842],[-105.92878491999994,23.786581889303015],[-105.92953137999996,23.78096481930316],[-105.92479881999998,23.771476199303372],[-105.92948213999995,23.765517019303502],[-105.92666768799997,23.76152235030358],[-105.92331814799996,23.761299682303598],[-105.91974710699998,23.757807111303627],[-105.92294847699999,23.752240112303763],[-105.92306290799998,23.74775377230389],[-105.90609334699998,23.73939885230409],[-105.90613417699997,23.73714631230412],[-105.91590582799996,23.726424752304382],[-105.91655570699999,23.715355771304623],[-105.92663374899998,23.684135662305316],[-105.90890536699999,23.588269552307427],[-105.89265537799997,23.55264528030821],[-105.88431791,23.590393859307408],[-105.85359601999994,23.597287599307258],[-105.84518581999998,23.58369482930757],[-105.84551601999999,23.603255539307142],[-105.81164388999997,23.611028549306965],[-105.80664677999994,23.588873019307442],[-105.80209848999999,23.587713489307475],[-105.80066953999996,23.584744289307533],[-105.79672802999994,23.583391709307556],[-105.79342405999996,23.578036449307696],[-105.78983845999994,23.57852404930766],[-105.78537976999998,23.574989999307753],[-105.78433184999994,23.573242029307806],[-105.78590351999998,23.56947108930785],[-105.77966588999999,23.566829739307927],[-105.77829507999998,23.564135049308],[-105.77291202999999,23.56099768930809],[-105.77265471,23.55785673930811],[-105.76930222999994,23.556465309308184],[-105.76755953999998,23.551545279308254],[-105.76927017999999,23.54854785930833],[-105.76800562999995,23.545661709308398],[-105.76912351,23.54193933930848],[-105.76037570999996,23.53510614930864],[-105.75893427999996,23.53200810930871],[-105.75965225999994,23.526876059308837],[-105.75686734,23.524897259308855],[-105.75662502999997,23.515548569309097],[-105.76007777999996,23.50913936930924],[-105.76033857999995,23.50295928930934],[-105.75103754999999,23.500274979309395],[-105.74863042999999,23.49367173930954],[-105.74049211999994,23.48927345930966],[-105.73935464999995,23.485340569309763],[-105.73415425999998,23.482382979309843],[-105.72980354999999,23.48232661930981],[-105.72344477999997,23.474840139309965],[-105.72806348999997,23.466817259310147],[-105.72465721999998,23.4608092293103],[-105.72934859999998,23.45785284931038],[-105.73014888999995,23.452842819310487],[-105.73388450999995,23.45217861931049],[-105.73833748999999,23.44838121931058],[-105.73886462999998,23.445205509310657],[-105.72840322999997,23.439588399310786],[-105.73056211999995,23.43400907931093],[-105.72833090999995,23.428984459311003],[-105.72197630999996,23.42644819931107],[-105.70710941999995,23.425853489311102],[-105.70028874999998,23.42017057931122],[-105.70400234999994,23.41126299931144],[-105.71025348999996,23.40813394931148],[-105.70859379999996,23.403879689311594],[-105.71180124999995,23.3977824493117],[-105.71207954999994,23.39255047931186],[-105.71709427999997,23.392692879311817],[-105.72241871999996,23.386035679312013],[-105.72246459999998,23.383761539312022],[-105.71729254999997,23.38003701931211],[-105.71733188999997,23.37859477931218],[-105.7232858,23.37657222931223],[-105.72921726,23.378107379312194],[-105.73068965999995,23.374897289312226],[-105.72324881999998,23.372125649312302],[-105.71224505999999,23.3642813693125],[-105.71189304999996,23.355972649312694],[-105.71541782999999,23.352621979312733],[-105.71515639999997,23.350217769312778],[-105.70839645999997,23.350394619312766],[-105.70517136999996,23.348731739312836],[-105.70351107999994,23.340097369312996],[-105.69707854999996,23.341763089312966],[-105.69400473999997,23.34056921931305],[-105.70217914999996,23.3326506493132],[-105.69884273999999,23.328229249313292],[-105.70077716999998,23.324240339313413],[-105.69371584999999,23.32036777931345],[-105.69233117999995,23.3109748193137],[-105.69299837999995,23.309813179313714],[-105.69833893999999,23.310232309313708],[-105.69947062999996,23.307719119313763],[-105.69174579999998,23.30513621931383],[-105.68738014999997,23.307143819313794],[-105.69397228999998,23.301312219313903],[-105.69016131999996,23.297802829313945],[-105.69077114999999,23.294615969314055],[-105.68708410999994,23.2875200193142],[-105.68480974,23.285742109314256],[-105.67704470999998,23.285776029314228],[-105.67512699999997,23.28216088931434],[-105.67264621999999,23.281636889314374],[-105.66484342999996,23.282659649314304],[-105.66355682999995,23.283938259314322],[-105.66536508999997,23.28632167931426],[-105.66370825999998,23.28742014931423],[-105.65828453999995,23.282194019314353],[-105.65366488999996,23.28171939931434],[-105.6432084,23.27647908931448],[-105.64546107999996,23.26936834931461],[-105.64279397999996,23.265969689314737],[-105.64631550999997,23.26368131931476],[-105.64774839999997,23.260310659314854],[-105.64609776999998,23.251774739315007],[-105.63918182999998,23.24501737931516],[-105.64263571,23.238958419315342],[-105.64072897999995,23.237477449315335],[-105.63439670999999,23.238106999315352],[-105.63031734999998,23.235581089315385],[-105.63156231999996,23.224955909315646],[-105.62967277999998,23.219235549315773],[-105.63574405999998,23.214747349315864],[-105.63034094999995,23.207495769316008],[-105.62971251999994,23.20229451931616],[-105.63367570999999,23.19985556931622],[-105.63522647999997,23.196922649316253],[-105.63433517999995,23.18977587931644],[-105.64071790999999,23.185451179316505],[-105.63303893999996,23.17344899931682],[-105.63375427999995,23.171017539316846],[-105.63886685999995,23.167615719316952],[-105.63687587999999,23.155915969317167],[-105.64580539999997,23.15150151931732],[-105.64399074999994,23.14176807931755],[-105.62994489,23.130881969317794],[-105.62396957,23.12238808931799],[-105.61875504999995,23.126303479317855],[-105.61643382999996,23.125649659317915],[-105.61698321999997,23.12198776931796],[-105.60695991999995,23.121788679317984],[-105.60579097,23.118246689318045],[-105.60817859999999,23.118396459318046],[-105.60904624999995,23.1166353793181],[-105.60583394999998,23.115987049318115],[-105.60377264999994,23.112925519318154],[-105.60142032,23.114093169318142],[-105.59764085999997,23.109149619318256],[-105.59456531999996,23.111166919318244],[-105.59032744999996,23.109293719318245],[-105.58424808999997,23.11286030931817],[-105.58035761999997,23.109354649318256],[-105.57470597999999,23.11005688931826],[-105.57621682999998,23.107583889318303],[-105.57537673999998,23.104966889318387],[-105.57016825999995,23.106717919318314],[-105.57104971999996,23.108691399318275],[-105.56934276999999,23.11005750931824],[-105.56167714999998,23.104053859318412],[-105.55894082999998,23.10368850931838],[-105.55430907999994,23.098886659318506],[-105.54933593999999,23.100371259318447],[-105.54861211999997,23.10441770931839],[-105.54620936999999,23.10329647931839],[-105.53707397999995,23.10454107931836],[-105.53744444999995,23.107647709318293],[-105.53162362999996,23.11336304931815],[-105.53121628999997,23.11806131931804],[-105.52510861999998,23.119888709318026],[-105.51786043,23.124914179317937],[-105.50777450999999,23.12506245931789],[-105.50197814999997,23.12801162931784],[-105.45531917999995,23.117335659318062],[-105.44618797,23.119629279318012],[-105.44036619999997,23.11669645931811],[-105.43154768999995,23.12055113931799],[-105.42442737999995,23.12029231931799],[-105.41589234999998,23.11689733931808],[-105.41303231999996,23.112505219318194],[-105.41311242999996,23.10952810931824],[-105.40853302000001,23.10320045931838],[-105.39879551999996,23.102210949318405],[-105.40123179999996,23.095695799318563],[-105.39825127899996,23.08820702931873],[-105.38609542999995,23.08137851931889],[-105.38471202999996,23.084480079318826],[-105.38356733999997,23.081741579318866],[-105.38044097999995,23.08166268931887],[-105.38037584999996,23.07891334931896],[-105.37792701999996,23.07776253931897],[-105.37544959999998,23.07903524931897],[-105.37065510999999,23.07491673931905],[-105.35831630999996,23.07392336931906],[-105.35734796999999,23.07190267931911],[-105.35896790999999,23.06707530931923],[-105.35612467999994,23.0651371793193],[-105.35794028,23.063195309319276],[-105.35047117999994,23.06057533931939],[-105.35285970999996,23.05529279931951],[-105.35087357999998,23.050938549319607],[-105.35401667999997,23.050272999319613],[-105.35510164999995,23.047113709319703],[-105.35877917999994,23.04625756931967],[-105.35608219999995,23.04417370931975],[-105.35517505999998,23.038451199319887],[-105.35079625999998,23.03563445931994],[-105.35332031999998,23.02854177932012],[-105.35247919999995,23.024763969320176],[-105.35385650999997,23.01978479932028],[-105.34950625999994,23.017179939320375],[-105.34974085999994,23.015124289320433],[-105.34314959999995,23.012342479320456],[-105.34496496999998,23.009945769320538],[-105.34410141999996,23.00779396932055],[-105.34102569,23.008369799320537],[-105.33859393999997,22.999640549320752],[-105.33370490999994,22.994682089320847],[-105.33896794999998,22.992865059320902],[-105.33505693999997,22.988760109321003],[-105.33671854999996,22.984740339321085],[-105.34011485999997,22.98250393932118],[-105.33626802999999,22.980473629321203],[-105.33947084999994,22.976085509321326],[-105.33683233999996,22.971199419321426],[-105.33837853999995,22.969699449321475],[-105.34250613999995,22.97041597932142],[-105.34304925999999,22.968159289321502],[-105.33901924999998,22.96643451932153],[-105.33711874999996,22.967688749321482],[-105.33730407999998,22.96413667932154],[-105.33567968999995,22.96259970932163],[-105.33084948999999,22.96317317932162],[-105.33414165999994,22.953408919321838],[-105.33202493999994,22.951706319321847],[-105.32821096999999,22.95264045932184],[-105.33037777,22.947688769321967],[-105.32842142999999,22.94701976932197],[-105.32834204999996,22.942988279322076],[-105.32356989,22.941330169322118],[-105.29769905999996,22.954162109321782],[-105.25408570999997,22.956271619321754],[-105.16357408999994,22.953871919321802],[-105.07601577999998,22.959638829321694],[-105.01382461999998,22.977672829321293],[-105.00313941999997,22.97698267932127],[-105.00822174999996,22.97149617932139],[-105.00834104999997,22.968458689321448],[-105.00320625999996,22.960102169321633],[-104.99802085999995,22.957173459321712],[-104.99689313999995,22.952001599321868],[-105.00396294999996,22.94065427932211],[-105.00419202999996,22.932013029322327],[-105.00994114999999,22.926542089322442],[-105.01003911999999,22.92236273932253],[-105.00005416999996,22.908897169322838],[-105.00143411,22.9059799793229],[-105.00548847999994,22.90707727932289],[-105.00506913999999,22.903552059322955],[-105.00035004999995,22.900297319323037],[-104.99429684999997,22.892310819323203],[-104.98956953999999,22.891429649323268],[-104.98779562999994,22.88825201932331],[-104.98700787999998,22.880807349323494],[-104.98973830999996,22.87614793932361],[-104.98849884999998,22.875040349323637],[-104.98786996999996,22.85551522932406],[-104.99061411999999,22.852144999324167],[-104.98746424999996,22.846184379324306],[-104.98963956999997,22.839645979324434],[-104.98840522999996,22.836049319324502],[-104.98151257999996,22.832446489324603],[-104.97827637999995,22.826201339324758],[-104.97169171999997,22.82466164932478],[-104.97114779999998,22.820585769324854],[-104.96740593999999,22.819308419324873],[-104.96503269,22.81559971932496],[-104.95896730999999,22.813604599325053],[-104.95498801999999,22.816249599324976],[-104.95172074999999,22.82182973932485],[-104.94050485999998,22.816163279324982],[-104.93602404999997,22.826504369324756],[-104.93422627999996,22.827310889324693],[-104.92975444999996,22.82642865932473],[-104.91838919999998,22.819780749324906],[-104.91195144999995,22.81220925932505],[-104.91146596999994,22.80933439932515],[-104.90825679999995,22.80760057932516],[-104.90839071999994,22.8053535093252],[-104.91127787999994,22.803415089325267],[-104.91102101999998,22.801331969325293],[-104.90557631999997,22.799577519325375],[-104.90659770999999,22.79623701932542],[-104.91039707999995,22.79519433932543],[-104.91337534999997,22.790485969325587],[-104.90972191999998,22.784431399325733],[-104.91341707999999,22.775293879325915],[-104.91151257999996,22.76916776932603],[-104.91431530999995,22.760264889326248],[-104.91563664999997,22.748537969326517],[-104.91295887999996,22.74556901932661],[-104.89272044999997,22.737409249326774],[-105.05730268999997,22.688093999327915],[-105.06842250999995,22.67841414932814],[-105.07236893999999,22.65649908932868],[-105.00755273999995,22.585671969330328],[-104.98791253999997,22.49872657933232],[-104.96052517,22.505311449332133],[-104.86249311999995,22.607070489329825],[-104.85839705999996,22.648326709328845],[-104.84011642999998,22.651138569328793],[-104.84112671999999,22.64939459932883],[-104.84002562999997,22.64586122932889],[-104.83717456999995,22.646030519328917],[-104.82943256999995,22.640226459329053],[-104.81669197999999,22.639682649329057],[-104.81522939999996,22.637209309329116],[-104.81647231999996,22.63609065932912],[-104.81467750999998,22.63424917932917],[-104.81130876999998,22.634765459329156],[-104.81107190999997,22.637853249329076],[-104.80778448999996,22.63982736932903],[-104.80402068999996,22.64034124932904],[-104.80274505999995,22.642818649328973],[-104.80513147999994,22.64584397932891],[-104.80425594999998,22.64874385932881],[-104.78891885999997,22.64797361932887],[-104.77940465999995,22.643177229328966],[-104.77764216999998,22.640285979329025],[-104.77879199999997,22.636861919329128],[-104.77409431999997,22.6325497793292],[-104.77614433999997,22.630475339329244],[-104.77711090999998,22.624996179329376],[-104.77558114999994,22.617222019329557],[-104.7761832,22.610200229329717],[-104.77980548,22.60334850932989],[-104.77773345999998,22.60153341932996],[-104.77848522999994,22.599458679329985],[-104.77595810999998,22.59762179933004],[-104.77538291999997,22.593485199330107],[-104.77257267999994,22.59189759933015],[-104.77593419999995,22.585123309330296],[-104.77208849,22.582261289330408],[-104.76756270999999,22.581389829330384],[-104.75981216999999,22.568718369330696],[-104.74573088999996,22.563480459330822],[-104.73606748999998,22.55794968933094],[-104.72818857,22.55893719933093],[-104.72523034999996,22.56152096933087],[-104.72323010999997,22.56697254933075],[-104.71979677999998,22.56904521933072],[-104.71516436999998,22.555948799331013],[-104.71105185999994,22.556585849330958],[-104.70873707999999,22.554624319331054],[-104.68095799999999,22.5590962493309],[-104.66999831999999,22.565261739330772],[-104.66762196999997,22.562545199330835],[-104.66618013999995,22.555375979331018],[-104.66234982999998,22.550675079331143],[-104.66372450999997,22.549269379331147],[-104.66306765999998,22.547708059331182],[-104.65923173999994,22.546038979331225],[-104.65900207999995,22.542271109331317],[-104.65575493999995,22.540069709331377],[-104.65714681999998,22.535754549331443],[-104.65561033999995,22.53418927933153],[-104.65679125999998,22.5332182793315],[-104.65565254999997,22.526500539331664],[-104.65368016999997,22.524241769331738],[-104.65529172,22.46215465933319],[-104.63835965999999,22.463419399333176],[-104.60256059999995,22.46050807933323],[-104.60212651999996,22.455437079333308],[-104.60543834999999,22.445457889333564],[-104.60150910999995,22.43916836933373],[-104.59717621999995,22.436755339333768],[-104.59876585999997,22.431722909333914],[-104.59347048999997,22.42560604933404],[-104.59458156999995,22.42297965933411],[-104.59309744999996,22.419983799334187],[-104.59319017999998,22.41209833933435],[-104.58846968999995,22.412654399334347],[-104.58681482999998,22.40648247933444],[-104.58377685999994,22.406073059334485],[-104.58167107999999,22.399945969334606],[-104.57225604999998,22.394013579334754],[-104.56087913999994,22.39477856933472],[-104.55863488999995,22.39332857933479],[-104.55738336999998,22.385753349334987],[-104.55125296999995,22.388866599334865],[-104.54786084999996,22.37648547933516],[-104.53989384999994,22.37173301933525],[-104.53591084999994,22.36480279933546],[-104.53051819999996,22.363915349335493],[-104.52718362999997,22.36144321933555],[-104.51865865999997,22.36060393933552],[-104.50651324999997,22.345163399335906],[-104.49962695,22.34618405933588],[-104.49385614,22.35117044933576],[-104.48757816999995,22.351438919335784],[-104.48369021999997,22.349433319335812],[-104.48120593999994,22.352728309335713],[-104.48733261999998,22.35318887933573],[-104.49250182999998,22.360807489335564],[-104.49499027999997,22.360532089335543],[-104.49480057999996,22.362710599335518],[-104.48891879999998,22.365379689335434],[-104.48786036999996,22.36890507933534],[-104.49112307999997,22.372335179335266],[-104.4948012,22.37195350933526],[-104.49538985,22.37632413933519],[-104.45924499999995,22.38684317933491],[-104.37151221999994,22.421658649334105],[-104.34884291999998,22.409716649334406],[-104.34445864999999,22.417571479334214],[-104.34474734999999,22.41586819933424],[-104.34278502999996,22.41881364933419],[-104.33571782999996,22.420293019334128],[-104.33821293999995,22.422180489334128],[-104.33697821999999,22.42403714933407],[-104.33416036999995,22.42166342933409],[-104.33094447999997,22.424195489334057],[-104.32944781999998,22.426765259333973],[-104.33060261999998,22.432229679333858],[-104.32933182999994,22.43224028933386],[-104.32933357999997,22.428283139333995],[-104.32748368999995,22.429326779333934],[-104.32300884999995,22.428014419333994],[-104.32018805999996,22.430094249333894],[-104.32220507999996,22.435252049333783],[-104.31941184999995,22.43581102933377],[-104.31910465999994,22.43810256933375],[-104.31751091999998,22.438278999333704],[-104.31824184999999,22.440745169333688],[-104.31572443,22.44204601933367],[-104.31542710999999,22.448151119333488],[-104.31148657999995,22.449247309333458],[-104.29902541999998,22.461701879333212],[-104.29612582,22.472989079332915],[-104.30283131999994,22.492016709332454],[-104.31436284999995,22.50709542933212],[-104.31949916999997,22.51766331933188],[-104.32092972,22.526546339331667],[-104.31899229,22.532052019331534],[-104.32219697,22.53246977933153],[-104.32582416999998,22.537396659331446],[-104.32106328999998,22.53551631933148],[-104.31551154999994,22.541166089331334],[-104.31408866,22.54072722933137],[-104.31005541999998,22.5461366893312],[-104.31318365999999,22.547228019331172],[-104.31118348999996,22.554010459331018],[-104.30568928999999,22.55788864933095],[-104.30240857999996,22.558050319330956],[-104.28884961999995,22.552965229331047],[-104.28928534999996,22.560142829330935],[-104.28432313999997,22.565911489330787],[-104.28377768999997,22.57099461933067],[-104.27886679999996,22.576604319330517],[-104.27817273999995,22.583070969330358],[-104.27436149,22.58737567933025],[-104.27058765999999,22.588955249330198],[-104.26140747999996,22.586202849330313],[-104.26053470999994,22.59616731933008],[-104.26745853999996,22.603129549329914],[-104.27254467999997,22.604975909329863],[-104.27623010999999,22.61290530932965],[-104.27606536999998,22.61570316932963],[-104.28151576999994,22.617068859329592],[-104.28328788999994,22.62170324932947],[-104.27366333999998,22.627092149329357],[-104.27338924999998,22.630941079329272],[-104.26927493999996,22.63582110932914],[-104.28183122999998,22.645840049328918],[-104.28962405,22.64445997932897],[-104.28996587999997,22.645609569328887],[-104.28912770999995,22.64926968932882],[-104.28197745999995,22.651022979328786],[-104.28073196999998,22.653388369328752],[-104.28832673999995,22.66352588932852],[-104.28698303,22.667850749328423],[-104.27919331999999,22.671065419328333],[-104.27953741999995,22.674313939328247],[-104.27486307999999,22.682019629328092],[-104.27444491999995,22.685099109328],[-104.27833139999996,22.69022310932786],[-104.27959610999996,22.69523516932776],[-104.27762982999998,22.70240682932758],[-104.27100807999994,22.707716119327465],[-104.27080401999996,22.710993059327425],[-104.26669130999994,22.712548109327365],[-104.26270779999999,22.717643479327243],[-104.26833893999999,22.71754701932723],[-104.26915234999996,22.720864889327146],[-104.26634439999998,22.736539369326817],[-104.25836750999999,22.73892579932677],[-104.25077897999995,22.747998769326532],[-104.24410984999999,22.75007288932653],[-104.23734984999999,22.74978342932649],[-104.23207464999996,22.753103939326447],[-104.23190265999996,22.757772509326315],[-104.22640234,22.762412629326196],[-104.22683601999995,22.764106739326163],[-104.22458851,22.76668979932611],[-104.22449759999995,22.77182599932598],[-104.22779313999997,22.774867109325935],[-104.2274172,22.776629769325893],[-104.22103870999996,22.779420149325855],[-104.21341328999995,22.777260599325853],[-104.20970431999996,22.779743259325798],[-104.19961434999999,22.77647784932589],[-104.19709896999996,22.772775679325974],[-104.19139131999998,22.770724109326014],[-104.18661407999997,22.763576819326158],[-104.18706919999995,22.760760519326276],[-104.18218084999997,22.758268109326327],[-104.17134623,22.759985259326292],[-104.16567156999997,22.758734429326307],[-104.15737939999998,22.759679649326287],[-104.14566197999994,22.76376007932618],[-104.14261241999998,22.767726539326105],[-104.13925774999997,22.7684208193261],[-104.13061351999995,22.76383291932616],[-104.11938148999997,22.7622557193262],[-104.11337965999998,22.764113109326164],[-104.11098750999997,22.767088419326107],[-104.10720302999994,22.76860051932609],[-104.10361376999998,22.767497319326125],[-104.09528524999996,22.759243509326275],[-104.09129031999998,22.76061142932624],[-104.09042807999998,22.76243025932619],[-104.08209328999999,22.76450208932619],[-104.08047522999999,22.76661681932609],[-104.08007162999998,22.769909079326034],[-104.08237450999997,22.77364742932594],[-104.08549244999995,22.775581369325902],[-104.09066559999998,22.775304319325905],[-104.09375471999999,22.77884814932583],[-104.09101545999994,22.78290393932573],[-104.09218154999996,22.78852442932562],[-104.09433364999995,22.78992356932557],[-104.09682481999995,22.788138749325604],[-104.09773033999994,22.79256405932554],[-104.10022417999996,22.79482521932548],[-104.09932033999998,22.79813168932539],[-104.09437087999999,22.800730909325306],[-104.09522717999994,22.805838849325205],[-104.10022985999997,22.8055539993252],[-104.11148479999999,22.810310859325128],[-104.10623784999997,22.81313785932504],[-104.11021424999996,22.822516489324826],[-104.10430787999998,22.833600969324596],[-104.10635207999998,22.834595629324518],[-104.10891402999994,22.84257405932437],[-104.11543241999999,22.848003089324273],[-104.11682767999997,22.850951909324166],[-104.11592967999997,22.8553447393241],[-104.10768465999996,22.854688399324083],[-104.10630402999999,22.85688771932402],[-104.10838843,22.86648291932383],[-104.10714348999994,22.8722378193237],[-104.10952085999999,22.87835304932353],[-104.10719633999997,22.882152029323443],[-104.10750488999999,22.884796219323395],[-104.11192410999996,22.888361599323314],[-104.11773917,22.897706849323132],[-104.11613821999998,22.902625999322993],[-104.11264435,22.905118029322928],[-104.11675502999998,22.907669829322845],[-104.12292173999998,22.90343330932295],[-104.13299401999997,22.90495854932295],[-104.13391381999999,22.910142939322835],[-104.13706204999995,22.911687399322798],[-104.13479522999995,22.915672749322695],[-104.13595534999996,22.91811616932266],[-104.14195134999994,22.921960199322555],[-104.15112207999994,22.92213711932254],[-104.15528896999996,22.928434429322376],[-104.15409568999996,22.937837979322172],[-104.15732977,22.94095179932211],[-104.16529673999999,22.941752019322063],[-104.16659288999996,22.945220719322023],[-104.16427108999994,22.94931139932192],[-104.16748762999998,22.955704139321742],[-104.16823333999997,22.964216059321586],[-104.16284704999998,22.97530248932131],[-104.17361445999995,22.982444949321156],[-104.17213239999995,23.12840767931784],[-104.12902261999994,23.182214219316595],[-104.12091270999997,23.279799459314393],[-104.11997634999994,23.28822176931422],[-104.11639222999999,23.295397969314052],[-104.11597507999994,23.30166287931387],[-104.11377417999996,23.306626629313776],[-104.11517344999999,23.31417716931362],[-104.11286019999994,23.32556507931335],[-104.11519233999996,23.328505109313276],[-104.11121459999998,23.351205489312765],[-104.10969642999999,23.355127179312706],[-104.10677337999999,23.355138509312717],[-104.10116799999999,23.36673714931244],[-104.09943605999997,23.37858514931215],[-104.08626759999999,23.39862762931173],[-104.08095930999998,23.42134565931119],[-104.06493050999997,23.4607569193103],[-104.06597709,23.463493279310224],[-104.00387097999999,23.507839259309222],[-104.00388487999999,23.509185739309242],[-103.99634087999999,23.514741369309057],[-103.99019439999995,23.51559197930909],[-103.98624334999995,23.51956331930897],[-103.98415777999999,23.519375819308994],[-103.98270911999998,23.522162029308948],[-103.97794179999994,23.522777309308903],[-103.97252270999996,23.527171369308842],[-103.96965743,23.526553149308818],[-103.96276537999995,23.529894089308733],[-103.95694554,23.538382019308543],[-103.95030113999998,23.53851839930855],[-103.94303074,23.54688444930836],[-103.93998708999999,23.547322399308353],[-103.92531341999995,23.55698267930812],[-103.92171539999998,23.562046419308043],[-103.91627065999995,23.56572524930797],[-103.91701449,23.572294779307793],[-103.91994544999996,23.57577865930769],[-103.92146859999997,23.589175339307417],[-103.91227714999997,23.58812204930745],[-103.91404887999995,23.583267569307544],[-103.91193356999997,23.57608287930772],[-103.89008692,23.579827579307604],[-103.89107057999996,23.58120564930763],[-103.88985383,23.58492781930755],[-103.89375382999998,23.585883659307488],[-103.90485119999995,23.597106109307223],[-103.90352459999997,23.59893467930723],[-103.90686730999994,23.601870949307123],[-103.90266777999994,23.602529979307114],[-103.90257762999994,23.60504465930705],[-103.89900682999998,23.603971709307082],[-103.88252237999997,23.59227057930736],[-103.87780456999997,23.61870486130679],[-103.87344901899996,23.62046751130673],[-103.87742901899998,23.628969941306515],[-103.84917850899996,23.64008171130628],[-103.81916216899998,23.616667941306815],[-103.81130193899999,23.613648801306883],[-103.79354177999994,23.630855061306463],[-103.78510350899995,23.67656489030548],[-103.85108053899997,23.679599230305413],[-103.84429845899996,23.684573231305304],[-103.84101461899996,23.70124289130491],[-103.85448991899995,23.727922341304332],[-103.86236233899996,23.752638381303775],[-103.85122068899996,23.766701881303476],[-103.85028579899996,23.77068522130339],[-103.84406937899996,23.772787821303336],[-103.84370334899995,23.77484658030331],[-103.83539096899996,23.782591381303142],[-103.83509494899994,23.78508918130304],[-103.82357753899998,23.78891306130299],[-103.82027328899994,23.7918795113029],[-103.82224814899996,23.80076260130274],[-103.81606697899998,23.80765032130254],[-103.83118636999995,23.82466185130221],[-103.832621519,23.848930371301627],[-103.849754309,23.862565981301323],[-103.85311234899997,23.874615551301048],[-103.830795949,23.907798751300366],[-103.82329184999999,23.953004151299353],[-103.81835982899997,23.964908601299065],[-103.83394656899998,23.96964229129899],[-103.83754902899994,23.964081001299103],[-103.83879928899995,23.964824351299086],[-103.85027577899996,23.988837431298524],[-103.87238657899996,24.00702172129814],[-103.84782597899999,24.003236151298236],[-103.843128849,24.026967121297684],[-103.83222450899996,24.02398042129774],[-103.81327411899998,24.021973581297814],[-103.81028151899996,24.04009194029745],[-103.79977033899996,24.05056446129721],[-103.79761148899998,24.049460971297247],[-103.760029999,24.077245751296623],[-103.69522973999995,24.130291749295417],[-103.66036154999995,24.149326289295008],[-103.63596953999996,24.110293379295868],[-103.62200667999998,24.117464689295744],[-103.60576554000001,24.151154479295],[-103.57955822999998,24.178458019294396],[-103.58097185999998,24.17958328929435],[-103.56606430999996,24.18522431929422],[-103.55953634999999,24.19378885929405],[-103.55925834999994,24.198411449293943],[-103.56310594999998,24.20360661929386],[-103.56283747999998,24.206131139293756],[-103.56537510999999,24.207996519293747],[-103.56552308999996,24.211406919293687],[-103.56191237999997,24.222938999293422],[-103.56257794999999,24.231107369293266],[-103.55649277999999,24.242003979293],[-103.56158639999995,24.249959379292836],[-103.56300341999997,24.257314109292665],[-103.56466217999998,24.257300719292665],[-103.56474973999997,24.260121289292595],[-103.56641774999997,24.261106909292547],[-103.56744387999998,24.270266509292387],[-103.56879594999998,24.270763829292402],[-103.56741990999996,24.276861879292262],[-103.56834993999998,24.28637125929204],[-103.55885881999997,24.287507859292024],[-103.54769677999997,24.291456349291916],[-103.53781552,24.290359309291947],[-103.53124325,24.293908999291865],[-103.52375756999999,24.288959429291953],[-103.51444353999995,24.286790979291997],[-103.51283325999998,24.288965969291986],[-103.50675541999999,24.287964049291975],[-103.50665084999997,24.29096604929195],[-103.50429121999997,24.292202349291873],[-103.50454726,24.29576931929181],[-103.48500177999996,24.300930489291712],[-103.48601790999999,24.30494304929165],[-103.48492925999994,24.30867565929156],[-103.48685814999999,24.310678679291478],[-103.48406262999998,24.318340939291332],[-103.47168717999995,24.321574429291264],[-103.46788261999995,24.319795859291318],[-103.46269671999994,24.320468579291312],[-103.45827597999995,24.32734028929114],[-103.44834004999996,24.332600459291022],[-103.44726753999998,24.336530539290955],[-103.44893017999999,24.33861576929089],[-103.44236791999998,24.342069169290838],[-103.44133057,24.341279259290864],[-103.43680985999998,24.347049519290696],[-103.43786428999994,24.34938241929066],[-103.43573596999994,24.35503474929056],[-103.43052251999997,24.360146229290436],[-103.43117559999996,24.361992259290364],[-103.42795087999997,24.37189897929015],[-103.42977741999995,24.374377349290107],[-103.42537691999996,24.379393349290005],[-103.42802728999999,24.38655850928984],[-103.42514894,24.387856369289835],[-103.43002986,24.399108219289612],[-103.43035861999999,24.401357169289525],[-103.42835348999996,24.403089719289476],[-103.43023702999994,24.408909149289382],[-103.42893322999998,24.411678279289315],[-103.42567385999996,24.412976449289264],[-103.42533807999996,24.415296599289203],[-103.42161928999998,24.416587629289204],[-103.42220922999996,24.420920859289083],[-103.41995232,24.421893089289064],[-103.42192691999998,24.424212819289032],[-103.41988888999998,24.425478859289008],[-103.41933239999997,24.430488089288897],[-103.41551447999996,24.42806644928898],[-103.41325453999997,24.429002349288965],[-103.40981447999997,24.42628188928899],[-103.40992739999997,24.428547289288925],[-103.40624939999998,24.42779151928894],[-103.40592901999997,24.429604769288893],[-103.39919505999997,24.428832279288937],[-103.39974886,24.43277867928887],[-103.39405637999995,24.432099289288875],[-103.38760504999999,24.427461599288993],[-103.38620479999997,24.422964719289055],[-103.33004213999999,24.42816005928894],[-103.32392877999997,24.426505629289004],[-103.32202622999995,24.428381199288953],[-103.31650308999997,24.428994229288953],[-103.31040331999998,24.433931659288817],[-103.31025019999998,24.435657849288784],[-103.30835590999999,24.433451849288815],[-103.30747002999999,24.434959629288795],[-103.30608936999994,24.432687249288875],[-103.30539530999994,24.434456079288836],[-103.30438019999997,24.432508089288863],[-103.29836261999999,24.430184169288932],[-103.29096757999997,24.43176890928889],[-103.28879947999997,24.4292717092889],[-103.28264548,24.42883702928896],[-103.28073053999998,24.430814429288898],[-103.28029530999999,24.42973054928892],[-103.27381625999999,24.43171571928888],[-103.27282074999994,24.430680919288893],[-103.27149308999999,24.43332496928884],[-103.26451907999996,24.43458091928879],[-103.26176502,24.44054644928869],[-103.25353177999996,24.447253799288553],[-103.24527739999996,24.44498985928862],[-103.24287782999994,24.439934969288668],[-103.23798653999995,24.43555036928879],[-103.23397954999996,24.435838229288795],[-103.23362853999998,24.4307303092889],[-103.23693331999999,24.43059097928889],[-103.23663564999998,24.427056599289003],[-103.23365551999996,24.427162979288976],[-103.23377654999997,24.42350090928904],[-103.22682556999997,24.423810889289022],[-103.22724847999996,24.42038921928913],[-103.22224622999995,24.42059368928911],[-103.22283353999995,24.41710276928918],[-103.21788779999997,24.417209919289206],[-103.21733185999996,24.42081082928911],[-103.20241077999998,24.421374859289124],[-103.20209150999995,24.42446913928902],[-103.18728456999997,24.423288449289043],[-103.18195341999997,24.41989657928914],[-103.18185468999997,24.424165579289067],[-103.17545685999994,24.43326099928887],[-103.16525892,24.43519842928883],[-103.15772581999994,24.42784062928897],[-103.14518602,24.42673151928897],[-103.14606059999994,24.427395309288983],[-103.13950925999995,24.428470919288948],[-103.13170882999998,24.42467699928901],[-103.09852727999998,24.401626599289525],[-103.08751464999996,24.4360270492888],[-103.07508096999999,24.422624579289064],[-103.04315021999999,24.46650085928813],[-102.9835728,24.43325714928883],[-102.96744016999997,24.457703629288282],[-102.90010650999994,24.428500479288928],[-102.9017922,24.435713779288815],[-102.89507921999996,24.441341659288646],[-102.89487591999995,24.450350709288486],[-102.89042735,24.451474259288446],[-102.89425088999997,24.458383849288325],[-102.89189094999995,24.461118119288223],[-102.87758771999995,24.44940004928851],[-102.87491325999997,24.450962089288485],[-102.87377337,24.449999779288476],[-102.86409574,24.43643705928878],[-102.86062091999997,24.434492349288792],[-102.86181750999998,24.430115459288878],[-102.86501268999997,24.43031207928894],[-102.85858259999999,24.422926829289064],[-102.85389204999997,24.42435914928902],[-102.84590276999997,24.39808257928961],[-102.83404482999998,24.390108549289756],[-102.83173561999996,24.384691909289916],[-102.82217602999998,24.386567569289866],[-102.8167878,24.389915769289807],[-102.81241554999998,24.38949442928982],[-102.80109722999998,24.398460969289584],[-102.79757654999997,24.39872334928961],[-102.79199064999995,24.405402139289436],[-102.78885239999994,24.406248479289417],[-102.78107750999999,24.40273162928951],[-102.77916450999999,24.400144579289577],[-102.77935194999998,24.395802489289654],[-102.76444545999999,24.38702156928985],[-102.76507719999995,24.3847061492899],[-102.76363051999999,24.382618399289957],[-102.75909951999996,24.38064441929],[-102.75665431999995,24.376982999290064],[-102.75160008999995,24.375826849290107],[-102.73801276999997,24.377453319290034],[-102.72202721999997,24.37536277929009],[-102.71437301999998,24.37821684929004],[-102.70881295,24.377838059290035],[-102.70398678,24.374132539290134],[-102.69990439999998,24.373971849290115],[-102.69904311,24.376248249290086],[-102.66235859999995,24.381576629289953],[-102.65966944999997,24.385904909289895],[-102.65506330999996,24.388603709289804],[-102.61856430999995,24.39637839928965],[-102.61181447999998,24.399955309289563],[-102.60729902999998,24.405399219289446],[-102.60659276999996,24.41116881928932],[-102.53393142,24.40772210928941],[-102.52670188999997,24.416227059289202],[-102.52279225999996,24.41524711928925],[-102.52014630999997,24.42393213928903],[-102.49214908999994,24.42558064928899],[-102.48026727999996,24.42801387928895],[-102.47510282999997,24.438900259288697],[-102.47269697999997,24.439679739288678],[-102.47312687999994,24.445214779288612],[-102.47918619999996,24.44376270928861],[-102.48699621999998,24.444228379288585],[-102.47980696999998,24.490448049287618],[-102.49464142999996,24.612555219284978],[-102.51218230999996,24.709721109282874],[-102.54918188,24.829935579280313],[-102.56537288999999,24.86635541927955],[-102.56623577999996,24.90222074927876],[-102.67306156999996,24.942752079277923],[-102.67298444999994,24.978818249277186],[-102.64295554999995,24.97864816927716],[-102.63382805999998,24.999553949276727],[-102.63554291999998,25.00416908927664],[-102.62888482999995,25.008321659276525],[-102.64300188999995,25.027812829276154],[-102.64954536999994,25.0279557992761],[-102.65344385999998,25.040682709275863],[-102.65242208999996,25.045229059275762],[-102.66969397999998,25.06663648927533],[-102.85313071999997,24.772000949281573],[-102.85640277999995,24.739773969282243],[-102.86969885999997,24.74206665928218],[-102.87512893999998,24.748870059282062],[-102.88309813999996,24.75043553928204],[-102.88626465999994,24.758211969281852],[-102.89052301999999,24.76028604928179],[-102.89549317999996,24.766026769281687],[-102.90024006,24.764724339281717],[-102.90746727999999,24.76788445928166],[-102.91603539999996,24.77610636928145],[-102.92167490999998,24.773089339281555],[-102.92299093999998,24.780218879281396],[-102.93260797999996,24.77804031928144],[-102.93566327999997,24.7801015792814],[-102.93737236999999,24.777745019281436],[-102.94914474999996,24.779705939281385],[-102.96361890999998,24.7881120292812],[-102.96491819999994,24.7940085492811],[-102.97456757999998,24.792808319281132],[-102.97407739999994,24.79820610928098],[-102.97521539999997,24.79946365928099],[-102.98739494999995,24.797033829281013],[-102.99081082999999,24.794037619281074],[-102.99653093999997,24.795028029281035],[-103.00136497999995,24.798380259280986],[-103.00212461999996,24.794236289281113],[-103.00513801999996,24.79321814928109],[-103.01115848999996,24.796407579281038],[-103.01506694999995,24.800950749280922],[-103.02181931999996,24.799936149280974],[-103.03110845999998,24.807165479280787],[-103.03335524999994,24.81084016928075],[-103.03786668,24.811431449280715],[-103.04308508999998,24.809459259280754],[-103.04814656999999,24.811253479280733],[-103.04963208,24.809821739280775],[-103.05374471999995,24.80994354928077],[-103.06884714999995,24.818559149280564],[-103.08912261999996,24.82119351928052],[-103.09294690999998,24.822861429280476],[-103.25914588999996,24.964658769277456],[-103.25821307999996,24.96893762927734],[-103.25264679999998,24.97017428927734],[-103.25002134,24.97884388927718],[-103.24536378,24.982462799277098],[-103.24567642999996,24.989769229276916],[-103.24865808999999,24.99252496927685],[-103.24656307999999,24.996026599276796],[-103.25459684999998,25.004031599276647],[-103.27046953999997,25.01565959927639],[-103.27403416999994,25.020902489276246],[-103.27405396999997,25.02335988927622],[-103.26748933999994,25.028043719276102],[-103.27031739999997,25.03195137927605],[-103.27801522,25.03461416927599],[-103.27451498,25.038334569275936],[-103.26945199999994,25.04024245927587],[-103.27446462999997,25.045947719275766],[-103.26878888999995,25.049143319275668],[-103.26957730999999,25.05489382927553],[-103.26785692,25.055781289275508],[-103.26523874999998,25.053744339275557],[-103.26150631999998,25.054168249275552],[-103.26218034,25.058549309275477],[-103.27109219999994,25.060430139275432],[-103.27423933999997,25.06459427927535],[-103.27823144999996,25.0629694292754],[-103.28429011999998,25.067733979275307],[-103.29124131999998,25.07053327927523],[-103.29280601999994,25.077886799275063],[-103.29500637999998,25.07997836927503],[-103.30196394999996,25.083278459274936],[-103.31244913999996,25.08506908927491],[-103.31823850999996,25.08894894927482],[-103.32227331999997,25.094289799274744],[-103.32671687999999,25.094443289274732],[-103.33722593999994,25.099126979274622],[-103.33999779999999,25.10229324927455],[-103.33928095,25.107120219274474],[-103.34266238,25.110329419274358],[-103.34607431999997,25.11068121927439],[-103.35144174999999,25.107218949274465],[-103.35953930999996,25.11002884927439],[-103.37039716999999,25.124006429274107],[-103.37714184999999,25.142049169273726],[-103.38247911999997,25.144914819273648],[-103.38319190999994,25.14919085927356],[-103.38865242999998,25.154621679273454],[-103.39429041999996,25.15773562927339],[-103.39273213999998,25.15953319927336],[-103.39739870999995,25.163852619273275],[-103.39645167999998,25.16578162927319],[-103.39890653999998,25.170789969273102],[-103.39820173999999,25.175483909272995],[-103.40285777999998,25.18234890927286],[-103.40923691999996,25.182385349272874],[-103.40941719999995,25.18502236927284],[-103.41832121999994,25.192005949272676],[-103.41842741999994,25.19637970927256],[-103.42319237,25.19804285927254],[-103.42579594999995,25.201539289272443],[-103.43220851999996,25.19952404927249],[-103.43664071999997,25.202657399272475],[-103.43868156999997,25.201958799272468],[-103.44570987999998,25.21041202927227],[-103.45006257999995,25.219054089272095],[-103.44875425999999,25.224000289271995],[-103.45021373999998,25.228614909271887],[-103.46054828999996,25.233666369271784],[-103.46166816999994,25.23706896927172],[-103.46623394999996,25.238680379271695],[-103.46566041999995,25.241166419271647],[-103.46838330999998,25.241954659271606],[-103.47318436999996,25.25010767927145],[-103.47677767999994,25.250014029271455],[-103.48656842999998,25.25386562927138],[-103.49125373999999,25.25245270927141],[-103.49672010999996,25.255748519271332],[-103.49846867999997,25.26328291927117],[-103.50383482999996,25.27465408927096],[-103.51071004999994,25.27912611927085],[-103.50738662999998,25.284350289270765],[-103.50935168999997,25.291462569270617],[-103.50617308999996,25.293297649270553],[-103.50217679999997,25.291973109270597],[-103.49767042999997,25.295149249270516],[-103.49574288999999,25.311109459270195],[-103.48578611,25.31483585927012],[-103.47925014999998,25.32392477926989],[-103.47973091999995,25.326187479269862],[-103.48646142999998,25.330750679269766],[-103.48648331999999,25.332861829269742],[-103.48042047999996,25.3343366292697],[-103.47871571999997,25.338184999269625],[-103.47087063,25.34527828926948],[-103.46915405999994,25.350141399269344],[-103.46621662999996,25.352348169269295],[-103.46588371999997,25.359838369269138],[-103.46108759999998,25.370646089268917],[-103.46205936999996,25.376310939268816],[-103.45757331,25.37613056926882],[-103.45792041999994,25.378061249268757],[-103.44796930999998,25.38108317926875],[-103.44493710999996,25.38402205926867],[-103.43318582999997,25.386389230268627],[-103.42988051999998,25.388993019268547],[-103.42453259999998,25.389980340268544],[-103.420019719,25.394224970268414],[-103.41694448899995,25.39371915026843],[-103.40920659999995,25.39619428926839],[-103.40669916999997,25.398901399268354],[-103.39734622999998,25.39532393926839],[-103.39049504999998,25.39739257926836],[-103.38046171999999,25.390956449268497],[-103.37221714999998,25.39039104926854],[-103.37032753999996,25.393661379268423],[-103.36551942999996,25.39315627926844],[-103.35790699999995,25.38485499926867],[-103.35747689,25.381631429268687],[-103.35122841999998,25.372977349268876],[-103.34185110999994,25.370352479268952],[-103.33691619999996,25.371231139268932],[-103.33763247999997,25.397181849268378],[-103.34136771999995,25.410142229268146],[-103.35102133999999,25.41034502926809],[-103.36906199999999,25.416460719267963],[-103.39065128999994,25.434591149267636],[-103.39874764999998,25.450600379267243],[-103.42803008,25.475254579266775],[-103.43572854999996,25.479073979266705],[-103.47577896999998,25.517458119265914],[-103.47509501999997,25.518332979265843],[-103.48471136899997,25.529449059265634],[-103.49441428999995,25.537731799265494],[-103.46956082999998,25.546437230265262],[-103.45544474999997,25.55706144926506],[-103.45143207999996,25.565480399264914],[-103.45262630999997,25.575279060264698],[-103.45099068999997,25.578933689264606],[-103.44675151999996,25.58167531026454],[-103.43804957999998,25.581500029264543],[-103.43536653999998,25.582777539264534],[-103.43329984999998,25.588082059264416],[-103.43843604899996,25.594315169264316],[-103.43840581999996,25.59664327926422],[-103.42962444899996,25.59891668926422],[-103.42685022999996,25.612090029263932],[-103.41602525999997,25.6144215992639],[-103.41754105999998,25.617163019263863],[-103.42495402999998,25.61998564926377],[-103.42477011999996,25.62367991926367],[-103.42054208999997,25.62566371926364],[-103.41290422999998,25.624503579263692],[-103.40327557999996,25.628128289263618],[-103.40323061999999,25.631933719263532],[-103.4087358,25.639672149263337],[-103.40600324999997,25.645027149263235],[-103.39867190999996,25.64590387926323],[-103.38586701999998,25.640408049263378],[-103.38142222999994,25.640342339263373],[-103.38304092,25.65531739926306],[-103.37063893999999,25.66488927926286],[-103.36476236999994,25.671970799262702],[-103.35948633999999,25.688862089262347],[-103.34921370999997,25.693443939262266],[-103.35499085999999,25.699860029262098],[-103.34118585999995,25.705021419262007],[-103.33943688999994,25.707604819261935],[-103.35283605999996,25.71655308926178],[-103.35071721999999,25.71922476926171],[-103.34028917999997,25.724034479261626],[-103.33370521799998,25.738736108261335],[-103.32639341899994,25.76044549026088],[-103.32674781899999,25.772415550260643],[-103.325391799,25.781091909260454],[-103.32305630899998,25.783736399260423],[-103.32319264899998,25.79217831926025],[-103.32114904999999,25.797967369260103],[-103.32276896899998,25.79804815026011],[-103.32303110899996,25.799929429260107],[-103.31935188999995,25.804648740259974],[-103.31858765899995,25.81270128925983],[-103.32288904799998,25.825082309259546],[-103.33166659999995,25.831663019259445],[-103.336006119,25.838737079259282],[-103.3369752,25.843935909259148],[-103.34371491899998,25.851228218259042],[-103.346360109,25.86030438025884],[-103.35048821899994,26.14238995025313],[-103.26082525999999,26.28472681925028],[-103.31679259999999,26.361776180248725],[-103.37418348999996,26.602354889243987],[-103.63698243,26.693435769242196],[-103.64389144999996,26.690158489242233],[-103.65825599899995,26.719483949241653],[-103.68202045999999,26.721569739241644],[-103.86129848999997,26.75409456924101],[-103.86129741999997,26.750420819241054],[-103.88118828999995,26.754918019240964],[-103.92775341999999,26.752729649241015],[-103.93257747999996,26.753994979241014],[-103.99383282999997,26.753610419240978],[-103.99388373999994,26.776362849240567],[-103.99499548999995,26.777540259240496],[-104.03319061999997,26.774391489240575],[-104.04160408999996,26.74963205924109],[-104.04573781999994,26.742976539241187],[-104.05693321999996,26.748158289241104],[-104.18393588999999,26.773571999240616],[-104.22780884999999,26.777153629240537],[-104.22767128,26.77930767924049],[-104.25139639999998,26.808996479239934],[-104.25120154999998,26.811547429239898],[-104.26139398,26.83038048923949],[-104.26746969,26.83803125923934],[-104.27110661999996,26.838869769239306],[-104.27304241999997,26.842279519239256],[-104.28188239999999,26.835643819239376],[-104.28086854999998,26.831030319239467],[-104.28361924999997,26.825314149239603],[-104.28884868999995,26.82049974923972],[-104.29488805999996,26.817751019239758],[-104.28750489,26.81673487923979],[-104.28616148999998,26.815204819239828],[-104.29153831999997,26.815767819239813],[-104.29355254999996,26.811307139239865],[-104.30914133999994,26.80522976923998],[-104.31530656999996,26.799069519240106],[-104.30952930999997,26.79351882924021],[-104.30531547999999,26.792891799240248],[-104.30682304999999,26.788759939240297],[-104.30323584999998,26.783808849240433],[-104.30176193999996,26.77194856924066],[-104.31727959999995,26.760736749240845],[-104.31150964999996,26.75629404924096],[-104.30432504999999,26.755418909240962],[-104.29975971999994,26.75194553924104],[-104.29032214999997,26.73619807924135],[-104.28654347999998,26.725402999241535],[-104.29692813999999,26.717918199241684],[-104.30679533999995,26.7071681692419],[-104.30578025999995,26.700674289242038],[-104.31047841999998,26.694331539242175],[-104.33038742999999,26.656532919242935],[-104.37542254,26.640716489243218],[-104.38563144999995,26.632295709243383],[-104.39528121999996,26.628882059243423],[-104.43477524999997,26.604520539243946],[-104.44005605999996,26.596586939244105],[-104.44467570999997,26.58326464924434],[-104.45090043,26.571588549244584],[-104.45546914999994,26.54924488924503],[-104.46855544999995,26.520341449245596],[-104.47147506,26.517559079245654],[-104.47290947999994,26.51155531924579],[-104.47897905999997,26.500431679246002],[-104.48411157,26.494655999246124],[-104.49589931999998,26.466859309246676],[-104.50282862999995,26.465845919246664],[-104.50143599999996,26.44958287924698],[-104.49696202999996,26.44356734924708],[-104.49540176999994,26.433418949247294],[-104.49622244999996,26.426390549247454],[-104.50097437999996,26.4147574292477],[-104.57445147999994,26.34046827924915],[-104.59385648999996,26.380439649248345],[-104.62008857999996,26.368842649248567],[-104.62613325999996,26.371554419248532],[-104.62775768999997,26.374388419248493],[-104.62682444999997,26.376887049248435],[-104.63476416999998,26.380748169248367],[-104.64531754999996,26.391612279248154],[-104.65407537999995,26.391053019248176],[-104.66223461999999,26.409338549247767],[-104.67020787999996,26.41208837924774],[-104.67198814999996,26.415469749247666],[-104.66877079999995,26.418563859247616],[-104.67411829099996,26.421139489247537],[-104.67390251999996,26.42318779924752],[-104.67785174999995,26.42797285924744],[-104.67729341999996,26.42933307924738],[-104.68687377999998,26.433190319247306],[-104.68660065999995,26.435567969247302],[-104.70462057999998,26.453139119246924],[-104.70968621999998,26.45588811924688],[-104.71182239999996,26.465062629246667],[-104.72175348999997,26.469274429246592],[-104.72703633999998,26.47796491924641],[-104.73122442999994,26.48004577924641],[-104.73717179999996,26.4793966292464],[-104.73788482999998,26.481051749246383],[-104.73656382999998,26.482122219246364],[-104.73921547999998,26.483024829246308],[-104.74784207999996,26.492447199246165],[-104.76095605999997,26.48581871924627],[-104.77691064999999,26.492595769246122],[-104.79122579999995,26.504561079245885],[-104.79461216999994,26.50386937924589],[-104.80927413999996,26.50849741924579],[-104.85210351999997,26.505635689245906],[-104.85502182999996,26.505101819245894],[-104.85658322999996,26.50286884924591],[-104.85896404999995,26.503332779245923],[-104.85893899999996,26.505294819245904],[-104.86054334999996,26.505767349245865],[-104.87046547999995,26.504172939245898],[-104.87363424999997,26.507960459245837],[-104.87584468999997,26.50554608924589],[-104.89890031999994,26.51001830924582],[-104.90855071999994,26.50549919924586],[-104.91825168999999,26.493843399246117],[-104.93225849,26.48751264924623],[-104.93672991999996,26.483711579246293],[-104.94031707999996,26.47939270924642],[-104.93893862999994,26.475967059246493],[-104.94078814999996,26.47632990924647],[-104.94181250999998,26.473464579246507],[-104.94388528999998,26.472987279246524],[-104.94437667999995,26.4683446892466],[-104.96321517999996,26.47339091924652],[-104.96959185999998,26.465952289246687],[-104.96539321999997,26.463035089246727],[-104.95986031999996,26.464989829246672],[-104.95623904999998,26.462844679246725],[-104.95844727999999,26.45936696924682],[-104.95754762999997,26.455807969246838],[-104.96072609,26.45398164924692],[-104.96310359999997,26.449184349247002],[-104.96534095,26.45038968924699],[-104.96616099999996,26.44830633924701],[-104.97374979999995,26.453039739246933],[-104.98012130999996,26.45099247924693],[-104.98104614999995,26.454352939246878],[-104.98730947999996,26.45217225924694],[-104.99231776999994,26.45653468924687],[-104.99995821999994,26.45386767924688],[-105.00038936999995,26.454950829246865],[-105.00557956999995,26.448475739247016],[-105.00977141999999,26.44862767924703],[-105.01275216999996,26.446199199247037],[-105.01502157999995,26.448282509247036],[-105.01639811999996,26.445359169247094],[-105.02390456999996,26.441736549247114],[-105.02706910999997,26.436942059247226],[-105.02935948,26.437718199247236],[-105.03258993999998,26.434377289247294],[-105.03733968999997,26.435756939247245],[-105.04645368999998,26.432641619247306],[-105.04897002999998,26.429659689247384],[-105.05257781999995,26.42976457924737],[-105.05663402999994,26.41930053924759],[-105.10154954999996,26.52140551924555],[-105.26468257999994,26.46207274924675],[-105.27060582999997,26.466455769246632],[-105.26883803,26.471438259246575],[-105.27064549,26.47541948924646],[-105.26946334999998,26.47976373924641],[-105.27508371999996,26.485600569246262],[-105.27908187999998,26.48747536924622],[-105.28993361999994,26.488111119246224],[-105.29218021999998,26.4844143392463],[-105.29163214999994,26.480889859246364],[-105.29845687999995,26.48201824924635],[-105.30224476999996,26.475605679246488],[-105.30192696999995,26.472445679246565],[-105.30510579999999,26.472617879246517],[-105.30863842999997,26.46968156924657],[-105.31280427999997,26.47145979924655],[-105.31548168999996,26.470347909246577],[-105.31675242999995,26.46228677924674],[-105.33398550999999,26.469359089246623],[-105.33824717999994,26.473871689246526],[-105.33875365999995,26.4780501792464],[-105.34203257999997,26.47947259924641],[-105.34461584999997,26.477381229246436],[-105.35276537,26.47887647924641],[-105.35716159999998,26.485618059246264],[-105.35452391999996,26.49261717924611],[-105.35095876999999,26.497899109246024],[-105.34270610999995,26.504515509245884],[-105.34854454999999,26.50550084924587],[-105.34953830999997,26.508720289245815],[-105.34802588999999,26.512489849245757],[-105.35574794999998,26.521846509245556],[-105.35629024999997,26.524723229245506],[-105.36252707999995,26.532024309245358],[-105.36541234999999,26.531452619245353],[-105.36862468,26.534269449245325],[-105.37283473999997,26.5296645992454],[-105.38198881999996,26.52918710924543],[-105.38587714,26.524663859245493],[-105.38492965999995,26.522832349245533],[-105.38872968999999,26.524063109245517],[-105.39335605999997,26.52317294924554],[-105.39680124999995,26.52180061924559],[-105.39886668999998,26.51883567924562],[-105.40342756999996,26.51752465924564],[-105.40730247999994,26.520464979245585],[-105.41649585,26.520581029245605],[-105.43056251999997,26.52382948924549],[-105.43860204999999,26.528344749245417],[-105.44254731999997,26.52732879924548],[-105.44441097999999,26.52907839924542],[-105.44693324999997,26.527212619245457],[-105.45024577,26.528580399245442],[-105.45073579999998,26.527183939245443],[-105.45310219999999,26.527062319245424],[-105.45589868999998,26.529719319245377],[-105.45912541999998,26.52960701924542],[-105.46759116999999,26.526051519245488],[-105.47014241999995,26.527898049245426],[-105.47438705999997,26.526379259245466],[-105.46862553999996,26.517323649245633],[-105.46793274999999,26.51105684924577],[-105.47151397999994,26.50870167924583],[-105.48087770999996,26.512889519245732],[-105.48244844999999,26.51685047924569],[-105.49021828999999,26.519265509245585],[-105.49174561999997,26.523512799245523],[-105.49562901999998,26.525631079245482],[-105.49657193999998,26.528755779245415],[-105.49542025999995,26.529120779245392],[-105.49722744999998,26.53063030924538],[-105.49497411999994,26.5357568792453],[-105.49608531999996,26.542851879245152],[-105.54900302999994,26.546578579245097],[-105.61948725999999,26.683509449242354],[-105.60101005999996,26.614848889243746],[-105.60936730999998,26.613732259243758],[-105.63251565999998,26.61968877924362],[-105.64089297999999,26.61999619924363],[-105.64044144999998,26.613557319243743],[-105.63720281999998,26.609141879243825],[-105.64553331999998,26.6166099692437],[-105.67488305999997,26.617670309243664],[-105.67094799999995,26.635226459243338],[-105.67659247999995,26.63580961924329],[-105.67537084999998,26.636963109243297],[-105.67843907999998,26.643888709243164],[-105.68034439999998,26.644984379243134],[-105.68270774999998,26.65053062924301],[-105.68988004999996,26.657188849242914],[-105.70479876899998,26.652907689242983],[-105.72890796999997,26.6978960592421],[-105.73496357999996,26.68481961924234],[-105.73507902999997,26.69207990924223],[-105.73818173999996,26.693625049242158],[-105.73950642999995,26.70147616924202],[-105.74561850999999,26.705945999241926],[-105.74442752,26.707341479241887],[-105.74634184999996,26.713868579241772],[-105.75001791999996,26.714055229241765],[-105.75467391999996,26.711164879241853],[-105.76150471999996,26.71288434924177],[-105.76966608999999,26.707234689241922],[-105.78130499999999,26.707454649241903],[-105.78776261999998,26.703797619241975],[-105.79141342999999,26.69800627924211],[-105.79426128999995,26.698767259242093],[-105.77580867999995,26.66093313924282],[-105.81455288999997,26.69096690924222],[-105.86543745999995,26.747375859241096],[-105.87454224999999,26.738575739241284],[-105.89410173999994,26.74100948924128],[-105.89833696999995,26.763853879240806],[-105.90693437,26.753085659241027],[-105.90860608999998,26.752837819240984],[-105.91397508999995,26.758195909240907],[-105.92810701999997,26.765931969240764],[-105.93757253999998,26.766675259240742],[-105.93919350999994,26.763215519240834]]]}}]}
