{"type":"FeatureCollection","features":[{"type":"Feature","properties":{"cve_ent":"11","cvegeo":"11","nombre_inegi":"Guanajuato","nombre_catalogo":"Guanajuato"},"geometry":{"type":"Polygon","coordinates":[[[-101.36145994999998,21.839120779347834],[-101.40700350999998,21.83145517934802],[-101.42266893999994,21.824962939348186],[-101.45358588,21.82669177934814],[-101.45507233999996,21.82995853934808],[-101.4640614,21.820225029348336],[-101.46596324999997,21.82705879934812],[-101.47387339999995,21.827391019348138],[-101.53883216999999,21.77733487934935],[-101.56020554999998,21.779901749349296],[-101.58569407999994,21.778777119349275],[-101.58480513999996,21.77162636934944],[-101.58225779999998,21.77265256934944],[-101.57968279999996,21.736404599350323],[-101.56627962999994,21.733412569350374],[-101.55765328999996,21.735098659350342],[-101.57085536999996,21.70430771935105],[-101.57119641999998,21.706416689351],[-101.57814601999996,21.711888969350916],[-101.58404331999998,21.709574489350917],[-101.58025164999998,21.703489919351075],[-101.57344662999999,21.69939334935118],[-101.57199436999997,21.695222649351294],[-101.57014437999999,21.69627804935126],[-101.56913897999999,21.692310259351363],[-101.57784707999997,21.67698110935172],[-101.58258150999997,21.67261299935185],[-101.58250744999998,21.6706531393519],[-101.58482624999999,21.670211569351885],[-101.58142802999998,21.666998449351972],[-101.58448844999998,21.662209179352086],[-101.58325144999998,21.65670461935219],[-101.58896968999994,21.652026029352346],[-101.59301559999996,21.639493739352613],[-101.59608608999997,21.6370619093527],[-101.59476422999997,21.634718509352705],[-101.59565341999996,21.633067019352783],[-101.58436059999998,21.631073149352847],[-101.58018873999998,21.62553133935298],[-101.58397679999996,21.621204979353084],[-101.58342173999995,21.613977339353262],[-101.58602362999994,21.607809629353426],[-101.59352122999996,21.6114831793533],[-101.59526467999996,21.61000376935333],[-101.59697039999998,21.605801519353435],[-101.59524458,21.603492149353464],[-101.59577405999994,21.60031499935353],[-101.60096568999997,21.593392169353766],[-101.60286808999997,21.593883719353734],[-101.60524750999997,21.588917429353828],[-101.60713319999998,21.58836699935387],[-101.60788421999996,21.584049719353967],[-101.61098062999997,21.58531599935391],[-101.61231331999994,21.582916889353974],[-101.61040670999995,21.581166939354034],[-101.61215617999994,21.575335579354167],[-101.60648562999995,21.574327149354186],[-101.60654630999994,21.563872249354432],[-101.60997825,21.563015119354457],[-101.60725651999996,21.562011739354496],[-101.61043821999999,21.55873733935457],[-101.61724657999997,21.557452119354597],[-101.61607029,21.554373749354653],[-101.62189317999997,21.550918709354775],[-101.61913767999994,21.54609782935488],[-101.62356344999996,21.546172709354888],[-101.62231433999996,21.54260205935494],[-101.62000801999994,21.54106896935497],[-101.62605141999997,21.534571219355122],[-101.62962796999994,21.535088349355107],[-101.63003277999996,21.53232701935517],[-101.63585056999995,21.53242573935521],[-101.64045833999995,21.528630059355304],[-101.64116628999996,21.52226673935547],[-101.63936374999997,21.517141169355572],[-101.64026102999998,21.513625679355673],[-101.63243145999998,21.519054169355535],[-101.62697854999999,21.513561309355655],[-101.62690934999996,21.509844779355728],[-101.58904197999999,21.46489996935681],[-101.58847787999997,21.460593029356914],[-101.59004224999995,21.456777419357017],[-101.58670649,21.45258291935713],[-101.59010916999995,21.450159659357176],[-101.58995091999998,21.44558088935727],[-101.58789173999999,21.44240521935739],[-101.58187252,21.44780941935724],[-101.58255359999998,21.44423090935732],[-101.58014887999997,21.435925339357514],[-101.58220643,21.433292539357563],[-101.58004904999997,21.432877619357605],[-101.58042391999999,21.428279689357726],[-101.57334434999996,21.41969302935794],[-101.57041562999996,21.418535749357936],[-101.57874927999997,21.41843967935796],[-101.58913933999997,21.415131479358035],[-101.59689185999997,21.42097927935787],[-101.60025648999999,21.420541339357893],[-101.60612204999995,21.416959349358],[-101.60663414,21.414965919358014],[-101.61881688999996,21.415387519357992],[-101.63094422999995,21.407313079358207],[-101.63840627999997,21.410002289358122],[-101.65101410999995,21.406901779358236],[-101.65851585999998,21.40680019935825],[-101.66875661999997,21.401844049358314],[-101.67037794,21.402345749358332],[-101.67191388999998,21.398224399358433],[-101.67758294999999,21.395142369358474],[-101.67948628999994,21.389506369358635],[-101.67750179999996,21.388165289358692],[-101.67623173999999,21.389812019358605],[-101.67535945999998,21.386720339358725],[-101.67247556999996,21.386515619358725],[-101.66874347999999,21.380913549358862],[-101.65561722999998,21.373282829359034],[-101.65465654999998,21.370124349359084],[-101.65161157999995,21.369646149359127],[-101.65158575,21.365270279359244],[-101.64284491999996,21.35510608935947],[-101.64469422999997,21.339636179359875],[-101.64657307999994,21.33806054935987],[-101.64538784999996,21.33440173935997],[-101.64609976999998,21.325804709360188],[-101.64313627999996,21.32200519936026],[-101.64091371999996,21.31473864936044],[-101.64125979999994,21.304083429360716],[-101.64317710999997,21.29933568936086],[-101.65401908999996,21.29594682936091],[-101.65848448999998,21.289567659361065],[-101.65994657999994,21.289559949361085],[-101.65944887999997,21.288195319361108],[-101.66285287999995,21.28657990936114],[-101.67621554999995,21.288354859361068],[-101.68667541999997,21.294059849360952],[-101.69772970999998,21.283845419361185],[-101.69893416999999,21.27777168936136],[-101.70200537999995,21.275462879361424],[-101.70717197999996,21.276475319361364],[-101.70937674,21.28072564936126],[-101.73578789,21.277292229361375],[-101.73687056999995,21.270048089361538],[-101.73853511,21.269159599361537],[-101.7426516,21.27143765936151],[-101.74957071999995,21.271993769361487],[-101.75971650999998,21.267621739361587],[-101.75781448999999,21.263683319361686],[-101.75940271999997,21.260613339361793],[-101.76574893999998,21.260095079361772],[-101.76819722999994,21.257732279361814],[-101.75458641999997,21.243888539362175],[-101.76594944999994,21.242231279362215],[-101.77120045,21.234731279362407],[-101.77366822999994,21.223489909362687],[-101.77443476999997,21.196584369363315],[-101.78066473999996,21.191423059363434],[-101.77977379999999,21.184238119363606],[-101.78133461999995,21.181079979363698],[-101.78114456999998,21.175996649363835],[-101.78368207999995,21.171178519363956],[-101.78110877999995,21.160527889364175],[-101.78303731999995,21.15777913936428],[-101.78727139999995,21.15638199936432],[-101.80400914999996,21.16634817936406],[-101.80546534999996,21.16462365936412],[-101.80477625999998,21.158500649364264],[-101.81223468999997,21.15492028936434],[-101.81569776999999,21.149527379364468],[-101.81012068999996,21.148546279364492],[-101.81182599999994,21.141236749364687],[-101.82242270999996,21.135915279364802],[-101.83344801999999,21.13727296936474],[-101.83084591999994,21.119372539365187],[-101.82677547999998,21.122078749365166],[-101.82026784999994,21.118666399365214],[-101.81765879999995,21.107045689365513],[-101.82377727999994,21.10314196936557],[-101.82706289,21.10297622936558],[-101.82797357999999,21.100067539365675],[-101.83671087999994,21.09975605936568],[-101.83748688999998,21.096765429365764],[-101.87125568,21.095324079365803],[-101.87500373999997,21.09289434936585],[-101.87779781999997,21.085433939366006],[-101.87500204999999,21.07587519936626],[-101.87494274999995,21.070085369366435],[-101.89290751999994,21.055828969366747],[-101.89454939999996,21.05124371936687],[-101.90133493999997,21.052963049366845],[-101.90034441999995,21.050148879366898],[-101.89660590999995,21.047751139366966],[-101.90233879999994,21.032130489367315],[-101.90662741999996,21.028817539367395],[-101.90512316999997,21.023401049367568],[-101.90537585,21.011815739367805],[-101.90771988999995,21.006073799367936],[-101.91006994999998,21.00497784936799],[-101.90816847999997,21.004481449368033],[-101.90874633999994,20.99858505936814],[-101.92081027999996,20.98396448936852],[-101.92470597999994,20.983236689368553],[-101.92446248,20.97855381936865],[-101.92569868999999,20.977977519368636],[-101.92221331999998,20.971937999368773],[-101.93138859999999,20.967114909368952],[-101.93106793999999,20.963215489369006],[-101.93478131999996,20.96047014936908],[-101.93323870999996,20.95750427936912],[-101.93714436999996,20.955800859369212],[-101.93914324999999,20.950235769369353],[-101.93783961999999,20.945656519369454],[-101.93947162999996,20.942479419369512],[-101.93819293999998,20.94028802936957],[-101.93912876999997,20.938084249369613],[-101.93721657999998,20.935994029369716],[-101.93814784999995,20.93489662936969],[-101.93681685999996,20.934823399369698],[-101.93839585999997,20.934124619369722],[-101.93894974999995,20.93061424936985],[-101.94208799999996,20.92810027936986],[-101.94487364999998,20.930315169369802],[-101.94393499999997,20.932139619369767],[-101.94616159999998,20.930746339369808],[-101.95787656999994,20.935200829369695],[-101.96310030999996,20.922518029370018],[-101.96463654999997,20.92388759936999],[-101.97988181999996,20.925047549369953],[-101.98109690999996,20.914808779370205],[-101.98800544999995,20.912746749370257],[-101.98915135,20.910171539370342],[-101.99403113999996,20.907724719370368],[-101.99456079999999,20.905366219370464],[-101.99900559999998,20.901792659370546],[-101.99895827999995,20.899788659370603],[-102.00330825999998,20.897673649370628],[-102.00506336999997,20.889976719370814],[-102.00844651999996,20.88537833937093],[-102.01330371999995,20.882732889370995],[-102.01799410999996,20.883284689370967],[-102.01613011999997,20.878276369371093],[-102.01257982,20.878343849371124],[-102.01521916999997,20.874950019371163],[-102.01498567999994,20.869458779371325],[-102.02178053999995,20.862160319371498],[-102.03383105999995,20.85307327937172],[-102.03858501999997,20.84735233937185],[-102.04198385999997,20.846117219371912],[-102.05293274999997,20.84756473937186],[-102.05773531999995,20.84329325937197],[-102.06315177999994,20.84174242937201],[-102.06436885999995,20.83821424937211],[-102.06987648999996,20.839091119372046],[-102.07367788999994,20.837924259372077],[-102.07345313999997,20.83631413937215],[-102.07678803,20.834570739372182],[-102.07643213999995,20.83105161937225],[-102.07815154999997,20.831305449372273],[-102.07986704999996,20.829065079372338],[-102.07617890999995,20.818170649372597],[-102.07772081999997,20.81558905937263],[-102.07698581999995,20.811373689372736],[-102.07861427999997,20.807561229372823],[-102.08129414999998,20.80570868937292],[-102.07994507999996,20.801787059372973],[-102.08520310999995,20.799990029373035],[-102.08709188999995,20.801460519372977],[-102.09029005999997,20.796264309373093],[-102.08974417999998,20.79106857937326],[-102.09225245999995,20.78982576937327],[-102.09590837999997,20.780050519373503],[-102.09051205999998,20.780654249373505],[-102.09085010999996,20.77849534937358],[-102.08659819999998,20.77896033937352],[-102.08252659999995,20.777176219373597],[-102.08108215,20.771507259373756],[-102.07885605999996,20.77405230937367],[-102.07836014999998,20.771844859373715],[-102.07606790999996,20.7721717393737],[-102.07362441999999,20.776770549373584],[-102.06759263,20.772247429373703],[-102.06563888999996,20.766755799373843],[-102.07232551999999,20.759399579374016],[-102.07363331999996,20.74875953937427],[-102.07295642999998,20.747772689374294],[-102.06974597999995,20.74909393937426],[-102.06690479999997,20.747533569374298],[-102.06103964999994,20.74851656937429],[-102.06079557999999,20.74381497937438],[-102.06448730999995,20.738749619374566],[-102.06065836999994,20.736976619374595],[-102.04354457999995,20.737416049374556],[-102.04205897999998,20.740504709374488],[-102.03696817999999,20.742679719374458],[-102.03446087999998,20.74213939937445],[-102.03424621999994,20.735476349374633],[-102.03926191999994,20.728278919374784],[-102.03812068999999,20.726225179374826],[-102.04037114999994,20.72324761937492],[-102.03774025999996,20.71739647937506],[-102.02806299999997,20.719835819375028],[-102.02448090999997,20.718001849375064],[-102.02029301999995,20.718636419375038],[-102.01438936999995,20.717063659375086],[-102.01232751999999,20.710707429375248],[-102.01845407999997,20.688900689375746],[-102.01768653999994,20.67947073937601],[-102.01909037999997,20.6761841793761],[-102.01407799999998,20.67119136937619],[-102.01551402999996,20.668524779376256],[-102.01383748999996,20.664441169376357],[-102.01041505999996,20.66401341937639],[-102.00470963,20.660325979376466],[-102.00226664999997,20.660477429376492],[-101.99712324999996,20.664706539376375],[-101.99528136999999,20.66155659937644],[-101.99302310999997,20.662387249376422],[-101.99038601999996,20.66089059937648],[-101.98194454999998,20.663326779376387],[-101.98137691999995,20.657529449376526],[-101.97778396999996,20.65754487937654],[-101.97719584999999,20.660063029376488],[-101.97373105999998,20.66066039937645],[-101.97375265999996,20.664318819376383],[-101.96807965999994,20.663641199376368],[-101.97017378,20.658011879376538],[-101.96791385999997,20.64462290937688],[-101.96948357999997,20.641398709376926],[-101.97154387999997,20.64064204937697],[-101.97118785999999,20.63760974937701],[-101.96648805999996,20.638187659377003],[-101.96612196999997,20.637125319377045],[-101.96413041999996,20.638939139376994],[-101.95919257999999,20.63230317937719],[-101.95707757999999,20.632642739377168],[-101.95555457999995,20.628745519377254],[-101.95800247999996,20.626690629377308],[-101.95780210999999,20.620415679377484],[-101.95608762999997,20.619146539377482],[-101.95873956999998,20.60879136937776],[-101.95483710999999,20.607845379377807],[-101.95250656999997,20.609294139377724],[-101.95114367999999,20.607426849377767],[-101.95801235,20.59833919937802],[-101.95931227999995,20.58684251937831],[-101.96703096999994,20.57934408937849],[-101.96656101999999,20.5751284293786],[-101.96293051999999,20.574368819378627],[-101.96280164999996,20.570242619378703],[-101.96989759999997,20.56881087937875],[-101.96933374999998,20.559083629378968],[-101.97527062999995,20.548716459379225],[-101.97391841999996,20.541788429379416],[-101.97624591999994,20.54341568937939],[-101.97886213999999,20.54283788937937],[-101.98395471999999,20.535009119379577],[-101.98843139999998,20.539637319379477],[-101.98791288999996,20.545279799379337],[-101.99184094999998,20.541972459379426],[-101.99397236999995,20.544334019379367],[-101.99347181999998,20.541599479379435],[-101.99555642999997,20.540508379379453],[-101.99877782999994,20.54131107937945],[-101.99881354999997,20.545570379379342],[-102.0030832,20.54721545937931],[-102.00402485999996,20.545263719379307],[-102.01119545999995,20.544988459379354],[-102.01414162999998,20.542596089379416],[-102.00868687999998,20.533167199379612],[-102.01009241999999,20.526058849379773],[-102.01878977999996,20.517757089379987],[-102.02043517,20.51487253938009],[-102.02065016999997,20.508174629380235],[-102.02552353999994,20.50610833938027],[-102.02657371999999,20.501147179380403],[-102.02860479999998,20.501356599380433],[-102.02819468999998,20.496541919380512],[-102.03798245999997,20.492057909380616],[-102.04602728999998,20.4826142893809],[-102.04214944999997,20.47448167938109],[-102.04513193999999,20.471799169381153],[-102.04265919999995,20.468309029381242],[-102.04534888999996,20.46410219938136],[-102.04399456999994,20.456592199381525],[-102.04758990999994,20.45322162938159],[-102.04964816999995,20.45276421938163],[-102.05130350999997,20.454524879381587],[-102.05180801999995,20.452413309381633],[-102.05630134999996,20.452031149381625],[-102.05580087999999,20.44824579938175],[-102.05801023,20.44681139938179],[-102.05757607999999,20.445359799381826],[-102.06184062999995,20.444798109381793],[-102.06451331999996,20.439602369381948],[-102.06611994999997,20.440833489381916],[-102.06613733999995,20.439027849381976],[-102.06802277999998,20.438562709381966],[-102.06643721999997,20.436966629381995],[-102.06807162999996,20.436582999382008],[-102.06780439999996,20.435145819382075],[-102.07128111999998,20.433809229382113],[-102.07392770999996,20.428297739382245],[-102.07661582999998,20.428158749382206],[-102.07622576999995,20.425905539382267],[-102.07396665,20.42505637938232],[-102.07857299999995,20.42283511938238],[-102.07933199999997,20.42091744938241],[-102.07574145999996,20.41924385938246],[-102.07606208999995,20.415307119382543],[-102.07134477999995,20.4144659493826],[-102.07088261999998,20.409019169382677],[-102.07735791999995,20.409328949382694],[-102.07823812,20.406832549382756],[-102.08079325999995,20.407116399382776],[-102.08049962999998,20.40404781938286],[-102.08453322999999,20.405009249382804],[-102.08620436999996,20.396472339383042],[-102.08845514999996,20.395622319383026],[-102.08731628,20.393997599383074],[-102.09093465999996,20.389018279383237],[-102.09689916999997,20.38922025938321],[-102.09641167999997,20.384257489383323],[-102.08676941999994,20.384760479383335],[-102.08113404999995,20.380193889383428],[-102.07387164999994,20.379322969383434],[-102.06932596999997,20.375404879383574],[-102.06503262899999,20.374921570383588],[-102.05190199999998,20.378736770383448],[-102.03666362999996,20.378564769383438],[-102.02265090999998,20.380889939383394],[-102.01893237999998,20.38600851938332],[-102.01820191999998,20.3935156273831],[-102.01358999999997,20.393897687383074],[-102.01371645999996,20.38881294938321],[-102.01016277999997,20.385332909383298],[-102.01006405,20.38185631738342],[-102.021826649,20.36298369138386],[-102.02523490999994,20.347981599384205],[-102.02332021999997,20.343935029384358],[-102.01730596999995,20.341766599384357],[-102.01720376999998,20.336084820384528],[-102.01489068999997,20.332154509384644],[-102.01579711999995,20.329300059384682],[-102.01379881999998,20.327930319384745],[-102.00729057899999,20.326729750384786],[-102.00490253999999,20.33306576938464],[-102.00953282799998,20.338228719384503],[-102.01370246,20.350632079384145],[-102.00988674999996,20.35333151938409],[-101.99940127999997,20.354717479384053],[-102.00003917,20.358122569383973],[-101.99891930999996,20.356754769384047],[-101.99694744999994,20.35735396938403],[-101.99639002999999,20.35964321938396],[-101.98994408999994,20.360789429383942],[-101.98970121999997,20.359613879383936],[-101.98706696999994,20.360361909383922],[-101.97622559999998,20.35799764938401],[-101.96899068999994,20.360259749383957],[-101.96233719999998,20.34468945938431],[-101.94529381999996,20.342673149384375],[-101.94404588999998,20.33795722938447],[-101.94731739999999,20.330975939384636],[-101.95568267999994,20.3266259093848],[-101.96347162999996,20.318557419384973],[-101.95953002999994,20.319825949384942],[-101.94895770999995,20.315107399385052],[-101.95001641999994,20.31148054938516],[-101.95626388999996,20.31293334938509],[-101.95568851999998,20.308761919385223],[-101.95905311999996,20.307493369385227],[-101.95991888999998,20.30513593938533],[-101.95232690999997,20.301415909385412],[-101.94954067999998,20.298422599385464],[-101.94358068999998,20.300778149385412],[-101.93454739999999,20.297691460385504],[-101.93531768999998,20.294790079385546],[-101.94021967999998,20.29397596938561],[-101.94714256999998,20.28636157938579],[-101.94531753999996,20.284003319385857],[-101.93772491999994,20.285088539385818],[-101.93686167999999,20.281461079385885],[-101.94580094999999,20.27674931938599],[-101.95118427999996,20.271582569386165],[-101.94359444999998,20.267771539386267],[-101.94648034999994,20.25979308938647],[-101.94494488999999,20.255077419386588],[-101.93437865999995,20.24927002938672],[-101.93217165,20.243737909386848],[-101.93812931999999,20.241382919386883],[-101.93619871999994,20.237345709387007],[-101.93900987999996,20.23265894938711],[-101.93987262999998,20.227081749387228],[-101.93715384999996,20.225532249387314],[-101.93234657,20.225889079387294],[-101.92825161999997,20.217277619387513],[-101.93058264999996,20.216399879387524],[-101.92939188999998,20.21378479938759],[-101.93148145999999,20.209483599387706],[-101.93060279999997,20.208121259387738],[-101.92874717999996,20.208352549387712],[-101.92642556999999,20.212259599387625],[-101.91778048999998,20.219331399387453],[-101.90793881999998,20.215152949387573],[-101.90718602999999,20.209932919387672],[-101.90933799999999,20.20340457938785],[-101.91566333999998,20.206699719387792],[-101.91551870999997,20.204033739387853],[-101.91806828999995,20.202950459387896],[-101.91937877,20.198002479388013],[-101.91789727999999,20.195077319388055],[-101.90999099999999,20.193831459388115],[-101.90796754999997,20.200046059387926],[-101.90470736999998,20.203007689387864],[-101.90143485999994,20.201849119387916],[-101.89851001999996,20.20400921938783],[-101.89302197999996,20.203777229387864],[-101.88836962999996,20.200120479387955],[-101.88619676999998,20.195527419388085],[-101.88876747999996,20.189981779388184],[-101.88811399999999,20.188393339388252],[-101.88419139999998,20.190146779388222],[-101.88161567999998,20.187984149388228],[-101.87919444999994,20.189181509388188],[-101.87833606,20.191435949388133],[-101.88142862999997,20.199997539387912],[-101.87966205,20.20177787938791],[-101.87476796999995,20.201991659387872],[-101.87202985,20.204429829387816],[-101.87159810999998,20.210988849387654],[-101.85605297999997,20.21190059938763],[-101.84954129,20.217652369387505],[-101.83386617999999,20.224790399387345],[-101.82892667999994,20.221558249387403],[-101.82990379999995,20.21962985938745],[-101.82844391999998,20.214930539387584],[-101.81964610999995,20.208665519387747],[-101.82021571999998,20.205606449387815],[-101.82473085999999,20.203877969387847],[-101.82486071999995,20.201837599387872],[-101.81681926,20.201803429387887],[-101.80911682,20.20438019938784],[-101.80383459999996,20.214342489387572],[-101.79933425999997,20.21091465938769],[-101.79406882999996,20.21593774938751],[-101.78661567999995,20.21931844938746],[-101.78401842999995,20.217871419387496],[-101.78464671999996,20.21445570938757],[-101.78230884999999,20.2107514293877],[-101.77684396999996,20.211493799387622],[-101.76791270999998,20.20461362938781],[-101.76443954999998,20.204539689387836],[-101.75939176999998,20.20173190938788],[-101.75716027999994,20.204651169387812],[-101.74351491999994,20.20391237938787],[-101.74276359999999,20.2067791193878],[-101.73222342999998,20.211100519387674],[-101.73119899999995,20.214802309387547],[-101.72723705999995,20.211450029387645],[-101.72594033999997,20.2056179693878],[-101.71586907999996,20.20435770938785],[-101.71062161999998,20.205305979387806],[-101.70602824999999,20.200594319387918],[-101.70387078,20.190439599388174],[-101.69793488999994,20.18967436938819],[-101.69380001999997,20.191957379388175],[-101.69039407999998,20.19681697938802],[-101.68981799999995,20.200873659387934],[-101.69269394999998,20.20727908938776],[-101.68871127999996,20.2106443793877],[-101.68945610999998,20.21346770938758],[-101.68691674999997,20.217221049387497],[-101.67812337999999,20.21888182738748],[-101.67514450999994,20.217358089387506],[-101.67311881999996,20.212555309387607],[-101.66847436999996,20.213135139387642],[-101.66558985999997,20.215854149387535],[-101.66925956999995,20.219415599387453],[-101.66734856999994,20.22186859938739],[-101.66773254999998,20.227179859387242],[-101.66364424999995,20.231737219387163],[-101.66330801999999,20.237579979387032],[-101.65457717,20.243496459386876],[-101.65244301999998,20.23958664938694],[-101.64625231999997,20.238668049386984],[-101.64401682,20.247165709386756],[-101.65092645999994,20.253484019386583],[-101.64677249,20.26006334938645],[-101.64356296999996,20.261898479386407],[-101.64252064999995,20.26764637938622],[-101.63883771999998,20.26581577938627],[-101.63703064999999,20.269830679386185],[-101.63436808999995,20.271181799386138],[-101.63235328999997,20.269504349386185],[-101.63203415,20.264788659386294],[-101.62839767999999,20.2647729093863],[-101.62553399999997,20.26699768938625],[-101.62396914,20.276108349386064],[-101.63230613999997,20.28397477938583],[-101.63492082999996,20.288967449385694],[-101.62842844999994,20.295923679385535],[-101.62922382999996,20.298683949385474],[-101.62579230999997,20.305605219385324],[-101.62754599999994,20.309558909385228],[-101.62465427999996,20.31458037938507],[-101.61992744999998,20.31550330938506],[-101.61777549,20.312403219385157],[-101.61127087999995,20.31272450938514],[-101.60852344999995,20.309746889385192],[-101.60468499999996,20.30942439938523],[-101.60567907999997,20.29977068938544],[-101.60399559899997,20.2980350493855],[-101.60107413999998,20.298018540385474],[-101.59910651899997,20.306559620385297],[-101.60093284899996,20.31005274038518],[-101.59600754999997,20.311845280385135],[-101.58924477999996,20.309601820385204],[-101.58881094899999,20.313345449385093],[-101.58444241499996,20.316721739385013],[-101.58309771999996,20.327359819384725],[-101.57783314999995,20.326384419384787],[-101.57574327999998,20.321324399384885],[-101.57213933999998,20.3212108293849],[-101.57079824999994,20.315937799385026],[-101.56578213999997,20.315740949385066],[-101.56143493999998,20.316588539385034],[-101.56329097999998,20.32135010938488],[-101.55326570999995,20.33251579938465],[-101.54195359999996,20.32946594938469],[-101.53781033999996,20.32437524938484],[-101.52939167999996,20.33258736938463],[-101.52293608999999,20.33234694938463],[-101.52178250999998,20.328070279384765],[-101.52415645999999,20.321230829384902],[-101.51417553999994,20.317911769384953],[-101.50989530999999,20.31934005938495],[-101.50697642999995,20.324457109384802],[-101.50288231999997,20.324876599384798],[-101.50143485999996,20.320906049384938],[-101.50450344999997,20.31895030938496],[-101.50106823,20.311672539385167],[-101.49324157999997,20.31400554938508],[-101.49141911999999,20.318186479384998],[-101.48022727999997,20.330174479384674],[-101.47259914999997,20.33124796938466],[-101.46491004999996,20.329010829384735],[-101.45881712,20.323284919384857],[-101.45682304999997,20.319265089384945],[-101.45094221999994,20.31949831938493],[-101.45154301999997,20.317838919384975],[-101.45492453999998,20.31785071938497],[-101.45669661999995,20.304370479385323],[-101.44019704999995,20.30519281938531],[-101.44039337999999,20.30352633938537],[-101.44972297,20.29822891938547],[-101.44455368999996,20.29510174938559],[-101.44498464999998,20.289725429385676],[-101.44826441999999,20.28958148938569],[-101.44925417999997,20.287482169385733],[-101.45717071999997,20.285142089385776],[-101.45837179999997,20.27602088938603],[-101.45381161999997,20.2739737793861],[-101.45625733999998,20.273924889386098],[-101.45657407999995,20.27117273938616],[-101.45896853999994,20.27019790938617],[-101.45593046,20.26716967938626],[-101.44610617999996,20.263912379386312],[-101.43685730999994,20.263785319386365],[-101.43548210999995,20.277380829385976],[-101.42056247999994,20.275203919386037],[-101.41559130999997,20.264758739386313],[-101.40647731999996,20.263630749386355],[-101.39532437999998,20.248549339386745],[-101.36051947999994,20.24905573938674],[-101.36105127999998,20.246308229386802],[-101.35261808999996,20.23493219938708],[-101.36319816999998,20.19579441938802],[-101.38798805999994,20.20132822938792],[-101.40560171999995,20.20332297938786],[-101.41989112,20.201590579387922],[-101.42368902999999,20.169890689388694],[-101.42249824999999,20.163226319388855],[-101.41647059999998,20.161675779388908],[-101.41443259999994,20.156132689389047],[-101.40906147999999,20.152287719389147],[-101.40634581999996,20.144321119389318],[-101.40360374999995,20.142116489389373],[-101.40028573999996,20.141435319389387],[-101.39237494999999,20.14402891938934],[-101.39123262999999,20.139739749389456],[-101.39226494999997,20.139429519389484],[-101.38937599999997,20.13486376938956],[-101.38918491999999,20.130347979389708],[-101.39100771999995,20.127120719389765],[-101.39560716999996,20.12841888938972],[-101.40282697999999,20.127295059389773],[-101.40868904999996,20.123133829389847],[-101.40432631999995,20.106790919390274],[-101.40738027999998,20.105706379390334],[-101.40834194999996,20.102632649390372],[-101.40324917999999,20.100156319390454],[-101.40552221899998,20.097619919390525],[-101.40469588999999,20.080195179390934],[-101.39231461999998,20.083307579390876],[-101.38751314999996,20.08296124939087],[-101.38894584999997,20.07849221939099],[-101.39389844999994,20.07501316939107],[-101.39544667999996,20.069959819391226],[-101.39621747999996,20.064937479391318],[-101.39427778,20.052911819391664],[-101.40260804999997,20.047030459391767],[-101.40168027999994,20.035009049392084],[-101.39971944999996,20.03631944939207],[-101.39764117999994,20.0341389993921],[-101.39199422999997,20.033840909392108],[-101.38813621999998,20.030409879392185],[-101.38171241999999,20.033518339392128],[-101.37494653999995,20.04042885939199],[-101.36991137999996,20.036448539392044],[-101.35407202999994,20.038398459392003],[-101.34820737999998,20.03211117939219],[-101.33726384999994,20.032779979392135],[-101.33403924999999,20.031522749392153],[-101.32137182999998,20.03316647939212],[-101.31647507999998,20.03742437939204],[-101.30875625999994,20.03624827939206],[-101.30682774999998,20.03772510939202],[-101.29645952,20.038644779391973],[-101.28316977999998,20.030713049392173],[-101.28097217999999,20.027544059392255],[-101.25303053999994,20.03549607939206],[-101.24996607999998,20.028419849392236],[-101.25076554999998,20.023264029392408],[-101.24725687999995,20.025830569392305],[-101.24723381999996,20.027738249392247],[-101.23834596999995,20.032118549392177],[-101.23035702999995,20.027266029392322],[-101.22998833999998,20.022936429392423],[-101.22072632,20.011436279392694],[-101.21347622999998,20.010808509392707],[-101.20305550999996,20.007224149392812],[-101.20153181999997,20.0257385493923],[-101.19628173999996,20.024861489392336],[-101.19131284999997,20.027283179392274],[-101.18229476999994,20.026861079392308],[-101.16035150999996,20.040200149391932],[-101.15995033999997,20.04193061939193],[-101.16390082999999,20.04591799939179],[-101.16711050999999,20.045383689391837],[-101.16664039999996,20.042465679391928],[-101.17168913999997,20.04750614939179],[-101.18137016999998,20.05337193939162],[-101.19631845999999,20.05718854939152],[-101.17908464999995,20.062433849391404],[-101.17668294999999,20.06450830939137],[-101.17401437999996,20.07210484939118],[-101.17161976999995,20.073451719391116],[-101.17088625999999,20.075695419391064],[-101.17362836999997,20.07624362939102],[-101.16966007999997,20.082308139390914],[-101.17051471999997,20.084617909390857],[-101.17263376999995,20.084940059390846],[-101.17523716999996,20.097116309390533],[-101.17355601999998,20.097811089390508],[-101.17111710999995,20.093979569390598],[-101.16640590999998,20.091235879390688],[-101.16519110999997,20.08716296939079],[-101.15854885999994,20.086880660390797],[-101.15660741899995,20.083810019390846],[-101.15437108999998,20.08502965939081],[-101.13314707999996,20.059984659391468],[-101.12605371999996,20.06435044939136],[-101.11948141999994,20.071021739391185],[-101.11968904999998,20.073528579391137],[-101.11751881899995,20.073272819391132],[-101.11757530999995,20.07491184939107],[-101.11496562999997,20.0750446793911],[-101.11392207999997,20.077233289391017],[-101.11054361999999,20.076043579391037],[-101.09427717999995,20.0820388293909],[-101.07996785899996,20.082816050390903],[-101.07485961999998,20.08838817939073],[-101.05104296999997,20.09113079939066],[-101.04883424999997,20.08960836939073],[-101.04290108999999,20.09195416939068],[-101.04008652,20.088978119390717],[-101.03525956999994,20.087335979390758],[-101.02135265999999,20.086944749390774],[-101.01727794,20.085695229390815],[-101.00916602999996,20.079534049390983],[-100.99271514999998,20.064489659391352],[-101.00016697999997,20.060156229391485],[-101.01398657,20.045711289391807],[-101.01421074999996,20.040345679391937],[-101.01229761999998,20.039556429391986],[-101.01270153999997,20.037758119392006],[-101.00356661999997,20.037963999392012],[-101.00513614999994,20.03492701939209],[-101.00436654999999,20.03032017939221],[-101.00808917999996,20.028093179392258],[-101.00279137999996,20.02838045939225],[-100.99758727999995,20.0255877793923],[-100.99340134,20.02728301939225],[-100.98785364999998,20.026917859392263],[-100.980568507,20.023218278392385],[-100.97910404999999,20.01777831939253],[-100.97503291999999,20.014208579392626],[-100.96764441999994,20.0112934793927],[-100.96814685999999,20.00696857939278],[-100.97277971999995,20.002088949392896],[-100.98270077999996,20.00263064939293],[-100.98339967999999,19.996542049393085],[-100.97926925999997,19.993802889393127],[-100.98052470999995,19.98721639939326],[-100.97743824999998,19.985255349393345],[-100.97670924999994,19.98273844939341],[-100.98784348999999,19.978978979393474],[-101.00465614999996,19.966233879393837],[-101.00249019999997,19.965011019393888],[-101.00390588999994,19.956879369394038],[-101.00227568999999,19.952363249394207],[-100.99807097999998,19.954588769394107],[-100.98877187999994,19.956138719394097],[-100.98378579999998,19.95671634939404],[-100.98079122999997,19.955221079394104],[-100.98203679999996,19.95319237939418],[-100.97936816999999,19.952911629394187],[-100.97736413999996,19.93685085939457],[-100.97054688999998,19.929237679394735],[-100.96441001999995,19.92827470939477],[-100.94787934999994,19.933563059394643],[-100.94753937999998,19.96254522939391],[-100.93562837999998,19.957191569394084],[-100.93258188899996,19.953490850394125],[-100.92979127899997,19.95643152039409],[-100.92365157999997,19.958245309394027],[-100.91592281999999,19.957924549394022],[-100.91109822,19.961714479393958],[-100.90601107999998,19.961582679393942],[-100.90158590999994,19.959505829394015],[-100.88261279999995,19.9439262593944],[-100.87270385999994,19.944046509394415],[-100.86420101999994,19.94646601939434],[-100.86389023,19.94872771939424],[-100.86028595,19.94894296939429],[-100.85721297999999,19.94661576939432],[-100.85623224999995,19.942311979394436],[-100.85301287999994,19.94165093939444],[-100.85470803,19.939346419394514],[-100.85452399999997,19.934914139394614],[-100.83576182999997,19.934596429394627],[-100.83397494999997,19.947163569394302],[-100.83022681999995,19.954134289394144],[-100.82996959999997,19.959722719394],[-100.83286911999996,19.97239531939365],[-100.82430144899996,19.978329089393505],[-100.81238510999998,19.971388029393715],[-100.80220934,19.95834004839405],[-100.79206393899996,19.955574799394064],[-100.79066794,19.945431829394366],[-100.78368455099996,19.936078950394606],[-100.78086950999996,19.923989569394905],[-100.78113090999994,19.91889990839504],[-100.77881361899995,19.915149689395143],[-100.77420996999996,19.915400769395127],[-100.77199730999996,19.917924569395026],[-100.76516890999996,19.915838029395086],[-100.75350435099995,19.917124489395064],[-100.74875278099996,19.91275018039516],[-100.74371276999995,19.916744708395083],[-100.73280713999998,19.93061930839474],[-100.71881735099998,19.940519369394483],[-100.70429358099994,19.94276732039444],[-100.69496006099996,19.947670829394294],[-100.68064848999995,19.950463150394224],[-100.67181848999996,19.958524019393998],[-100.66038133999996,19.964548339393836],[-100.64886899999999,19.958001219394014],[-100.61757337999995,19.95769254939403],[-100.60612431,19.982179259393444],[-100.59852287999996,19.988300569393253],[-100.59433488999997,19.989817049393235],[-100.59560330999994,19.991662019393164],[-100.57671013999999,19.99306077939316],[-100.55789488999994,19.991715549393177],[-100.55678185999994,19.98529836939336],[-100.55897816999999,19.984569169393353],[-100.55858971999999,19.982875029393412],[-100.56229448,19.980321379393498],[-100.56569885999996,19.97453119939362],[-100.58062042999995,19.975040979393633],[-100.58759407999997,19.971390339393675],[-100.59385607999998,19.963930889393858],[-100.59307573999996,19.958280369394053],[-100.58946757999996,19.95668096939405],[-100.58413905999998,19.959023689394],[-100.57996514999998,19.95751497939404],[-100.57162881999996,19.96473733939387],[-100.56548167999995,19.966139319393804],[-100.56011241999994,19.959103629394022],[-100.55071702,19.95796596939401],[-100.54347265999996,19.961253599393974],[-100.54124945999997,19.964585199393863],[-100.53393422999996,19.969214819393752],[-100.53504084999997,19.971974429393676],[-100.54242836999998,19.972831219393655],[-100.54063117999999,19.97492928939358],[-100.53568003,19.974360219393635],[-100.53182333999996,19.9763944893936],[-100.52820130999999,19.97425730939361],[-100.52677939999995,19.96576044939385],[-100.52927856999999,19.95172085939416],[-100.52932647999995,19.940979999394443],[-100.53472996999996,19.936285919394585],[-100.53408277999995,19.93238427939469],[-100.53600850999999,19.923006599394927],[-100.52929585,19.920220829395003],[-100.51994644999998,19.91882004939499],[-100.52171347999997,19.92772767939478],[-100.51746008999999,19.9365758793946],[-100.51600457999997,19.93660642939456],[-100.51570408999999,19.9404542493945],[-100.51183759999998,19.942221079394407],[-100.51031328999996,19.953360749394164],[-100.51168708999997,19.958216089394043],[-100.50895825999999,19.959416019394002],[-100.50558285999996,19.95794339939402],[-100.49818422999999,19.958043199394062],[-100.48899577999998,19.966208229393835],[-100.47359704999997,19.972334249393693],[-100.46998219999995,19.97556228939356],[-100.47017019999998,19.9799835093935],[-100.46245566,19.979268289393495],[-100.46202993999998,19.983485599393394],[-100.46582434999999,19.98739802939331],[-100.46271150999996,19.988497479393246],[-100.44967156999996,19.982677599393394],[-100.44358387999996,19.982284999393425],[-100.43123564999996,19.98517499939332],[-100.42478010999997,19.98408248939337],[-100.41400134999998,19.98572504939332],[-100.40977859999998,19.987525249393265],[-100.40501887999994,19.98383184939339],[-100.38682934999997,19.988906779393243],[-100.36293111999998,19.98986107939321],[-100.37040326,20.021265579392416],[-100.36470827999995,20.019708229392478],[-100.36050504999999,20.02396068939234],[-100.35927413999997,20.00974230939272],[-100.35496965999994,20.01011957939271],[-100.35438439999996,20.027790619392295],[-100.35870610999997,20.047739749391788],[-100.36204081999995,20.05343662939165],[-100.36063936999994,20.054276849391613],[-100.35826367999994,20.064916459391355],[-100.36725011999994,20.067487509391253],[-100.38975110999998,20.080822939390963],[-100.39725667999994,20.096952749390546],[-100.38529153999997,20.104505579390317],[-100.39151167999995,20.12103317938992],[-100.38360804999998,20.12914634938971],[-100.37088694,20.136185419389562],[-100.36987894999999,20.146666969389308],[-100.35892493999995,20.167221599388775],[-100.36124116999997,20.16949559938872],[-100.36112757999996,20.17256062938866],[-100.35388716999995,20.179523419388474],[-100.35583669,20.182385939388414],[-100.34030844999997,20.18973691938818],[-100.34233364999994,20.195488999388072],[-100.34542091999998,20.19654942938804],[-100.34596964999997,20.20097990938793],[-100.35023728999995,20.199069149387988],[-100.35234250999999,20.200460879387926],[-100.35263193999998,20.20632750938778],[-100.35529081999995,20.211130059387692],[-100.35388010999999,20.21324505938764],[-100.35523671,20.21901834938748],[-100.35022113999999,20.2214124293874],[-100.34995889,20.22424728938733],[-100.34746768999997,20.224694399387303],[-100.34614202999995,20.22770365938722],[-100.34351801999998,20.22896371938718],[-100.34184853999994,20.232149249387167],[-100.34149856999994,20.239113179386973],[-100.33281062999998,20.242648999386855],[-100.32355836999996,20.251934019386674],[-100.32729997999998,20.257728449386505],[-100.32576305999999,20.261020379386412],[-100.32937807999997,20.26304957938634],[-100.33106781999999,20.26676282938628],[-100.33423185999999,20.2653741793863],[-100.34107804999996,20.27334244938609],[-100.34408771999995,20.272944262386126],[-100.34741570999996,20.280471859385912],[-100.34585810999995,20.284442909385824],[-100.34813041999998,20.286579629385788],[-100.35923697999999,20.293530909385616],[-100.36945951999996,20.30251636938535],[-100.37918594999996,20.301931879385375],[-100.38838268999996,20.309017379385214],[-100.39202296999997,20.314327459385108],[-100.39078748999998,20.33641316938455],[-100.39401648999996,20.35023191938419],[-100.40327325999999,20.36075057938392],[-100.40497130999995,20.36705302938373],[-100.40954334999998,20.370691889383668],[-100.40999517999995,20.376006419383557],[-100.44351108999996,20.38704091938327],[-100.46778457999996,20.386580689383297],[-100.47618106,20.38961079938323],[-100.47593159999997,20.40331413938288],[-100.47826991999995,20.416286369382508],[-100.48847679999996,20.42583330938227],[-100.48949799999997,20.431394109382147],[-100.48987437999996,20.46154630938143],[-100.48838367999997,20.473312679381117],[-100.49087782999999,20.47544739938106],[-100.49250285999995,20.481411419380887],[-100.49238211999995,20.49041553938071],[-100.49766365999994,20.491373089380637],[-100.50031213999995,20.500220119380447],[-100.49735716999999,20.50483041938035],[-100.50975557999999,20.506526849380297],[-100.50111136999999,20.51259573938013],[-100.50315965,20.51966539937997],[-100.50774853999997,20.518523979380006],[-100.50852059999995,20.526209259379765],[-100.50476544999998,20.55503339937911],[-100.48500337999998,20.55380421937915],[-100.48389870999995,20.571440399378652],[-100.48209164999997,20.571508309378693],[-100.48221602999996,20.57635630937856],[-100.48753899999998,20.587946909378243],[-100.48640877999999,20.588433659378282],[-100.48968807999995,20.598171689378038],[-100.49117893999994,20.598761659377995],[-100.49568028999995,20.60916521937772],[-100.49425468,20.610510219377698],[-100.49617742999999,20.616193739377543],[-100.49791725999997,20.61582974937756],[-100.51427941999998,20.62384587937737],[-100.51625002999998,20.622567849377408],[-100.51836174999995,20.625809229377357],[-100.52148631999995,20.624864289377374],[-100.52706934999999,20.629819519377246],[-100.52609379999997,20.63271016937717],[-100.52953527999995,20.638667259376998],[-100.53702956999997,20.638525909377023],[-100.55112517999999,20.633766049377158],[-100.56193062999996,20.67142777937619],[-100.57395928999995,20.672066049376195],[-100.58360348999999,20.678424259376015],[-100.58415185999996,20.682923619375924],[-100.58077591999997,20.68977941937574],[-100.58128445999996,20.692932629375647],[-100.59018562999995,20.71069371937522],[-100.59653570999996,20.71726091937508],[-100.58828481999997,20.72241045937493],[-100.58441451999994,20.728937349374753],[-100.54891461999995,20.73638341937458],[-100.54812107999999,20.749560879374258],[-100.55946796999996,20.762591309373956],[-100.56289448999998,20.76854705937381],[-100.56407730999997,20.774696879373618],[-100.55832828999996,20.804571149372947],[-100.57070538,20.805863339372866],[-100.57336445,20.80367416937291],[-100.57781484999998,20.808444519372788],[-100.57758893999996,20.816669749372643],[-100.56967732,20.821248679372513],[-100.56628310999997,20.82081039937249],[-100.55933222,20.829914679372305],[-100.53184904999995,20.84022457937203],[-100.52495753999995,20.844984799371947],[-100.50204861999998,20.852920459371745],[-100.50728661999995,20.869538229371308],[-100.50902351999997,20.870706709371273],[-100.50273628999997,20.875520509371178],[-100.49228914999998,20.892615629370724],[-100.49158725999996,20.896189879370677],[-100.48499610999994,20.900784719370552],[-100.48536676999998,20.90879971937036],[-100.46995828999998,20.907039349370393],[-100.47223287999998,20.92844605936988],[-100.46098531999996,20.923317489369992],[-100.45317647999998,20.92319904937001],[-100.45395601999998,20.90017937937057],[-100.41339937999999,20.887431879370894],[-100.39441530999994,20.89216694937075],[-100.38132374999998,20.8904836793708],[-100.33359079999998,20.890728479370807],[-100.29839428999999,20.915291719370174],[-100.30369087999998,20.919547919370107],[-100.30537821999998,20.92382682936999],[-100.30419501999997,20.928319939369864],[-100.29920916999998,20.931327749369782],[-100.26554322999999,20.92924737936985],[-100.26265397999998,20.933487549369755],[-100.26337057999996,20.949280309369367],[-100.26179669,20.953373079369268],[-100.26786904999994,20.95743765936916],[-100.27206108999997,20.963029459369007],[-100.26778090999994,20.96861451936891],[-100.26362328999996,20.97099884936884],[-100.23932627999994,20.96079770936909],[-100.20088777999996,20.93701239936968],[-100.18781111999999,20.93254754936977],[-100.18420436999997,20.933177049369746],[-100.18448379999995,20.931411279369826],[-100.18152759999998,20.930401659369803],[-100.17837008,20.93866507936965],[-100.13531184999994,20.937263829369662],[-100.13442158,20.934813619369724],[-100.12879454999997,20.934416089369748],[-100.12695979999997,20.928067509369892],[-100.11782777999997,20.922155119370046],[-100.09273788999997,20.93168122936978],[-100.06417193999995,20.936288599369703],[-100.06689968999996,20.94220093936956],[-100.07206090999995,20.9447786893695],[-100.07371742,20.9477161993694],[-100.08073849,20.94985750936936],[-100.06880276999999,20.95791201936914],[-100.06981364999996,20.964785569368992],[-100.07804316999996,20.972657479368806],[-100.07643028999996,20.97806334936867],[-100.06985451999999,20.983493399368516],[-100.07318067999996,20.987677779368433],[-100.07376014,20.991758339368314],[-100.07281149,20.993201429368288],[-100.07142174999997,20.992330149368303],[-100.06074630999996,21.00581577936796],[-100.06479977,21.017198549367702],[-100.06864971999994,21.020176679367648],[-100.06894971999999,21.02281339936758],[-100.06122841999998,21.02852148936743],[-100.05448011999994,21.02778507936744],[-100.04848957999997,21.023193029367576],[-100.04842851999996,21.02496141936752],[-100.04063251999997,21.022212349367603],[-100.02906237999997,21.015063679367717],[-100.02256316999997,21.014621199367728],[-100.01862539999998,21.017582539367673],[-100.01656261999995,21.023463049367525],[-100.01106956999996,21.02850462936741],[-100.01219973999997,21.035960309367244],[-100.01086961999995,21.04305077936706],[-100.00665757999998,21.046394459366976],[-100.01976521999997,21.05512951936676],[-100.02007413999996,21.059795649366674],[-100.02171397999997,21.061349119366607],[-100.02031345999995,21.06400196936655],[-100.02641887999994,21.07356231936634],[-100.02331785999996,21.0780475093662],[-100.02473396999994,21.082838579366094],[-100.02191677999997,21.093003169365822],[-100.02187762899996,21.100084449365678],[-100.02754307999999,21.100253019365642],[-100.02450314999999,21.109463019365474],[-100.02077811899994,21.11383193936535],[-100.019967819,21.11880971936524],[-100.01677119999995,21.123027089365113],[-100.01291781899994,21.13850664936475],[-100.00837233899995,21.148374939364505],[-100.00710436899999,21.156684689364322],[-100.00299061899995,21.157423949364297],[-100.00287821899997,21.15901110936425],[-100.00590868999997,21.161108249364172],[-100.00238742899995,21.168696579364028],[-100.00410744899995,21.173662689363898],[-99.99641765999996,21.18259490936364],[-100.00122184999998,21.1885240793635],[-100.01108573999996,21.18946433936348],[-99.98636804899998,21.2183100293628],[-99.97858259899999,21.215972909362858],[-99.94786482999996,21.212374939362967],[-99.95509973899999,21.207058779363088],[-99.95471411999995,21.20567181936313],[-99.94902653999999,21.210124859363006],[-99.94536217999996,21.209885369362993],[-99.94264571899998,21.194417829363406],[-99.92951627899998,21.19074581936349],[-99.92199296899997,21.190518199363463],[-99.89934717999995,21.18389728936364],[-99.89521442899996,21.177579249363806],[-99.88860517899998,21.17378716936385],[-99.88825094899994,21.169595019363964],[-99.88528817899999,21.17019039936394],[-99.87932767999996,21.168037909364028],[-99.87164676899995,21.169712619363963],[-99.85903547999999,21.16457085936407],[-99.84926844999995,21.16420584936409],[-99.84170704999997,21.158891799364238],[-99.83125854999997,21.157322719364252],[-99.81722950899996,21.165629480364068],[-99.81801956999999,21.166866140364057],[-99.81506356899996,21.16700893936406],[-99.80743345999997,21.175308509363827],[-99.80802142899995,21.1762534503638],[-99.80005188999996,21.17987789036373],[-99.77696962999994,21.195938509363366],[-99.77583353899998,21.207282319363056],[-99.77324564899999,21.207065569363074],[-99.768450719,21.211671619362964],[-99.75810562899996,21.21640296936284],[-99.74649636999999,21.22529474936262],[-99.73848345899997,21.235817769362352],[-99.68785487999997,21.22578025936259],[-99.69187601999994,21.234142019362395],[-99.69870634999997,21.240752089362253],[-99.69907630999997,21.266698399361623],[-99.67801273999999,21.288813259361074],[-99.67130261999995,21.301193749360763],[-99.68558562,21.30830404936063],[-99.69832285999996,21.30964981936058],[-99.70756530999995,21.31454582936045],[-99.73725312,21.312884969360475],[-99.73425053999995,21.308280539360606],[-99.73416114999998,21.301443919360782],[-99.75242474,21.291783399360998],[-99.75789356999998,21.292140369360983],[-99.76572347999998,21.303350419360758],[-99.77235510999998,21.308023549360595],[-99.77218627999999,21.309261369360595],[-99.77993479999999,21.313028169360486],[-99.78779082999995,21.329621719360073],[-99.78487839999998,21.327868509360123],[-99.78430808999998,21.33251770936003],[-99.77756527999998,21.343235429359762],[-99.79213267999995,21.34390659935973],[-99.79452202,21.357399419359403],[-99.78096701999999,21.368518489359147],[-99.77549553999995,21.374968599358986],[-99.77615962999994,21.383349319358782],[-99.78026037999996,21.389355179358645],[-99.77903739999994,21.390255109358634],[-99.77936817999995,21.394597949358523],[-99.77326864999998,21.400762819358377],[-99.77204239999999,21.405537689358273],[-99.77370307999996,21.40785568935823],[-99.77630387999994,21.407597179358202],[-99.78043162999995,21.414772429358003],[-99.77592888999999,21.42703377935773],[-99.77970751999999,21.42991727935765],[-99.77867466,21.433280019357575],[-99.78058814999999,21.43439668935754],[-99.77965853999996,21.439287739357447],[-99.77616293999995,21.44252219935736],[-99.77815987999998,21.446513509357267],[-99.77430336999998,21.456278859357035],[-99.77712387999998,21.459600619356966],[-99.77177759999995,21.466308919356813],[-99.77408189,21.47037019935668],[-99.77727037999996,21.470220649356687],[-99.77310585999999,21.476344459356575],[-99.77464011999997,21.482871739356415],[-99.77287677999999,21.487103169356306],[-99.77526665,21.488743549356233],[-99.77407387999995,21.491784749356157],[-99.77734977999995,21.49502265935612],[-99.79103982999999,21.4906718893562],[-99.79220421999999,21.486742709356292],[-99.78796108999997,21.480549079356457],[-99.78798782999996,21.477506179356507],[-99.79474739999995,21.473388549356606],[-99.80570754999998,21.471846259356663],[-99.80792899999994,21.468417769356716],[-99.81707411999999,21.46169081935691],[-99.82229879999996,21.463527599356876],[-99.82529197999997,21.466521629356787],[-99.83719004999996,21.464314939356857],[-99.83918134999999,21.462385629356856],[-99.83492888999996,21.47811594935653],[-99.86700037999998,21.47346237935663],[-99.90517411999997,21.448159149357213],[-99.94316877999995,21.46178376935692],[-99.93896441999999,21.449788949357167],[-99.94233311999996,21.449619819357217],[-99.94759661999997,21.45434568935706],[-99.94673762999997,21.455573509357016],[-99.94925227999995,21.456002219357064],[-99.94745128999995,21.457729579356986],[-99.95064788999997,21.46152593935691],[-99.94998856999996,21.465660089356778],[-99.95321388999997,21.469816879356713],[-99.95147681999998,21.47226839935667],[-99.95934601999996,21.483513739356354],[-99.94794334999995,21.490688149356195],[-99.94570528999999,21.497431689356027],[-99.95065482999996,21.494677369356094],[-99.96511059999995,21.50512137935585],[-99.95631594999999,21.518239079355553],[-99.95682228999999,21.52622707935536],[-99.97361210999998,21.52709464935531],[-100.00112111999994,21.524117599355417],[-100.04410330999997,21.525561379355374],[-100.06227604999998,21.523305479355397],[-100.07584368999994,21.557931679354546],[-100.11245405999995,21.587293309353885],[-100.12497784999994,21.593465539353755],[-100.14719479999997,21.618125309353125],[-100.15017781999995,21.618884479353145],[-100.15436637,21.617353539353164],[-100.16129350999995,21.60497657935343],[-100.16741088999999,21.601391349353516],[-100.17144304999994,21.60126633935355],[-100.17109824999994,21.604122509353445],[-100.1745896,21.61050048935332],[-100.17136897999997,21.623412689353028],[-100.17248305999999,21.629330979352897],[-100.16714921999994,21.634118219352764],[-100.17963474,21.650790489352378],[-100.18321402,21.64936248935239],[-100.18475956999998,21.65067268935239],[-100.19283878,21.64695833935242],[-100.20612954999996,21.657533749352176],[-100.22227542999997,21.665651519351993],[-100.24631149,21.664932599352014],[-100.25404357999999,21.67322328935183],[-100.26877028999998,21.682704769351588],[-100.27213545999996,21.687346979351464],[-100.32207813999997,21.682094169351586],[-100.35136554999997,21.691670849351368],[-100.37553113999996,21.679821089351684],[-100.38267605,21.680989859351648],[-100.38308967999997,21.679285449351692],[-100.38505621999998,21.679220679351687],[-100.38965231999998,21.681336829351647],[-100.39070477999996,21.67883774935171],[-100.39471367999994,21.678155219351712],[-100.39860931999999,21.674655139351763],[-100.40899030999998,21.677297629351727],[-100.42305127999998,21.67505697935176],[-100.43022367999998,21.678709309351678],[-100.43325784999996,21.67840404935169],[-100.43485665999998,21.682812719351613],[-100.43932193999997,21.676565779351726],[-100.44233241999996,21.67875782935169],[-100.44734173999997,21.67492344935178],[-100.44514024999995,21.672267459351847],[-100.45134937999995,21.666598939351964],[-100.44877891999994,21.662423979352052],[-100.45230142999999,21.661226259352098],[-100.45377711999998,21.655953879352204],[-100.45275150999998,21.655170939352267],[-100.45707568999997,21.65007537935236],[-100.45559541999995,21.648302689352406],[-100.45831633999995,21.6440055493525],[-100.45643359999997,21.642310569352578],[-100.45842205999998,21.63909125935262],[-100.46158821999995,21.637579199352686],[-100.45922313999995,21.628619479352892],[-100.46039690999999,21.623990909352983],[-100.46229243,21.62332771935304],[-100.46258590999999,21.62078739935307],[-100.46899662,21.612883149353287],[-100.47049036999994,21.606465459353405],[-100.48455131999998,21.597617749353624],[-100.48580214999998,21.594404279353707],[-100.48084285999994,21.590858399353806],[-100.47145311999998,21.587570319353866],[-100.46070197999995,21.571210019354233],[-100.45538121999999,21.556256449354606],[-100.46484596999994,21.553621539354694],[-100.45989348999997,21.549782909354768],[-100.46108027999998,21.545334849354905],[-100.46598901999994,21.542913689354926],[-100.53395001999996,21.542326829354945],[-100.53551845,21.53901199935505],[-100.53916487999999,21.538522829355045],[-100.54685887999995,21.53220490935523],[-100.55624339999999,21.53068785935525],[-100.55944249,21.528515319355296],[-100.56460641999996,21.53078902935524],[-100.56726961999999,21.52907256935526],[-100.57096634999999,21.53013984935527],[-100.57734601999994,21.52548931935539],[-100.58198250999999,21.526120279355343],[-100.59138584999995,21.515606019355612],[-100.60423074,21.50880307935578],[-100.61196133999995,21.509358619355766],[-100.61495499999997,21.505789169355857],[-100.62042984999994,21.510232199355755],[-100.62191021999996,21.518985919355504],[-100.61429930999998,21.533134549355182],[-100.63544731999998,21.543191629354908],[-100.63703519999997,21.541345029354986],[-100.63451810999999,21.537713309355084],[-100.63854156999997,21.528293019355285],[-100.65745607999999,21.524717969355375],[-100.66559956999998,21.52782121935534],[-100.66562016999995,21.535223059355168],[-100.67718413999995,21.54142253935497],[-100.68116791999995,21.547504599354813],[-100.69209792,21.54636913935484],[-100.70071748,21.552548659354738],[-100.70259368999997,21.548678769354797],[-100.70524431999996,21.548240479354824],[-100.70996342999996,21.55016817935479],[-100.71763022999995,21.550231509354774],[-100.72087953999994,21.561490579354512],[-100.72755524999998,21.56802625935436],[-100.72908717999996,21.57462237935418],[-100.73434379999999,21.578726539354086],[-100.73903668999999,21.578251619354102],[-100.74604747999997,21.581745149354038],[-100.75045887999995,21.580284059354046],[-100.75519759999997,21.583525969353957],[-100.76176317999995,21.58493521935391],[-100.76655222999995,21.590718979353824],[-100.76611482,21.592143799353742],[-100.77246761999999,21.595451629353704],[-100.77329499999998,21.58812179935388],[-100.79230836999994,21.594834169353707],[-100.80586938,21.593859859353742],[-100.80949610999996,21.592049829353776],[-100.81656096999997,21.602653399353525],[-100.85767824999999,21.61898657935314],[-100.83432148999998,21.664558779352024],[-100.85216602999998,21.67335019935184],[-100.86514987999999,21.68707959935149],[-100.87011217999999,21.672493519351832],[-100.90237511,21.68201833935163],[-100.90718336999998,21.6816367993516],[-100.90839202999996,21.691664979351366],[-100.91302310999998,21.692465149351342],[-100.92127345999995,21.70027356935115],[-100.91257756999994,21.713648739350855],[-100.93805453999995,21.720534549350663],[-100.94350281999999,21.732621629350387],[-100.96555184999994,21.734925569350327],[-100.97113779999997,21.74489539935013],[-100.98197436999999,21.753527349349916],[-101.00002931999995,21.756407229349808],[-101.00230330999995,21.750816939349956],[-101.00611950999996,21.751910289349958],[-101.00517261999995,21.757231139349795],[-101.03149508999998,21.761304799349727],[-101.03449544999997,21.76296817934965],[-101.03798022999997,21.762219419349705],[-101.05924796999996,21.765520739349615],[-101.13613888999998,21.75322590934988],[-101.14321996999998,21.755556619349857],[-101.16126697999994,21.75750591934978],[-101.19016350999999,21.77747804934935],[-101.21979462999997,21.80220037934873],[-101.21715233999998,21.816077029348392],[-101.24505443,21.82209181934825],[-101.26231021999996,21.823444319348262],[-101.26610842999997,21.821523679348275],[-101.28152657999999,21.82146814934828],[-101.28554718,21.817929999348365],[-101.28728505,21.812077889348522],[-101.28968545999999,21.812139779348495],[-101.30587557999996,21.827014509348118],[-101.31948393999994,21.835334449347958],[-101.36145994999998,21.839120779347834]]]}}]}
