{"type":"FeatureCollection","features":[{"type":"Feature","properties":{"cve_ent":"12","cvegeo":"12","nombre_inegi":"Guerrero","nombre_catalogo":"Guerrero"},"geometry":{"type":"MultiPolygon","coordinates":[[[[-100.61018113999997,18.88711748942149],[-100.61309099999994,18.887100649421495],[-100.61344367999999,18.8832666294216],[-100.61596807999996,18.879766849421717],[-100.62036234999995,18.878503999421756],[-100.61961077999996,18.87453133942181],[-100.62342230999997,18.87134027942189],[-100.62224716999998,18.86683524942205],[-100.62541545999996,18.865856569422064],[-100.62937530999994,18.86792299942203],[-100.63456075,18.866609249422055],[-100.63752385,18.867632339422016],[-100.64083674999995,18.865906089422076],[-100.64035676999998,18.86217305942214],[-100.64520194999994,18.860317659422233],[-100.64278301999998,18.852148479422404],[-100.64341351999997,18.8488768194225],[-100.65170396999997,18.847945089422524],[-100.65351842999998,18.84387430942263],[-100.65069236999994,18.83994027942275],[-100.65635410999994,18.838355679422794],[-100.65933476999999,18.833968049422907],[-100.66608185999996,18.83425476942287],[-100.66843384999999,18.828966779422995],[-100.67164619999994,18.828154629423018],[-100.67293296999999,18.824804969423138],[-100.67144419999994,18.820657489423223],[-100.66804082999994,18.82150287942319],[-100.66685377999994,18.819379659423255],[-100.67620991999998,18.81676881942335],[-100.68000362999999,18.817225889423305],[-100.67992756999996,18.809555249423546],[-100.68331679999994,18.808567029423564],[-100.68469817999996,18.80316505942368],[-100.68767450999998,18.804492199423635],[-100.68992062999996,18.80249079942371],[-100.69203899999998,18.805606079423654],[-100.69606853999994,18.794125489423948],[-100.70583816999999,18.796406519423883],[-100.70552613999996,18.81371261942341],[-100.70275556999997,18.82375973942318],[-100.71196776999994,18.825909019423086],[-100.70998499999997,18.836432849422824],[-100.71225464999998,18.83706094942278],[-100.72400524999996,18.849235379422478],[-100.73636737,18.851313689422437],[-100.73683073999997,18.86050984942218],[-100.74111817999994,18.860415399422177],[-100.74620234999998,18.85797934942227],[-100.74828669,18.861327179422176],[-100.74840342,18.867932569422003],[-100.75567739999997,18.86774333942202],[-100.76010782999998,18.86580334942209],[-100.76393944999997,18.866872429422035],[-100.76518557999998,18.864429649422082],[-100.76667367999994,18.86541514942207],[-100.76911517999997,18.860229229422224],[-100.77331625999994,18.85878333942225],[-100.77692224999998,18.859752289422246],[-100.78211741999998,18.85425771942239],[-100.77942221999996,18.8514491694224],[-100.78040890999996,18.848359429422548],[-100.78807225999998,18.838767919422786],[-100.78795827999994,18.83702064942282],[-100.79177088999997,18.834168479422907],[-100.79159251999994,18.829269909423015],[-100.78251751999996,18.80165350942374],[-100.78505093999996,18.79650122942387],[-100.79545970999999,18.788886089424082],[-100.79896893999995,18.784535779424182],[-100.79452951999997,18.771473769424535],[-100.79422791999997,18.76479724942471],[-100.79197719999996,18.764593749424723],[-100.79270434999995,18.76246034942474],[-100.79015605999997,18.761444919424772],[-100.79175844999997,18.757813919424876],[-100.79371568999994,18.75785954942486],[-100.79311177999995,18.755659249424948],[-100.79542519999997,18.75482982942497],[-100.79691197999996,18.74627016942518],[-100.78845965999994,18.741205679425335],[-100.78406728999995,18.745177279425217],[-100.78178034999996,18.74510507942519],[-100.77886487999996,18.742553479425254],[-100.78016317999999,18.739847179425322],[-100.77293518,18.732567709425552],[-100.77542839999995,18.729814019425604],[-100.77386271999995,18.727498949425666],[-100.78018711999994,18.71243124942608],[-100.78141588999996,18.701485719426355],[-100.78523999999999,18.69463861942651],[-100.78426424999999,18.687002859426745],[-100.78008533999999,18.68818436942669],[-100.78034836999996,18.690120149426644],[-100.77275599999996,18.69062385942666],[-100.77028262,18.692710229426567],[-100.77023454,18.690480489426616],[-100.76365374999995,18.682942049426853],[-100.76128228999994,18.675988949427005],[-100.76123542,18.671671169427103],[-100.76551614999995,18.664163999427306],[-100.75944717999994,18.655671769427528],[-100.75881764999997,18.642877689427873],[-100.76010370999995,18.641630549427934],[-100.75790265999996,18.63924259942798],[-100.75121281999998,18.641666719427917],[-100.75219067999996,18.630203969428187],[-100.75844201999996,18.60964081942874],[-100.76160701999999,18.59443399942914],[-100.76069062999996,18.592402569429208],[-100.76419793999999,18.58174330942948],[-100.76352721999996,18.56331434942997],[-100.76489571999997,18.561211339430027],[-100.74422517999994,18.51807296943116],[-100.73198984999999,18.520984829431058],[-100.72267565999995,18.51376797943129],[-100.70954277,18.495977569431734],[-100.70697737999997,18.489900939431898],[-100.70839521999996,18.48751802943197],[-100.71504117999997,18.486397019431973],[-100.70461359899997,18.48331531043209],[-100.70115552,18.48506799943206],[-100.69779028999994,18.490641149431884],[-100.68782296999997,18.483229889432103],[-100.67596333999997,18.478383399432197],[-100.65246285999997,18.464788119432555],[-100.64951697999999,18.46214734943265],[-100.64797779999998,18.457411599432763],[-100.63724448,18.45774916943275],[-100.63528594999997,18.442984149433112],[-100.63190137999999,18.440973769433178],[-100.63149211999996,18.438469649433273],[-100.60772618,18.42540071943358],[-100.59442813999999,18.416087379433815],[-100.5906968,18.415460939433878],[-100.58822977999995,18.412145149433975],[-100.58951097999994,18.408099109434026],[-100.59594374999996,18.408288979434072],[-100.59957675,18.40579461943413],[-100.59614559999994,18.3994529394343],[-100.60146414999997,18.394345139434403],[-100.60177842999998,18.391025689434507],[-100.60966454,18.387239879434603],[-100.60808401999998,18.38119536943477],[-100.61060396999994,18.37705381943489],[-100.62693899999994,18.375651509434928],[-100.63110561999999,18.368498569435097],[-100.63967517999998,18.36391839943521],[-100.64153704999997,18.358462179435385],[-100.64083359999995,18.35154804943557],[-100.64299965,18.34615768943569],[-100.64586748,18.346149739435695],[-100.64754136999994,18.350113679435587],[-100.65707556999998,18.360467311435297],[-100.663597859,18.361382460435305],[-100.67669371899997,18.372559479435004],[-100.67704001999999,18.376906289434846],[-100.67495484999996,18.383624939434704],[-100.67868102999996,18.38634525943462],[-100.68366234999998,18.386860170434602],[-100.68473008999996,18.390085879434558],[-100.68932347999998,18.393939349434426],[-100.68987788999999,18.400014059434262],[-100.68777221999996,18.40864190943402],[-100.69105121999996,18.41415316943393],[-100.69829262999997,18.41892448943378],[-100.70703844999998,18.418999999433765],[-100.71215737999995,18.413895019433898],[-100.71412391999996,18.404254979434185],[-100.71634028999996,18.40087865943424],[-100.71876954999999,18.39921162943428],[-100.72273026,18.400449379434264],[-100.72773787999995,18.406150369434098],[-100.73736931999997,18.42730145943353],[-100.74098025999997,18.428217779433542],[-100.75135839999997,18.42577122943361],[-100.75562548,18.428603659433495],[-100.76012764999996,18.435203649433358],[-100.77764326,18.439543349433254],[-100.77983081999997,18.450883949432935],[-100.78573151999996,18.463511549432635],[-100.79314662999997,18.47709833943225],[-100.79817757999996,18.480541119432157],[-100.80910642999999,18.476515279432263],[-100.83848074999997,18.473069319432337],[-100.85917119999999,18.478387349432207],[-100.86327322999995,18.48126754943212],[-100.86927031,18.490322339431884],[-100.87397542999997,18.492008779431846],[-100.88052434999997,18.487479969431952],[-100.88760041999997,18.468132079432454],[-100.89436836999995,18.463138659432584],[-100.90022882999995,18.46395899943258],[-100.90816937999996,18.471392779432367],[-100.91451601999995,18.47175019943236],[-100.91725805999994,18.46674305943252],[-100.91492193999994,18.459307199432743],[-100.91693625999996,18.451661219432932],[-100.92227451999999,18.444567339433092],[-100.92665661999996,18.4439555194331],[-100.93377033999997,18.4513286194329],[-100.94275314,18.455077349432838],[-100.94562681999997,18.45389711943282],[-100.95247374999997,18.445668379433044],[-100.95744337999999,18.444430109433085],[-100.96311419999995,18.445729719433057],[-100.96641782999997,18.448521049433012],[-100.96655704999996,18.45367547943289],[-100.96083253999996,18.46502554943258],[-100.96389507999999,18.471826229432367],[-100.97370737999995,18.481960569432136],[-100.98977674999998,18.49127582943188],[-101.00328216999999,18.49129874943188],[-101.00599211999999,18.49365102943179],[-101.00937334999998,18.524784779430988],[-101.01200327999999,18.527543019430915],[-101.02092313999998,18.522946919431025],[-101.03244901999996,18.526719599430923],[-101.03796779999999,18.526206029430924],[-101.05449630999999,18.518446969431174],[-101.07553250999996,18.514976219431237],[-101.08365317999996,18.50717142943143],[-101.08866085999995,18.505907859431463],[-101.10201525999997,18.509302459431414],[-101.12026861999999,18.509256799431405],[-101.13151184999998,18.517493459431158],[-101.13459259999996,18.5170209394312],[-101.13956414999996,18.511733229431343],[-101.14278639999999,18.510532519431337],[-101.14726650999997,18.51108699943134],[-101.15733202999998,18.518138799431142],[-101.16821359999994,18.52102439943108],[-101.19156693999997,18.517827519431155],[-101.19366084999996,18.51886594943117],[-101.19628451999996,18.526380949430926],[-101.21190059999998,18.53641724943068],[-101.22018514999996,18.536129689430684],[-101.22521425999997,18.53420850943073],[-101.23807256999999,18.534155659430755],[-101.24939022999996,18.538171309430634],[-101.25932210999999,18.5395316894306],[-101.27001465999996,18.535158349430734],[-101.27340705999995,18.536032449430685],[-101.27434585999998,18.5403531194306],[-101.27654525999999,18.542193279430528],[-101.28207716999998,18.544734029430444],[-101.28756717,18.539430519430603],[-101.29896007999999,18.533126059430735],[-101.31319317999998,18.532905339430794],[-101.31899208999995,18.528291049430916],[-101.32686859999997,18.529424349430872],[-101.33450234999998,18.528433849430893],[-101.35004799999996,18.52226587943109],[-101.35758564999998,18.522355379431023],[-101.36187719999998,18.520217799431123],[-101.36410767999996,18.518061739431168],[-101.36242222999994,18.50322064943156],[-101.36560419999996,18.499882249431632],[-101.37085459999997,18.500464319431625],[-101.37476445999994,18.507620599431434],[-101.37858996999995,18.509846679431398],[-101.38497894999995,18.510663749431355],[-101.39014285999997,18.506625739431474],[-101.39492227999995,18.506126619431463],[-101.39879828999995,18.506969319431455],[-101.40688494999996,18.51251256943133],[-101.41074705999996,18.51104534943137],[-101.41292819999995,18.501925909431606],[-101.41758062999999,18.49754810943167],[-101.42299444999998,18.49683797943173],[-101.42761810999997,18.501175219431605],[-101.43215493999998,18.501676429431573],[-101.43861124999995,18.49084725943189],[-101.44194722999998,18.488993379431943],[-101.44639536999996,18.489318289431893],[-101.45465101999997,18.496830679431746],[-101.45742089,18.49735405943174],[-101.46064997999997,18.495377249431755],[-101.46433113999996,18.488904169431947],[-101.46802191999997,18.486935519431967],[-101.47994016999996,18.49060402943188],[-101.50744405999995,18.48679728943196],[-101.51805531999999,18.495979489431715],[-101.53842944999997,18.497756019431694],[-101.54400097999996,18.50057687943161],[-101.54697134999998,18.507442679431442],[-101.55035042999998,18.509701049431378],[-101.56424239999996,18.509870969431393],[-101.57352297999995,18.517546569431154],[-101.58356333999997,18.52099476943111],[-101.58831779999997,18.528131539430905],[-101.58947943,18.541633459430564],[-101.59799670999996,18.548887689430387],[-101.60296661999998,18.562121379430028],[-101.60508707999998,18.5745952494297],[-101.60746688999997,18.57793659942958],[-101.62015865999997,18.58636327942938],[-101.62449977999995,18.599153979429023],[-101.63899313999997,18.60253439942891],[-101.65230162999997,18.59716034942906],[-101.66727410999994,18.598074679429033],[-101.69014471999998,18.58935876942929],[-101.70117584999997,18.587893379429307],[-101.70568385999997,18.590774819429235],[-101.70782117999994,18.60137745942896],[-101.71048261999994,18.606262889428848],[-101.71345250999997,18.61022064942872],[-101.71735717999996,18.612010799428706],[-101.73285368999996,18.61147928942869],[-101.77179417999997,18.603721399428913],[-101.78270010999995,18.60024261942902],[-101.79361059999997,18.593365229429207],[-101.83119776999996,18.580521419429495],[-101.84384443,18.57439573942969],[-101.85398687999998,18.56325321942997],[-101.85928262,18.55289534943023],[-101.87950908999996,18.539251549430627],[-101.88225982999995,18.53422765943074],[-101.88895387999997,18.49901656943165],[-101.88792517999997,18.4814952494321],[-101.88489950999997,18.4749507394323],[-101.86044204999996,18.44618516943304],[-101.87375882999999,18.437485579433275],[-101.87819127999995,18.424626539433643],[-101.88697928,18.412098939433978],[-101.88931613999995,18.400473229434255],[-101.88490351999997,18.393899379434433],[-101.87303371999997,18.384297379434706],[-101.87125364999999,18.377133569434893],[-101.87475425999999,18.371059969435024],[-101.87405401999996,18.368346419435085],[-101.86156694999995,18.356467969435414],[-101.86242681999994,18.341011919435804],[-101.87080119999996,18.33176748943609],[-101.86726664999998,18.32608431943624],[-101.86106285999996,18.322501539436338],[-101.85571613999997,18.31427554943653],[-101.85725657999997,18.312332199436614],[-101.86792151999998,18.311175849436612],[-101.87019782,18.30832285943668],[-101.86710125999997,18.295649139437],[-101.86229284999996,18.290244479437188],[-101.86269467999995,18.28722847943727],[-101.87306205,18.282238909437382],[-101.88132544999998,18.280234019437405],[-101.88291574,18.27743713943754],[-101.87606293999994,18.270787249437703],[-101.86336301999995,18.26616288943779],[-101.86324930999997,18.261655139437956],[-101.87052887999995,18.259681709437984],[-101.88303876999998,18.262423879437883],[-101.89681947999998,18.27711521943751],[-101.90712261999995,18.261184749437927],[-101.90456399999994,18.247904939438317],[-101.90664739999994,18.244807849438352],[-101.91089207999995,18.242123479438433],[-101.92011593999996,18.24069273943848],[-101.92797262,18.2316106894387],[-101.93687557,18.232631719438682],[-101.95062705,18.227828599438844],[-101.96970388999995,18.233107289438703],[-101.97340884999996,18.232307089438713],[-101.97778610999997,18.227152649438843],[-101.97373244999994,18.212014949439222],[-101.97512447999999,18.209067449439356],[-101.97814882999995,18.20730956943939],[-101.99985033999997,18.202497539439474],[-102.01054709,18.204844309439434],[-102.01905527999998,18.202115719439508],[-102.03080076999998,18.208458819439315],[-102.03867716999997,18.208196309439355],[-102.04232905999999,18.206511629439362],[-102.04771614999999,18.200138289439547],[-102.05736845999996,18.195152549439683],[-102.07237513999996,18.19345182943976],[-102.09414550999998,18.194901309439686],[-102.11042745999998,18.19058141943982],[-102.11864589,18.18652113943989],[-102.12491722999994,18.186517429439906],[-102.13410762999996,18.18902054943987],[-102.14245516999996,18.18705524943993],[-102.14561364999997,18.183144379439998],[-102.15064102999999,18.169881289440355],[-102.16181817999995,18.164148249440508],[-102.16321051999995,18.144776879441025],[-102.16720822999997,18.13574167944123],[-102.17483352,18.129162079441453],[-102.17827505999998,18.122923349441624],[-102.17799934999994,18.117420219441744],[-102.17445088999995,18.114368259441836],[-102.17977757999995,18.088788949442506],[-102.17844465999998,18.073728459442897],[-102.18434531999998,18.05948716944331],[-102.18118677999996,18.052214629443466],[-102.17845741999997,18.03855617944386],[-102.18322451999995,18.032983629443994],[-102.18435117999998,18.026387849444166],[-102.18015955,17.998900909444888],[-102.17327502999996,17.98963681944515],[-102.15513681999994,17.97824867944545],[-102.14317219999998,17.97419630944554],[-102.13755173999999,17.969684109445698],[-102.13606807999997,17.955773909446073],[-102.13298927999996,17.950835779446177],[-102.13782627999996,17.948509569446255],[-102.13790654999997,17.940189549446497],[-102.13682793999999,17.94002981944649],[-102.13293601999999,17.948516219446248],[-102.11508876999996,17.96218877944591],[-102.10143693999999,17.98161548144537],[-102.09883240799996,17.982955709445342],[-102.065690852,17.987964926445215],[-102.03216761799996,17.987560120445224],[-102.0224338,17.98563961944524],[-102.02109360599997,17.98339368444534],[-102.01565674999996,17.98337136944531],[-102.01405571599997,17.981234482445366],[-102.00546824099996,17.9791976634454],[-101.99672225399996,17.974002219445566],[-101.99158737799996,17.972729207445582],[-101.98935544299998,17.97391417944559],[-101.96802250999997,17.968256779445724],[-101.93667043399995,17.95536576544607],[-101.92861932399995,17.948523545446253],[-101.91750680399997,17.942972025446416],[-101.91531410999994,17.943172779446396],[-101.91393761299999,17.94118445544642],[-101.87119268,17.919873259446998],[-101.86527312099997,17.910678700447267],[-101.85887350999997,17.910803647447274],[-101.844821654,17.905722283447375],[-101.81550431499996,17.89072929944778],[-101.79911553699999,17.878985363448134],[-101.78520484999997,17.865963149448437],[-101.77983795499995,17.856307005448727],[-101.77063102999995,17.845857249449004],[-101.76906714299997,17.841570356449086],[-101.77084894899997,17.835752409449277],[-101.76975457999998,17.83240597944934],[-101.77161933599996,17.83065145844937],[-101.75810830999995,17.819773019449713],[-101.74890179999996,17.809493369449964],[-101.74735056999998,17.805411849450063],[-101.75017654999999,17.803031279450117],[-101.74514513999998,17.795802019450345],[-101.74753927999996,17.794337199450357],[-101.74742816499997,17.79281493545044],[-101.71405562999996,17.773503646450916],[-101.71163333899995,17.768057060451063],[-101.70869649599996,17.76782552645111],[-101.69536654899997,17.760071024451307],[-101.68061479999996,17.748172649451643],[-101.66706921499998,17.73375014445199],[-101.66146816999998,17.724280349452272],[-101.66244690499997,17.722940694452273],[-101.65952492699996,17.72080631845237],[-101.64748927999995,17.701155969452888],[-101.64799825999997,17.696125549452994],[-101.64545987899999,17.688331980453206],[-101.64711921099996,17.68102014445341],[-101.64328589899998,17.67762465345351],[-101.64283855999997,17.67161413445364],[-101.643595824,17.66872725345373],[-101.64685354899996,17.667979519453787],[-101.64941731299997,17.664398560453858],[-101.65321165899996,17.66408905245388],[-101.653168829,17.66247339845394],[-101.64915943699998,17.661509716453942],[-101.64928554899996,17.664174712453836],[-101.64666576199996,17.663075401453906],[-101.64551529299996,17.666008801453792],[-101.64259093499999,17.66674405445379],[-101.63746795599997,17.664117129453835],[-101.63119569599996,17.667006985453792],[-101.63107672299998,17.66519859445384],[-101.62755036199998,17.663404481453867],[-101.62456714999996,17.664702229453848],[-101.62118435199994,17.662392528453918],[-101.61997505899996,17.665016019453848],[-101.62038533899995,17.66216315645394],[-101.61614337899994,17.663099219453894],[-101.60678800599999,17.66079647145398],[-101.60045651999997,17.654481920454153],[-101.60116652999996,17.65024296645424],[-101.60014024899999,17.648272120454294],[-101.59829751999996,17.64855154045431],[-101.597339477,17.645961026454362],[-101.59934214899995,17.643039629454417],[-101.59787833299998,17.639977095454515],[-101.59875790299998,17.638136608454584],[-101.59593790199996,17.634745299454682],[-101.58531100699997,17.639346256454544],[-101.58239854699997,17.636871617454588],[-101.57729548599997,17.636497341454604],[-101.57616533099997,17.633014352454676],[-101.57178711699999,17.63281865645468],[-101.57416463,17.627459319454868],[-101.572124009,17.622337677455008],[-101.57015679999995,17.624605976454923],[-101.57081868199998,17.628797947454817],[-101.56805136899999,17.62790802945487],[-101.56398248999994,17.6290977594548],[-101.56143170799999,17.62732744045484],[-101.56201943499998,17.630758623454774],[-101.55712925099999,17.632208354454722],[-101.55902636999997,17.63304033945469],[-101.56029611999998,17.63694917745461],[-101.55822836899995,17.63604736245462],[-101.55786957299995,17.637602584454562],[-101.55182047999995,17.638571970454535],[-101.55052068099997,17.63392269145469],[-101.54657704399995,17.630293068454783],[-101.54572886999995,17.62529002545494],[-101.55226930899994,17.620411200455017],[-101.55446220199998,17.621958431455],[-101.55773459999995,17.619956799455075],[-101.55719339999996,17.61351390945523],[-101.554508888,17.615905538455152],[-101.55244751399994,17.611317382455265],[-101.54494951499998,17.61517577045519],[-101.54307719599996,17.6180114004551],[-101.54033129799996,17.615327368455187],[-101.53778389199994,17.61796033845509],[-101.53239341599999,17.618494431455076],[-101.52896699299998,17.620804887455055],[-101.527068183,17.617668758455096],[-101.524881458,17.618872765455066],[-101.52505707999995,17.62070018445502],[-101.52245440799999,17.621059490455018],[-101.521742949,17.623438951454986],[-101.520177264,17.621837574454982],[-101.51630588099994,17.62401716045494],[-101.504368125,17.61970081845508],[-101.48939703199996,17.609848421455304],[-101.46899901999996,17.5931065494558],[-101.45097381999994,17.57466442945627],[-101.44360314999996,17.56389887945658],[-101.44049413999996,17.553441919456866],[-101.44108761999996,17.543226429457132],[-101.44409899999994,17.537884509457253],[-101.44295251999996,17.53623613945729],[-101.454965041,17.53902630345725],[-101.46055910999996,17.53667614945732],[-101.45972158399996,17.531350161457418],[-101.45646004999998,17.529666139457518],[-101.45720110399998,17.52508302445763],[-101.45289134899997,17.527973050457547],[-101.44300772399998,17.525754965457566],[-101.34232164999997,17.484578819458676],[-101.28966658399997,17.467024044459208],[-101.24402995199996,17.44726989145973],[-101.20682326899998,17.428733031460194],[-101.18291830099997,17.412206008460657],[-101.18133357999996,17.408872383460768],[-101.17966795699999,17.408948526460758],[-101.18049362999994,17.407389979460795],[-101.17808323599996,17.40475115746088],[-101.17975950699997,17.40084812746098],[-101.17595534299994,17.39920035046101],[-101.17252327699998,17.393353872461145],[-101.17328439799996,17.391107208461214],[-101.17522068499994,17.391184541461246],[-101.174471155,17.389123333461267],[-101.17019109899996,17.389197691461273],[-101.159709573,17.383986671461425],[-101.14810077799996,17.375465226461664],[-101.13836580799995,17.371515321461764],[-101.12080901199994,17.36023571846207],[-101.07347731199997,17.32349303946309],[-101.06898311699997,17.31934288646319],[-101.06658163399999,17.314248833463335],[-101.05620480399996,17.306953406463496],[-101.05260151999994,17.301027718463665],[-101.05075565699997,17.295418311463816],[-101.051936051,17.292831305463892],[-101.05025968699995,17.291571840463945],[-101.05440593199995,17.28543356046409],[-101.05308533099998,17.283273010464164],[-101.05725414599999,17.276320225464346],[-101.05640745999995,17.277327218464293],[-101.05535113999997,17.276239319464345],[-101.05784908599999,17.27474055946439],[-101.06035974599997,17.276950933464345],[-101.05961645899998,17.277950769464326],[-101.06375959299999,17.27716017446433],[-101.06624374999997,17.27324834146442],[-101.06126591799996,17.264763183464673],[-101.06143111899996,17.26605598446461],[-101.05856284999999,17.265465124464633],[-101.05827485099996,17.26907678446452],[-101.05575984499995,17.270093175464506],[-101.05250950099997,17.26945072146453],[-101.05072966399996,17.26724496046461],[-101.04836210099997,17.270516719464496],[-101.03758076299994,17.268539387464525],[-101.01711008999996,17.25898090846481],[-101.01359368999994,17.256094257464916],[-101.01346968499998,17.254031813464927],[-101.01075233999995,17.25448629146491],[-101.00727118899994,17.25188078146501],[-101.002168553,17.25336044946497],[-100.99320986499998,17.25191138546503],[-100.90960599399996,17.21967568646589],[-100.88357599399997,17.21396634046604],[-100.82471781099997,17.195351960466528],[-100.76265593299996,17.172589649467195],[-100.67578517899994,17.1375935374681],[-100.66306313999996,17.133759279468222],[-100.63647379499999,17.129126169468364],[-100.60004856599994,17.118533882468636],[-100.48907854199997,17.08012955446967],[-100.41261830399998,17.056495009470325],[-100.19943745999996,16.980524779472407],[-100.12160549,16.94903088947328],[-100.10109623499994,16.945647913473362],[-100.07777180699998,16.93930902947354],[-99.98987644899996,16.909264919474357],[-99.95920868999997,16.89296807947481],[-99.95646831199998,16.887853184474924],[-99.95765521599998,16.886239904474948],[-99.956561111,16.88497156347503],[-99.95804170899999,16.88406722947502],[-99.95222097399994,16.880386436475113],[-99.94530657999996,16.87934850947518],[-99.94573464899997,16.876619459475226],[-99.94318693899999,16.874134767475287],[-99.94407227199997,16.87320189147534],[-99.94003899899997,16.87311411947532],[-99.938739179,16.8701696604754],[-99.94065298699996,16.868897446475454],[-99.93767866099995,16.86921391547543],[-99.93644430999996,16.866150319475516],[-99.93467102199997,16.866244347475543],[-99.93221399999999,16.863202109475587],[-99.93283565899999,16.860367980475658],[-99.92289744899996,16.859517611475713],[-99.92519957999997,16.8556540894758],[-99.92168827799998,16.853405073475855],[-99.92412762999999,16.851898577475897],[-99.92273793999999,16.850140449475944],[-99.92414101999998,16.84949114947599],[-99.91602945299996,16.846718531476082],[-99.91537359299997,16.84523846547612],[-99.91763408099996,16.843327758476143],[-99.91471924099996,16.841797765476223],[-99.91932762299996,16.839602633476282],[-99.91711605199998,16.83795661747633],[-99.92005037999998,16.834980249476395],[-99.91650771999997,16.82968322947654],[-99.91446069299997,16.829233308476567],[-99.91574964899996,16.827757949476563],[-99.90838934999994,16.827927879476587],[-99.90514770999994,16.83064498047649],[-99.90379928,16.82972529247651],[-99.90363617999999,16.831568956476485],[-99.90149567999998,16.829615939476536],[-99.90109753899999,16.830796655476522],[-99.89740673999997,16.83037865947652],[-99.89406057999997,16.83279045047644],[-99.89196865999997,16.837490060476302],[-99.89446491999996,16.83950474947627],[-99.89887953199997,16.840968492476215],[-99.90134606599999,16.83920710647627],[-99.90166014499994,16.840492353476236],[-99.90367304899996,16.83652583047637],[-99.90479865399999,16.837641759476316],[-99.90334818799995,16.83812524847628],[-99.90401759699995,16.839080583476264],[-99.90564812099996,16.837470437476295],[-99.90484719999995,16.83651650947631],[-99.90637998299997,16.837412672476344],[-99.90522695699997,16.838250901476272],[-99.90845350599996,16.83860068147629],[-99.90912005299998,16.840646485476206],[-99.90776822099998,16.839581019476228],[-99.90728994899996,16.84117525847623],[-99.90684261099995,16.839818965476255],[-99.907256637,16.84122760647623],[-99.91027505299996,16.840488515476228],[-99.91092243699995,16.84186029847622],[-99.90686164599998,16.844525539476138],[-99.90804047999997,16.845543579476068],[-99.907384064,16.848213704476002],[-99.90030861099996,16.84858014147602],[-99.90161493499996,16.84865152547599],[-99.90035857899994,16.849196421475984],[-99.90060154499997,16.852082772475924],[-99.89809158499997,16.853880354475873],[-99.88249751999996,16.85966642947572],[-99.86208850999998,16.855132489475857],[-99.85285534999998,16.84646411947608],[-99.85121873899999,16.836982804476325],[-99.85255919399998,16.837348959476312],[-99.85132762399996,16.836703854476337],[-99.85339821999999,16.834479170476396],[-99.85699312099996,16.833667662476394],[-99.86304951999996,16.834790489476386],[-99.86534713299994,16.8301424664765],[-99.868174475,16.828172833476565],[-99.87065598599999,16.82111838547673],[-99.86981367199996,16.81835951747681],[-99.87652170999998,16.814546180476913],[-99.86618262999997,16.807822659477132],[-99.86550170999999,16.810390800477048],[-99.86170977999996,16.81022521947708],[-99.85961316999999,16.807305419477128],[-99.85088490599998,16.805857989477186],[-99.85003240399999,16.809688149477086],[-99.84638236999996,16.81102809047701],[-99.83698010099994,16.805607081477188],[-99.83644913999997,16.799061349477363],[-99.83707825899995,16.79705516547744],[-99.83913947799994,16.7976484994774],[-99.84074581099998,16.79576367547744],[-99.83914164399995,16.79751003347739],[-99.83786882199996,16.79641242247744],[-99.83979662999997,16.793986879477497],[-99.84907196999997,16.799196549477355],[-99.85282446299999,16.799256830477347],[-99.85906010999997,16.79624414947746],[-99.85658921999999,16.793387659477542],[-99.846434,16.792818049477546],[-99.84417396699996,16.786457098477733],[-99.84512770999999,16.784311749477755],[-99.84022750999998,16.78549014947774],[-99.83513154999997,16.782954689477812],[-99.83258936999995,16.785864979477722],[-99.83012402999998,16.78595850947774],[-99.82804122099998,16.790316583477605],[-99.81764773599997,16.78790381047766],[-99.794436094,16.771787720478134],[-99.75581744099998,16.741121227478963],[-99.70394995,16.714035822479733],[-99.65760427599997,16.69592889748019],[-99.608000915,16.683139645480537],[-99.59607495399996,16.685154683480498],[-99.59326893099995,16.684195485480494],[-99.57165715299999,16.688343612480388],[-99.54969234899995,16.68884329948038],[-99.46043971799998,16.68217985648058],[-99.42185908999994,16.67627565948074],[-99.33288588,16.658449109481236],[-99.22205157999998,16.63217516948195],[-99.14874982999999,16.612494399482507],[-99.11802479999996,16.602050799482768],[-99.07409227999995,16.59189261948308],[-98.98617170999997,16.564452569483844],[-98.92223830999995,16.541846849484468],[-98.91270774999998,16.53583266448461],[-98.90585762999996,16.53442674948463],[-98.88868831999997,16.535630859484595],[-98.85695491999998,16.528249369484794],[-98.85504670999995,16.529108579484813],[-98.85201453999998,16.538490689484554],[-98.84575790999997,16.546035369484304],[-98.84172255199998,16.548447211484255],[-98.82148777299994,16.554333586484088],[-98.81365324999996,16.554119599484096],[-98.80665625899998,16.558095401484],[-98.79064129699998,16.555035415484102],[-98.77274774999995,16.554754638484113],[-98.76807068899997,16.5501061234842],[-98.76440535999996,16.5428145034844],[-98.73953065999996,16.51701528948515],[-98.73347304999999,16.505746144485446],[-98.71426526599998,16.484539136486053],[-98.70517253499997,16.469370674486456],[-98.69748687599999,16.46042628048667],[-98.65494522999995,16.426699679487648],[-98.57497794999995,16.349074079489775],[-98.56879716999998,16.342355139489964],[-98.56548399599997,16.334462175490184],[-98.56675462799996,16.327990041490384],[-98.57083540399998,16.326978770490374],[-98.56871054499999,16.32466117549047],[-98.55499057299996,16.318936192490636],[-98.55263244999998,16.3159525794907],[-98.54977854999998,16.318611019490625],[-98.55122525999997,16.31986008949062],[-98.54735254999999,16.321199679490572],[-98.54906822999999,16.322719199490518],[-98.54745459999998,16.32366876949048],[-98.54990510999994,16.326141969490408],[-98.54675117999994,16.3257206894904],[-98.54220901999997,16.332703999490217],[-98.54311921999994,16.33614214949015],[-98.54087896999994,16.339835229490053],[-98.54294162999999,16.34311082948996],[-98.54053130999995,16.34266405948997],[-98.53838631999997,16.34706064948985],[-98.53506084999998,16.34801982948982],[-98.53339844999995,16.351582629489716],[-98.52938654999997,16.352739679489694],[-98.52609485999994,16.356959149489537],[-98.52194354999995,16.35658051948955],[-98.52073321999997,16.360054049489474],[-98.50910881999995,16.363062339489396],[-98.50815541999998,16.360421769489495],[-98.50567279999996,16.360483629489444],[-98.50513642,16.36230128948942],[-98.50159777999994,16.361790619489405],[-98.4949276,16.365042879489327],[-98.49499110999994,16.368644369489214],[-98.48548311999997,16.368804419489244],[-98.48393993999998,16.374152419489064],[-98.47943221999999,16.373102969489114],[-98.47887728999996,16.375195179489058],[-98.47577782999998,16.375608119489033],[-98.47085537,16.381155139488875],[-98.46083594,16.383273049488853],[-98.46042582999996,16.380807979488893],[-98.45595482999995,16.380420539488906],[-98.45418093999997,16.38579344948877],[-98.43556677999999,16.384486219488796],[-98.41914901999998,16.380586339488897],[-98.39915783,16.380512619488908],[-98.34946504999999,16.445586859487108],[-98.35987791999997,16.471705139486378],[-98.35684644999998,16.477412629486235],[-98.35707191999997,16.482427379486083],[-98.35231677999997,16.485026279486025],[-98.35253227999999,16.48943144948589],[-98.35772405999995,16.492598859485813],[-98.36439230999997,16.490207919485876],[-98.36883834999998,16.49117845948587],[-98.37027319999999,16.493844909485787],[-98.36664964999994,16.49839764948567],[-98.36833165999997,16.500851769485585],[-98.38733293999996,16.497786319485666],[-98.38332396999999,16.512656139485262],[-98.39250593999999,16.527377749484828],[-98.39514041999996,16.536307249484604],[-98.39513939999995,16.546836429484312],[-98.38365236999994,16.54520414948438],[-98.38341817999998,16.549640739484218],[-98.37608888999996,16.55229370948418],[-98.37136217999995,16.55202517948417],[-98.34027982999999,16.55816919948401],[-98.32996999999996,16.572748259483568],[-98.31663701999999,16.569866819483696],[-98.29170325999996,16.570065519483695],[-98.29282948999999,16.557780579484],[-98.26942656999995,16.55845547948402],[-98.26029087999997,16.56295559948388],[-98.24987251999994,16.563514969483826],[-98.24150382999994,16.56777387948375],[-98.24097948999997,16.572763399483584],[-98.22926876999998,16.580891029483354],[-98.20731717999996,16.589889459483125],[-98.20846644999995,16.584644259483284],[-98.203364219,16.587180419483182],[-98.20466911999996,16.59110397948311],[-98.19377577999995,16.621462690482236],[-98.196665769,16.623356829482184],[-98.21420637999995,16.618795400482334],[-98.21579862999994,16.62499359948215],[-98.22003673999995,16.631987549481995],[-98.22845877899994,16.63950371048174],[-98.23148701999997,16.65349832048135],[-98.23432614899998,16.65636891948127],[-98.23254448999997,16.656509489481316],[-98.23227096899996,16.658449999481245],[-98.23306668,16.67063340048088],[-98.24588350899995,16.67074037048086],[-98.24631199899996,16.67236674948084],[-98.24563553999997,16.6777214004807],[-98.24352501899995,16.680048419480638],[-98.24344228999996,16.696700080480205],[-98.23796857999999,16.70740748947987],[-98.23489199999995,16.70705178047992],[-98.23530642999998,16.7138472904797],[-98.23353454999994,16.717366319479613],[-98.23060816899994,16.717427080479602],[-98.22901641999994,16.71324445947973],[-98.22134677999998,16.70854793947988],[-98.21578314899996,16.71152587947979],[-98.20154461899995,16.712671820479766],[-98.20069722899996,16.710247450479805],[-98.20551694999995,16.69801622948016],[-98.20027105999998,16.697235090480156],[-98.19521125899998,16.698765850480154],[-98.19212913899999,16.70640995047993],[-98.18439310999997,16.70514637947993],[-98.18125247999997,16.709084319479835],[-98.18251245999996,16.711531549479794],[-98.17657401999999,16.714543000479686],[-98.17521076999998,16.7180035704796],[-98.17147507899996,16.71807601947961],[-98.16593342999994,16.721713579479463],[-98.159821949,16.719497150479544],[-98.15598962899998,16.721362319479475],[-98.153715779,16.725282690479414],[-98.149289449,16.72294752047945],[-98.13899399999998,16.723783800479413],[-98.13641585,16.72671942947937],[-98.13653188899998,16.731893690479204],[-98.12569961999998,16.739082319478985],[-98.12801928999994,16.74523928047886],[-98.12423670999999,16.749640650478725],[-98.12473902899997,16.75137579947869],[-98.13474597999999,16.751505740478706],[-98.13517782999998,16.758393109478476],[-98.12872701999999,16.76116322947838],[-98.12460517999995,16.75930074947843],[-98.12366948999994,16.755666349478574],[-98.12050373999995,16.754729659478613],[-98.10815702999999,16.76095137947841],[-98.10740547999995,16.76949710947816],[-98.10444062999994,16.77522665947802],[-98.10456656999997,16.785220629477728],[-98.09787628999999,16.792926289477506],[-98.1000504,16.799255109477357],[-98.09275771999995,16.806461279477183],[-98.09381954999999,16.81199604947702],[-98.08834857999994,16.813978289476932],[-98.08637604999996,16.816308149476896],[-98.08769667999996,16.82167761947676],[-98.08544862999997,16.824300379476696],[-98.08497514999999,16.829156339476544],[-98.08109399999995,16.83340128947642],[-98.08400205999999,16.840934119476206],[-98.07647061999995,16.849145739475997],[-98.07463804999998,16.854455179475863],[-98.07604156999997,16.858584489475742],[-98.07371708999996,16.863064459475588],[-98.07596013999995,16.86750491947548],[-98.07233389,16.874249549475316],[-98.07558117999997,16.880757459475124],[-98.07928319999996,16.880308349475154],[-98.08030948,16.88203742947507],[-98.08056827999997,16.89054722947485],[-98.08253817999999,16.892774279474782],[-98.08375730999995,16.90273533947452],[-98.08671364999998,16.90706465947442],[-98.08710906,16.913960089474216],[-98.09563618,16.92373591947397],[-98.10004202999994,16.934546879473633],[-98.09920974999994,16.93758993947359],[-98.10049497999995,16.940667399473487],[-98.10745636999997,16.942033599473458],[-98.10560450999999,16.951271379473187],[-98.10647839999996,16.956720259473048],[-98.11126130999997,16.958868399472973],[-98.09711367999995,16.96888479947273],[-98.07523137,17.007220169471655],[-98.05749439899995,17.023776459471186],[-98.03515867999995,17.02112025947128],[-98.03015773999994,17.015757060471433],[-98.02518565999998,17.01921630947134],[-98.00727639999997,17.040137339470785],[-98.04571471999999,17.0572621494703],[-98.08091396999998,17.066581199470026],[-98.09878154999997,17.08385016946959],[-98.10851119999995,17.088380309469454],[-98.11801074,17.095515289469247],[-98.13000919999998,17.09547779946924],[-98.15000877999996,17.102431349469093],[-98.15342388999994,17.11040293946883],[-98.16263682999994,17.11050933946883],[-98.16551873999998,17.114921179468745],[-98.17355811,17.115747659468727],[-98.17826414999996,17.114589799468718],[-98.18400574999998,17.11820361946862],[-98.18718928,17.116480459468686],[-98.19025945,17.119604819468623],[-98.19642007999994,17.1160925794687],[-98.20356510999996,17.119226689468622],[-98.21265588999997,17.118718879468656],[-98.21250722999997,17.121704519468533],[-98.21479399999998,17.122321619468515],[-98.21532773999998,17.124527519468487],[-98.22259953999998,17.12214967946855],[-98.22259376999996,17.125051679468474],[-98.22040405999996,17.126561939468413],[-98.22173024999995,17.129125849468338],[-98.22014117999998,17.133169939468264],[-98.22213991999996,17.13671076946813],[-98.21990071999994,17.145046569467898],[-98.22266344999997,17.146617879467886],[-98.22279561999996,17.150292939467764],[-98.22504597999995,17.152279919467734],[-98.22178588999998,17.152394679467708],[-98.22081333999996,17.158785599467528],[-98.21860533999995,17.160288509467488],[-98.22059307999996,17.16423059946739],[-98.2167242,17.169233219467227],[-98.21761731,17.171537939467207],[-98.21443371999999,17.184509319466866],[-98.21768113999997,17.186864319466764],[-98.21285864999999,17.190647319466656],[-98.20988088999997,17.190183819466704],[-98.20791791999994,17.191915179466616],[-98.20511723,17.191024229466652],[-98.20518741999997,17.199100259466416],[-98.20338001999995,17.199103779466416],[-98.20376957999999,17.200954259466407],[-98.20040004999998,17.20381196946633],[-98.20160932,17.2081100194662],[-98.20319564999994,17.208406399466195],[-98.20313622999998,17.216287419465985],[-98.20793233999997,17.22074776946586],[-98.20759653999994,17.222214909465812],[-98.21379505999994,17.224914449465725],[-98.21375393999995,17.22815467946565],[-98.21599339999996,17.228147689465672],[-98.21967185999995,17.232952619465525],[-98.21967359999996,17.236320459465436],[-98.22127263,17.236174849465435],[-98.22619462999997,17.24188944946526],[-98.24434241999995,17.25146688946504],[-98.25585551999995,17.250500289465037],[-98.26480907999998,17.24636088946517],[-98.27719211999994,17.25007642946504],[-98.28848331999997,17.238220399465373],[-98.30214284999994,17.24628579946518],[-98.32349521999998,17.27594414946435],[-98.31783737999997,17.302387169463625],[-98.30481051999999,17.32751982946294],[-98.28737317999997,17.32901114946291],[-98.30491477999999,17.39430376946112],[-98.33585074999996,17.456304629459456],[-98.33238077,17.471981999459025],[-98.32901350999998,17.478727889458884],[-98.31188427999996,17.477492219458895],[-98.32029761999996,17.506882079458077],[-98.33082728999996,17.51176327945795],[-98.32955676999995,17.515486549457865],[-98.33364445999997,17.525509799457623],[-98.32918882999996,17.531206279457447],[-98.32945182999998,17.53298094945737],[-98.34115967999998,17.541917779457176],[-98.34297110999997,17.547337119457033],[-98.34478901999995,17.548382519457007],[-98.34395011,17.55659434945679],[-98.34530492,17.562587549456595],[-98.34868891999997,17.56480185945654],[-98.35348084999998,17.564860739456517],[-98.35192091999994,17.5660198594565],[-98.35099359999998,17.57137677945635],[-98.35470291999997,17.57561899945627],[-98.35459311999996,17.57897664945619],[-98.35570021999997,17.580312509456135],[-98.36140430999997,17.579276509456154],[-98.35918931999998,17.58409951945602],[-98.36473111,17.582620459456056],[-98.37697157999997,17.605349059455442],[-98.39799273999995,17.603563279455507],[-98.41015193999999,17.599768739455616],[-98.43310791999994,17.62299534945498],[-98.45050464999998,17.633345179454693],[-98.46104473999999,17.630358859454784],[-98.46647487999996,17.649457249454283],[-98.46667287999998,17.662900999453885],[-98.47070454999994,17.678095979453474],[-98.48617250999996,17.68099221945343],[-98.48649647999997,17.693627579453086],[-98.48965562999997,17.70343888945279],[-98.48636053999996,17.70510504945276],[-98.48910956999998,17.721712459452327],[-98.48669899999999,17.73373154945202],[-98.49661636999997,17.76156210945127],[-98.49634267999996,17.76880944945106],[-98.49393977999995,17.772966709450948],[-98.47067308999999,17.7890934294505],[-98.42495698,17.839594509449153],[-98.42356008999998,17.879630549448105],[-98.42654773999999,17.887847169447863],[-98.42650350999997,17.890298289447784],[-98.42422584999997,17.89223776944777],[-98.42936810999998,17.89259605944777],[-98.43356321999995,17.88894731944785],[-98.43551791999995,17.8914113694478],[-98.43236434999994,17.90133127944748],[-98.43443821999995,17.908372309447337],[-98.43654922999997,17.910979709447254],[-98.43652041999998,17.91392431944717],[-98.43918779999996,17.916317489447092],[-98.43922954999994,17.918995799447057],[-98.44499794999997,17.922297059446965],[-98.43246576999996,17.92610373944683],[-98.43270351999998,17.92761671944682],[-98.42817073999998,17.930230029446765],[-98.42671168999999,17.93612687944661],[-98.42512809,17.935697049446592],[-98.42416505999995,17.938238349446546],[-98.4229764,17.949327709446223],[-98.42563426,17.956633849446046],[-98.43168197999996,17.962779579445897],[-98.43273262999998,17.971998889445643],[-98.43124613999998,17.97450777944558],[-98.43190647999995,17.97694122944547],[-98.42781041999996,17.97461510944557],[-98.42509433999999,17.976933539445508],[-98.43025994999994,17.980124689445386],[-98.43275919999996,17.983903249445284],[-98.44018758,17.981981539445364],[-98.44814047999996,17.990711089445124],[-98.46076139999997,17.98933447944514],[-98.47146576999995,17.9917846494451],[-98.47638665999995,17.98104361944537],[-98.48171707999995,17.983958449445304],[-98.48679693999998,17.99079874944514],[-98.49449485999997,17.98908133944516],[-98.50049176999994,17.99557893944498],[-98.50497342999996,17.993410859445042],[-98.51451376999995,17.99255685944506],[-98.52365314999997,17.99424228944503],[-98.52672481999998,17.996288849444973],[-98.52478374999998,17.992992519445046],[-98.52670593999994,17.989831719445135],[-98.52559597,17.98516019944528],[-98.52962825999998,17.97582251944554],[-98.53606168,17.975684979445514],[-98.53843291999999,17.98380419944533],[-98.54377690999996,17.97335337944559],[-98.55394742,17.97877313944544],[-98.55539031999996,17.972840109445603],[-98.56480337999994,17.97423471944554],[-98.56951421999999,17.972154919445607],[-98.57539728999996,17.976353249445506],[-98.5797768,17.97476013944556],[-98.58060230999996,17.97594151944552],[-98.58375814999994,17.975259779445533],[-98.58453154999995,17.97382967944558],[-98.58552348999996,17.974941029445514],[-98.58850126,17.972024829445647],[-98.58787330999996,17.9703096794457],[-98.59518891999996,17.965626309445803],[-98.59321225999997,17.960362219445923],[-98.59454394999995,17.961210459445944],[-98.59632411999996,17.959062569445997],[-98.59580088999998,17.962771519445866],[-98.59775696999999,17.963223169445858],[-98.59988756999996,17.96105442944592],[-98.60227579999997,17.96152436944591],[-98.60423716999998,17.959620339445983],[-98.60671968999999,17.96015834944592],[-98.60933347999998,17.957444969446],[-98.61048351999995,17.958062799445997],[-98.61337382999996,17.949851829446228],[-98.61813262999999,17.94683821944632],[-98.62205421999995,17.941712349446426],[-98.62370241999997,17.941762029446444],[-98.62234154999999,17.943890229446346],[-98.62351028999997,17.944661229446364],[-98.62567828999994,17.943097579446377],[-98.62719101999996,17.943339339446364],[-98.62610802999997,17.944877539446345],[-98.63297922999999,17.943532349446397],[-98.63817710999996,17.93953576944652],[-98.64033108999998,17.93532394944661],[-98.64303361999998,17.935339769446596],[-98.64455850999997,17.93359237944665],[-98.64772128999994,17.93484487944664],[-98.65053816999995,17.93316104944664],[-98.65217190999994,17.93380811944663],[-98.65119805999996,17.93616948944658],[-98.65396427999998,17.93644731944659],[-98.65667065999997,17.94029262944646],[-98.66201142999995,17.94321245944638],[-98.66623905999997,17.944838349446364],[-98.67295474999997,17.94326870944638],[-98.67441242999998,17.94590257944633],[-98.67310282999995,17.950302749446198],[-98.68251889,17.95628311944602],[-98.68508564999998,17.955894139446052],[-98.68810201999997,17.9619381694459],[-98.69287584999995,17.960910339445924],[-98.69334525999994,17.95921268944599],[-98.69523957999998,17.959390739445972],[-98.69804991999996,17.956612599446014],[-98.69908997999995,17.957273119445986],[-98.69843202,17.956064579446025],[-98.70012264999997,17.95448142944609],[-98.70594805999998,17.955614449446053],[-98.70954647999997,17.95953039944598],[-98.70710637999998,17.96559753944578],[-98.70884005999994,17.967540599445762],[-98.71198033999997,17.969208879445702],[-98.71344934999996,17.966628249445762],[-98.71702871999997,17.973602169445574],[-98.73182747999995,17.982553019445362],[-98.73526885999996,17.98176868944534],[-98.74596154999995,17.986061419445253],[-98.74891816999998,17.98566564944526],[-98.74810981999998,17.984082569445302],[-98.74977097999994,17.983503199445295],[-98.75067294999997,17.986760599445205],[-98.75482157,17.98705142944524],[-98.75463702999997,17.990729449445144],[-98.75850284999996,17.98959217944515],[-98.75880654999997,17.990829919445133],[-98.76263110999997,17.99092108944511],[-98.76694679999997,17.989265659445174],[-98.80169471,18.003001919444788],[-98.80801928999995,18.003019619444775],[-98.81100511999996,18.00083421944487],[-98.81493842999998,18.001696709444815],[-98.81648868999997,18.004394519444777],[-98.81587598,18.007891139444645],[-98.81284011999998,18.00953393944462],[-98.81324028999995,18.011240419444558],[-98.81121830999997,18.01360422944452],[-98.80588121999995,18.015105779444472],[-98.80663333999996,18.01680274944446],[-98.80125961999994,18.022052429444276],[-98.79407062999998,18.023975489444243],[-98.78571153999998,18.020559939444343],[-98.78189117999995,18.021440619444338],[-98.77784350999997,18.019553179444365],[-98.76709710999997,18.019611169444374],[-98.76423304999997,18.021796029444324],[-98.76598959999995,18.022579709444283],[-98.76425761999997,18.025239219444217],[-98.76234953999995,18.024255599444245],[-98.75880417999997,18.027365849444127],[-98.75573962,18.026580459444176],[-98.74414479999996,18.033334999443962],[-98.74401664999999,18.03689208944389],[-98.74129458,18.037581459443903],[-98.74018768999997,18.0400930894438],[-98.73790296999994,18.039997489443834],[-98.73509785999995,18.045095119443673],[-98.74350990999994,18.04440567944371],[-98.74652347999996,18.046577519443613],[-98.75089179999999,18.045771149443674],[-98.75547233999998,18.047200229443607],[-98.75913807999996,18.0446760194437],[-98.76418574999997,18.050257779443527],[-98.77262925999997,18.048922849443592],[-98.77901428999996,18.05699302944336],[-98.78506993999997,18.059305659443318],[-98.79107876999996,18.0584788494433],[-98.79188834999997,18.06079517944328],[-98.79707010999994,18.062646479443234],[-98.80033664999996,18.053077819443473],[-98.80634594999998,18.054230199443445],[-98.81129714999997,18.050632719443552],[-98.81410239999997,18.056374109443368],[-98.81229011999996,18.061690219443243],[-98.81299973999995,18.06487534944312],[-98.81994962999994,18.064912179443123],[-98.82236034999994,18.063062539443184],[-98.83067981999996,18.06444528944315],[-98.86981181999995,18.057216659443352],[-98.87071087999999,18.05819997944332],[-98.85236976899995,18.11760094044173],[-98.88187688899995,18.16616209044046],[-98.95721908999997,18.188697509439862],[-99.00006631999997,18.190204909439814],[-98.99406225999996,18.212858949439234],[-98.99500390999998,18.23739199943859],[-98.98904085,18.24931773943824],[-98.99950992,18.25038056943823],[-99.00426258,18.248115179438315],[-99.00663908999996,18.244082919438387],[-99.01129907999996,18.247497369438324],[-99.01932994999999,18.245411049438335],[-99.02359299999996,18.249186319438245],[-99.02160707999997,18.25020387943826],[-99.01789379999998,18.25906808943798],[-99.01522316999996,18.258236549438017],[-99.01612401999995,18.263404939437876],[-99.01470739999996,18.263265859437887],[-99.01690331999998,18.2663914194378],[-99.03170550999994,18.272314519437668],[-99.04909368999995,18.259588369438],[-99.05577144999995,18.250173969438233],[-99.06370988999998,18.251483029438173],[-99.06131956999997,18.257995679438],[-99.06405217999998,18.260501519437955],[-99.06382045,18.26250153943793],[-99.05479499999996,18.262258289437902],[-99.05322811999997,18.264156369437835],[-99.05483271999998,18.271354309437676],[-99.05766557999999,18.272984969437612],[-99.06153594999995,18.27146179943768],[-99.06521402999994,18.277070769437493],[-99.06528019999996,18.279912149437425],[-99.06882705999999,18.280710909437413],[-99.06936387999997,18.28323467943738],[-99.06522657999994,18.2848306294373],[-99.06269059999994,18.28172921943739],[-99.06083951999994,18.28196068943741],[-99.05177254999995,18.289815249437197],[-99.06033519999994,18.297247509436975],[-99.05947141999997,18.30471593943679],[-99.06275962999996,18.305755739436762],[-99.06425513999994,18.308700279436668],[-99.06200226,18.31395745943653],[-99.06241502999995,18.31952973943641],[-99.06727681999996,18.31902556943642],[-99.06991331999996,18.324231769436256],[-99.06996816999998,18.32837107943617],[-99.06611831999999,18.333067339436056],[-99.07167876999995,18.33520850943596],[-99.07596356999994,18.342379219435788],[-99.07556487999994,18.344618799435718],[-99.06985461999994,18.350423449435585],[-99.07117850999998,18.359480219435323],[-99.06620194999995,18.35938856943537],[-99.06605050999997,18.36710521943513],[-99.07120205999996,18.37039630943505],[-99.07283925999997,18.377312459434865],[-99.07921544999999,18.372688519435002],[-99.08125645999996,18.37311470943496],[-99.07853644999994,18.387065969434605],[-99.08415253999999,18.39136799943451],[-99.08954688999995,18.3999857194343],[-99.09560871999997,18.40187005943419],[-99.10051832,18.401188999434236],[-99.10772811,18.409912539434007],[-99.10849227999995,18.416333849433848],[-99.11065777,18.419074579433754],[-99.11393568999995,18.418819279433762],[-99.12831485999999,18.427308979433576],[-99.13011862999998,18.432216879433433],[-99.12495879999994,18.436275889433325],[-99.12439524999998,18.441239649433196],[-99.12520024999998,18.442451679433137],[-99.12984297999998,18.440927569433185],[-99.13239697999995,18.443663769433137],[-99.13267408999997,18.446402849433017],[-99.13609828999995,18.449186949432995],[-99.13401057999995,18.45796281943273],[-99.13943402999998,18.46405147943256],[-99.13788767999996,18.46956890943246],[-99.14057282,18.470668249432432],[-99.14062334999994,18.4749730894323],[-99.14487745999998,18.47554937943231],[-99.14455173999994,18.472718719432354],[-99.14116444999996,18.46908381943244],[-99.14270977999996,18.467843819432474],[-99.14241122,18.465285339432544],[-99.14484242999998,18.466910349432492],[-99.14679816999995,18.464881339432544],[-99.14912030999994,18.467436949432482],[-99.15612756999998,18.46634842943251],[-99.15846090999997,18.46361927943259],[-99.16031536999998,18.464334489432584],[-99.16394094999998,18.462629229432636],[-99.17047968999998,18.455223619432793],[-99.18131507999999,18.448417749432977],[-99.18233913999995,18.436130229433328],[-99.17790536999996,18.424745249433624],[-99.18881625999997,18.435206349433336],[-99.20667402999999,18.447434429433013],[-99.20442934999994,18.455281949432795],[-99.20542162999999,18.456588799432804],[-99.24600705999995,18.45643336943281],[-99.24618587999998,18.45171188943292],[-99.24760733999994,18.450999249432932],[-99.28014514999995,18.454576489432803],[-99.28192122999997,18.457532579432783],[-99.28407731,18.456418579432782],[-99.28741399999997,18.458769449432708],[-99.28776167999996,18.457276079432756],[-99.30423664999995,18.459473379432726],[-99.31068819999996,18.457018999432783],[-99.31215225999996,18.454787319432818],[-99.32836782,18.45954024943268],[-99.32983599999994,18.465229339432568],[-99.32826428,18.488831539431914],[-99.33560613999998,18.483866909432088],[-99.34555553999996,18.482296539432095],[-99.34605636999999,18.48394801943208],[-99.35267525999996,18.485980829432037],[-99.35070674999999,18.478970509432205],[-99.34344565999999,18.467127859432516],[-99.35740425999995,18.467669169432458],[-99.35505336999995,18.476737819432245],[-99.36423968999998,18.485144179432055],[-99.36418270999998,18.49770822943171],[-99.36295191999994,18.499026719431683],[-99.3723854,18.507890539431443],[-99.37921611999997,18.520530689431094],[-99.38387731999995,18.52115205943111],[-99.38529848999997,18.52628301943095],[-99.39027117999997,18.52568282943096],[-99.39923129,18.54040679943056],[-99.40080559999996,18.539535379430625],[-99.40072002999995,18.542894849430496],[-99.40780442999996,18.556066369430166],[-99.42288217999999,18.56206787942999],[-99.42529444999997,18.579127549429582],[-99.42022330999998,18.58622979942939],[-99.41970445,18.59033665942926],[-99.42193761999994,18.58891039942928],[-99.42339554999995,18.591277149429242],[-99.42938101999994,18.588920909429323],[-99.43564333999996,18.592761379429227],[-99.43517941999994,18.598067939429093],[-99.44049499999996,18.597464399429064],[-99.44272504999999,18.60316076942892],[-99.4399534,18.610980479428697],[-99.44120145999996,18.61257399942868],[-99.44609748999996,18.614492689428666],[-99.45388631999998,18.609902319428766],[-99.45809725999999,18.63406139942813],[-99.46441588999994,18.64366999942786],[-99.47757604999998,18.67356525942707],[-99.48291342999995,18.692655019426603],[-99.48016711999999,18.694813399426522],[-99.48127608999994,18.696149309426513],[-99.48316988,18.693605019426574],[-99.48348956999996,18.69502702942654],[-99.48556288999998,18.695033679426523],[-99.48453594999995,18.69944016942641],[-99.49441414999995,18.720544799425824],[-99.50452976999998,18.711703419426076],[-99.51403045999997,18.708038519426182],[-99.52234290999998,18.707430599426214],[-99.52690678,18.69968387942641],[-99.53238334999998,18.696766459426478],[-99.53339699999998,18.694186829426524],[-99.53643491999999,18.69375110942656],[-99.54449767999995,18.695357569426523],[-99.54566073999996,18.697757939426427],[-99.55110773999996,18.697391489426433],[-99.55401868999996,18.698787849426406],[-99.55534456999999,18.697761119426456],[-99.55966387999996,18.70179767942632],[-99.56232397999999,18.70120451942634],[-99.56978154999996,18.705510939426265],[-99.57296882999998,18.71166250942608],[-99.57614944999996,18.71209839942609],[-99.57632888999997,18.716162309425993],[-99.58033407999996,18.7184474494259],[-99.58169085999998,18.72174757942583],[-99.57972024999998,18.73517862942549],[-99.58990891999998,18.739307219425378],[-99.60110854999999,18.738995659425374],[-99.60574101999998,18.740627619425336],[-99.61263093999997,18.73896194942535],[-99.61429805999995,18.73612107942542],[-99.61877987999998,18.741256309425292],[-99.62286605999999,18.739838909425362],[-99.62091882999995,18.734899279425463],[-99.62112074999999,18.725932779425715],[-99.62373147999995,18.722510219425814],[-99.63090774999995,18.720552229425863],[-99.63688332,18.72663845942571],[-99.63656650999997,18.73263064942552],[-99.63832102999999,18.737328139425408],[-99.64352427999995,18.738508419425404],[-99.64874044999999,18.743186179425276],[-99.64862322999996,18.748027049425165],[-99.65610076999998,18.757575679424896],[-99.65731753999995,18.76269853942473],[-99.66031659999999,18.765238619424682],[-99.66145586,18.771305459424546],[-99.66489816999996,18.77168241942451],[-99.67532122999997,18.77925301942432],[-99.67856917999997,18.77863825942433],[-99.68314033999997,18.780789649424264],[-99.68373479999998,18.779433399424335],[-99.68834673999999,18.782323619424254],[-99.69065607999995,18.78150614942425],[-99.69204399999995,18.784265429424206],[-99.69699350999997,18.786336919424148],[-99.69702896999998,18.783057379424225],[-99.69566891999995,18.783224429424237],[-99.69699519999995,18.782557199424225],[-99.69666554999998,18.778783089424323],[-99.69473545999995,18.776772279424378],[-99.70915788899998,18.768838880424568],[-99.70613350999997,18.76650811042467],[-99.70447441899995,18.76163099942475],[-99.70166492,18.76038911042481],[-99.69789647899995,18.753055719425035],[-99.69213017999999,18.74754588042516],[-99.69206530899999,18.745356709425216],[-99.68758951899999,18.742706820425294],[-99.68454574999998,18.735751080425445],[-99.68187108999996,18.735951340425434],[-99.68418184899997,18.733182540425545],[-99.681930149,18.731541369425575],[-99.68077544999994,18.7274296294257],[-99.67748941899998,18.726333229425677],[-99.67199617899996,18.717287319425918],[-99.67197237999996,18.713503939426058],[-99.67956404999997,18.711333290426122],[-99.68340957,18.717975920425935],[-99.69317805999998,18.721232719425824],[-99.69892710899995,18.727629350425694],[-99.69842116899997,18.729735109425587],[-99.70044367899999,18.732691570425526],[-99.70472864899996,18.73493251942545],[-99.70928247999996,18.73505418042549],[-99.71056147999997,18.736430220425422],[-99.71815985899997,18.734440480425473],[-99.72471159899999,18.738151020425367],[-99.737031399,18.739832510425337],[-99.74068031899998,18.73649773942545],[-99.73964668999997,18.73461954942548],[-99.74106482999997,18.731138179425596],[-99.73909764999996,18.72827910942568],[-99.74121488999998,18.728515139425664],[-99.74219604899997,18.725885290425722],[-99.74787496999996,18.723238079425776],[-99.75026487999997,18.719833829425852],[-99.75392821899999,18.71881702042592],[-99.753356549,18.717421200425914],[-99.75829576999996,18.711275579426104],[-99.75758794999997,18.704184019426293],[-99.75482729,18.70173943042637],[-99.75490033999995,18.69738709042646],[-99.75992317899995,18.693949889426552],[-99.76311530999999,18.69365331042656],[-99.7675698,18.688456509426675],[-99.77242274999998,18.686197400426774],[-99.77229097899999,18.68070174042691],[-99.77434733999996,18.67458636942705],[-99.78207027999999,18.66673228942723],[-99.78430557999997,18.66233559942739],[-99.78426791999999,18.658850229427458],[-99.78032270999996,18.654089769427586],[-99.78457830999997,18.651088939427645],[-99.78331554999994,18.64236634942788],[-99.79300474999997,18.63065762942818],[-99.79423179999998,18.629879819428222],[-99.79751217999996,18.633775309428103],[-99.79861696999996,18.631088029428206],[-99.80106885999999,18.634007939428123],[-99.80073705999997,18.631844769428167],[-99.80266921999998,18.635678029428092],[-99.80469799999999,18.637051149428032],[-99.80697839999999,18.636272949428044],[-99.81251751999997,18.640857909427904],[-99.81118023,18.63646733942802],[-99.81366947999999,18.63478061942812],[-99.81324285999995,18.62981730942825],[-99.81655874999997,18.62500342942835],[-99.81752377999999,18.626322539428323],[-99.82088099999999,18.62499468942836],[-99.82521365999997,18.6263381394283],[-99.82769151999997,18.624060649428372],[-99.83048054999995,18.627569089428302],[-99.83787208999998,18.62347487942841],[-99.84371864999997,18.624883689428355],[-99.84299176999998,18.62125379942845],[-99.84835951999997,18.620258829428497],[-99.84914005999998,18.612549909428672],[-99.84759653999998,18.612734909428656],[-99.84788908999998,18.611258539428714],[-99.84471991999999,18.608525089428795],[-99.84761807999996,18.60549039942888],[-99.85140416999997,18.606256779428822],[-99.85814941999998,18.612272079428664],[-99.86329981999995,18.614255909428646],[-99.86374139999998,18.61786202942851],[-99.86893924999998,18.61469821942861],[-99.87187331999996,18.616497479428606],[-99.88175327999994,18.617535429428536],[-99.88344162,18.619149579428512],[-99.88846284999994,18.618663049428534],[-99.89621076999998,18.610095509428763],[-99.90637234999997,18.605130419428846],[-99.90700144999994,18.60182096942898],[-99.91666421999997,18.597881769429083],[-99.92212636999994,18.598565549429043],[-99.92714548,18.59477265942915],[-99.93334348999998,18.59229888942922],[-99.93434639999998,18.59334416942914],[-99.93650390999994,18.59104031942925],[-99.93905722999995,18.592009139429244],[-99.94094964999995,18.58921361942931],[-99.94260634999995,18.590024569429243],[-99.94452342999995,18.587685459429323],[-99.94716185,18.58794056942933],[-99.94836479999998,18.58406414942945],[-99.94729231999999,18.58299074942943],[-99.95097139999996,18.58040081942949],[-99.94889582999997,18.578750629429578],[-99.95157873999995,18.578359429429565],[-99.95386873999996,18.574963259429683],[-99.95296054999994,18.57250516942974],[-99.95615999999995,18.572459799429737],[-99.95691551999994,18.56937837942981],[-99.96057457999996,18.567338689429864],[-99.95792294999995,18.564855139429962],[-99.96101973999998,18.563726059429936],[-99.95990198099997,18.560436077430065],[-99.96195507999995,18.556121219430132],[-99.96041681999999,18.555407599430154],[-99.96167225999996,18.552978909430227],[-99.96504102999997,18.556172199430165],[-99.97608801999996,18.561450909430054],[-99.98077688999997,18.566000429429877],[-99.98969490999997,18.569702149429826],[-99.99226528999998,18.56943396942979],[-99.99369321999995,18.566191259429885],[-99.99821850999996,18.56361385942995],[-100.00160336999994,18.56393005942998],[-100.00364931999998,18.56749874942984],[-99.99930084999994,18.58357836942944],[-100.00518864999998,18.585867949429353],[-100.01061414999998,18.590352089429285],[-100.01474585999995,18.596307879429098],[-100.01513265999995,18.599677199429],[-100.02496362999995,18.606866749428836],[-100.03356964999995,18.60617347942884],[-100.03757927999999,18.5965899394291],[-100.04033499999997,18.597377969429054],[-100.04562413999997,18.593533769429154],[-100.05140916999994,18.5931579794292],[-100.05161188999996,18.590969999429223],[-100.06359593999997,18.585503919429414],[-100.06592782999996,18.590518569429246],[-100.07175497999998,18.59369148942916],[-100.08241382999995,18.587949829429355],[-100.07073150999997,18.58281633942943],[-100.06888633999996,18.564440649429947],[-100.07294305,18.560297939430058],[-100.07523570999996,18.551446349430286],[-100.08180473999994,18.540409519430547],[-100.08533516999996,18.53861551943064],[-100.08995113999998,18.52216077943104],[-100.10450951999997,18.52401221943099],[-100.12267728999996,18.516494549431226],[-100.12003048999998,18.516203709431238],[-100.12085376999994,18.51365922943126],[-100.11797545999998,18.513711219431286],[-100.11966522999995,18.511643059431318],[-100.11864376999995,18.50995585943138],[-100.12149502999995,18.51158651943131],[-100.12245779999995,18.510181799431376],[-100.11851553999998,18.505962139431496],[-100.12262813999996,18.505577859431515],[-100.12532877999996,18.508088029431445],[-100.12801217999998,18.50780308943142],[-100.12696342,18.502643229431563],[-100.13028898,18.503227029431557],[-100.13217454999995,18.499963979431662],[-100.13355522999996,18.506309249431492],[-100.13618333999995,18.50612407943148],[-100.13831422999999,18.502418079431564],[-100.14216151999995,18.502539059431577],[-100.14519037999997,18.49804313943169],[-100.14559150999997,18.488021919431954],[-100.14681961999999,18.489879289431887],[-100.15082471999995,18.488197799431923],[-100.15169875,18.491425849431856],[-100.15876999999995,18.491819619431862],[-100.16012807999995,18.490489999431865],[-100.15930733999994,18.488840119431966],[-100.15612634999998,18.490144449431913],[-100.15754725999994,18.486810549431976],[-100.15892651999997,18.48835933943194],[-100.16083047999996,18.48583641943201],[-100.16199488999996,18.487723179431963],[-100.16325108999996,18.485604419432047],[-100.16617828999995,18.486500939431984],[-100.16432356999998,18.483062509432063],[-100.16692163,18.482005219432143],[-100.16533599999997,18.479713629432172],[-100.16941208999998,18.479070679432198],[-100.17037911999995,18.483422339432085],[-100.17167221999996,18.481057059432153],[-100.17420297999998,18.48168133943209],[-100.17198382999999,18.47151414943241],[-100.18236813999994,18.468121539432456],[-100.18023110999998,18.465798429432553],[-100.18063065999996,18.464091799432595],[-100.18492613999997,18.458313169432746],[-100.18653350999995,18.46001073943267],[-100.18805770999997,18.459091859432732],[-100.18573624999999,18.455107229432834],[-100.19168221999996,18.454852419432843],[-100.19503951999997,18.45675245943281],[-100.19635187999995,18.454656229432846],[-100.19773505999996,18.456575019432787],[-100.20013964999998,18.456694509432765],[-100.19919621999998,18.45193507943291],[-100.20865576999996,18.441229319433177],[-100.20967214999996,18.44198031943314],[-100.20832699999994,18.4440209494331],[-100.20871122999995,18.449159379432952],[-100.21707608899999,18.445923690433084],[-100.21820445899999,18.44062731943318],[-100.22410471999996,18.438186850433294],[-100.22441425899996,18.43412703043339],[-100.22753373999997,18.43535442043334],[-100.22702641999996,18.43085584943347],[-100.23153565999998,18.43193830943346],[-100.23125082999998,18.427338150433567],[-100.23336947999998,18.42819848043351],[-100.23396879999996,18.423715649433678],[-100.23426890999997,18.426179659433586],[-100.23801431999999,18.425218720433573],[-100.23529988899998,18.42242270943367],[-100.23639964899996,18.41677176943381],[-100.23879670999997,18.41650840043383],[-100.23809451999995,18.41836017943377],[-100.23987984999997,18.419485829433754],[-100.24217410899996,18.416536309433805],[-100.24416857999995,18.417892860433792],[-100.24373579999998,18.419139259433788],[-100.24556521899997,18.418719749433766],[-100.24582004899997,18.423873970433625],[-100.24723379899997,18.42152808943369],[-100.24946012,18.42469432043364],[-100.24828383,18.426762579433575],[-100.25004635,18.425329800433595],[-100.25049767899999,18.42668205043357],[-100.25351657999994,18.425751969433556],[-100.25729327999994,18.429010779433515],[-100.25951990999995,18.427432689433555],[-100.25811588,18.42554264943362],[-100.26114648999999,18.420693879433717],[-100.26065149,18.418342689433768],[-100.25902501999998,18.418353479433797],[-100.26033564999994,18.41802701943381],[-100.26042796999997,18.415559319433864],[-100.26296773999998,18.417782909433782],[-100.26375428899998,18.41383146043389],[-100.26114525899999,18.41285016943395],[-100.26558413899994,18.412178710433913],[-100.26377254899995,18.408514119434056],[-100.26630487999996,18.408474539434046],[-100.26758753899999,18.401420059434255],[-100.26949651999996,18.39990518043429],[-100.27061177899999,18.393681919434464],[-100.26725865999998,18.38577724943465],[-100.26884902899998,18.38312454943472],[-100.26787442899997,18.37945125943482],[-100.27089151899997,18.373732460434944],[-100.27668865999999,18.37208036943501],[-100.27697305,18.378565380434825],[-100.27877122999996,18.380791779434766],[-100.28383142999996,18.37786087943488],[-100.28579042899999,18.380584279434782],[-100.28820894999996,18.37989741943483],[-100.29197827999997,18.381605919434733],[-100.29332634899998,18.375296489434913],[-100.29746665,18.374392260434913],[-100.298198519,18.371644150435028],[-100.30130687999997,18.370469260435048],[-100.30375316899996,18.367017219435134],[-100.31396650899995,18.37739234043489],[-100.31563899999999,18.38139762043479],[-100.31958017999995,18.38064105943481],[-100.33153381999995,18.391435019434518],[-100.34614128999999,18.40031448943424],[-100.35203464999996,18.4143327694339],[-100.35944131999999,18.423461859433633],[-100.37411453999995,18.42298568943369],[-100.38535698,18.42652413943355],[-100.38029987999995,18.455661769432812],[-100.37756947999998,18.45963265943271],[-100.37739657999998,18.463479059432597],[-100.36749148899997,18.47538311943229],[-100.36200317899994,18.49684722943173],[-100.37319441899996,18.524134309430984],[-100.37370129,18.529113849430868],[-100.38237851999997,18.537343289430634],[-100.38879848,18.540176859430566],[-100.39595368999996,18.540520089430558],[-100.40315005999999,18.53397482943072],[-100.40591521999995,18.533549889430773],[-100.41136791999998,18.52073968943107],[-100.42909694999999,18.51004805943135],[-100.43488791999995,18.528808889430884],[-100.44332716999999,18.542667679430497],[-100.44663879999996,18.545662089430444],[-100.44608882999997,18.550448799430303],[-100.44822544999994,18.552236259430245],[-100.44936159999997,18.55656136943016],[-100.44271161999995,18.56713019942989],[-100.44349344999996,18.570993119429748],[-100.44080939999998,18.574422339429695],[-100.44105888999997,18.579399709429584],[-100.43685110999998,18.58524291942939],[-100.43701602999994,18.592875829429175],[-100.43559604999996,18.591999659429224],[-100.43693696999999,18.59647485942911],[-100.42973330999996,18.59927321942902],[-100.43683305999997,18.613716579428672],[-100.44650902999997,18.622465229428418],[-100.45140797999996,18.62392634942837],[-100.45763579999999,18.6223792894284],[-100.46193145999996,18.61855991942853],[-100.47428931999997,18.619216119428497],[-100.47639271999998,18.630089689428214],[-100.48702768999999,18.640351649427977],[-100.48841631999994,18.653191109427592],[-100.47777168,18.672983539427122],[-100.47833719999994,18.68686477942675],[-100.47338493999996,18.690928719426623],[-100.45447493999995,18.694417719426536],[-100.44713331999999,18.701575049426335],[-100.44989448999996,18.703619719426314],[-100.45037354999995,18.71604807942599],[-100.44428970999996,18.72311104942579],[-100.44023151999995,18.739723059425376],[-100.43730562999997,18.74560527942521],[-100.43713042999997,18.75055524942507],[-100.41808521999997,18.759514079424815],[-100.42314182899997,18.764773830424716],[-100.42775821899994,18.766618519424664],[-100.42614314999997,18.773737250424468],[-100.43180208999998,18.7755054594244],[-100.43063374999997,18.783248449424192],[-100.43528291999998,18.77961601942431],[-100.43656885899998,18.78311119942424],[-100.44093553999994,18.781881219424267],[-100.44284416999994,18.7798217394243],[-100.44181494999998,18.776527429424387],[-100.44463021999996,18.776834889424364],[-100.44554967999994,18.779172819424318],[-100.45047650999999,18.77999097942429],[-100.45103541999998,18.782793089424217],[-100.45303888999996,18.78127756942426],[-100.45325601999997,18.77857905942431],[-100.45600434999996,18.77787814942435],[-100.45752784999996,18.779548949424303],[-100.45573687999996,18.7843172294242],[-100.45799267999996,18.788233459424106],[-100.45747268999997,18.79003871942403],[-100.45935605999996,18.79099576942402],[-100.45836685999996,18.795671379423887],[-100.45939164999999,18.796892689423853],[-100.46215874999997,18.796968419423845],[-100.46508119999999,18.794440999423923],[-100.47762776999997,18.795960659423876],[-100.48177021999999,18.79865164942383],[-100.49028504999995,18.78930304942407],[-100.49761485999994,18.805960689423635],[-100.49585521999995,18.808174719423576],[-100.48988194999998,18.8103785394235],[-100.49348270999997,18.82391671942316],[-100.50216997999996,18.830865399422972],[-100.51396314999994,18.82931225942302],[-100.53861988999995,18.844110649422642],[-100.53795384999995,18.83618339942282],[-100.54111202999997,18.83672927942281],[-100.54456677999997,18.838042909422796],[-100.55179422999998,18.845546459422575],[-100.56639397999999,18.848590109422492],[-100.57222373999997,18.85420153942239],[-100.57701413999996,18.85561559942236],[-100.57677921999999,18.857780949422285],[-100.58549378,18.85876585942226],[-100.59076667999996,18.86590673942207],[-100.59245991999997,18.86588994942207],[-100.59140131999999,18.867934749422034],[-100.59746865999996,18.876181849421766],[-100.60517677999997,18.87568171942181],[-100.60692082999998,18.88338090942159],[-100.61018113999997,18.88711748942149]]],[[[-99.90421147299998,16.821637219476763],[-99.90879712399999,16.824997120476635],[-99.91195062199995,16.82442248647667],[-99.91230337899998,16.822409580476727],[-99.91682967599996,16.823965466476686],[-99.91815037199996,16.822706362476737],[-99.91597483499999,16.82310576647673],[-99.91232351699995,16.819436825476828],[-99.90818509699994,16.819567792476796],[-99.90561234399998,16.817549611476867],[-99.901293271,16.821142400476745],[-99.90141769999997,16.822744104476705],[-99.90421147299998,16.821637219476763]]],[[[-101.65873339799998,17.679431177453477],[-101.66057315799998,17.679035185453447],[-101.66173928899998,17.676117409453568],[-101.65958791299994,17.6732883964536],[-101.65672319,17.673631429453618],[-101.65544779899994,17.677186344453517],[-101.65201304699997,17.673831304453582],[-101.65161226599997,17.675868529453563],[-101.65453662399995,17.678815491453495],[-101.65729084999998,17.677777451453498],[-101.65873339799998,17.679431177453477]]]]}}]}
