{"type":"FeatureCollection","features":[{"type":"Feature","properties":{"cve_ent":"13","cvegeo":"13","nombre_inegi":"Hidalgo","nombre_catalogo":"Hidalgo"},"geometry":{"type":"Polygon","coordinates":[[[-98.48553527999998,21.398375679358445],[-98.48744788999996,21.397546919358433],[-98.48692761999996,21.3923861793586],[-98.48887930999997,21.391127519358612],[-98.49129827999997,21.39198742935856],[-98.49460253999996,21.3871702493587],[-98.50120770999996,21.38545650935873],[-98.50404339999994,21.389497779358653],[-98.50708164999998,21.38616102935871],[-98.50495425999998,21.381996999358837],[-98.50868261999995,21.378392919358923],[-98.51293134999997,21.377067889358923],[-98.51313073999997,21.374452849359024],[-98.51575184999996,21.37228964935904],[-98.51159157999996,21.368974259359163],[-98.50907001999997,21.37065074935909],[-98.50737904999994,21.36997097935912],[-98.50685602999994,21.36610344935919],[-98.51142579999998,21.362513139359272],[-98.51484609,21.365216199359264],[-98.51538477999998,21.3616856493593],[-98.51744450999996,21.36186470935934],[-98.52041461999995,21.364651449359247],[-98.52052001999999,21.36862857935916],[-98.52518108999999,21.366027379359213],[-98.52754910999994,21.366549319359194],[-98.52742421999994,21.36780185935917],[-98.52957830999999,21.367762259359175],[-98.52821719999997,21.369730059359117],[-98.53020639999994,21.369532169359154],[-98.52980051999998,21.371121689359082],[-98.53145210999998,21.371166999359104],[-98.53087388999995,21.372517709359077],[-98.53360765999997,21.374460519359026],[-98.53254474999994,21.37579337935899],[-98.53385447999996,21.376510649358966],[-98.53105016999996,21.377639139358923],[-98.53197136999995,21.378531969358896],[-98.53525507999996,21.37873964935891],[-98.53452677999996,21.37984790935885],[-98.53603245999994,21.380372939358843],[-98.53929344999995,21.379083519358897],[-98.53908394999998,21.383380479358767],[-98.54130022999999,21.38395799935879],[-98.54500544999998,21.38428711935879],[-98.54458267999998,21.38093993935888],[-98.54614790999995,21.380608229358874],[-98.54703237999996,21.383468779358772],[-98.54956647999995,21.38459842935876],[-98.55202727999996,21.379461119358872],[-98.55698650999996,21.37960130935889],[-98.55888337,21.377430139358946],[-98.56154004999996,21.37744496935894],[-98.56415262999997,21.374840539358985],[-98.56426971999997,21.372033219359068],[-98.56645341999996,21.373709149359],[-98.56771574,21.37077353935912],[-98.57601144999995,21.374633689359005],[-98.57897482,21.37313653935907],[-98.58075013999996,21.374076909359],[-98.58126247999996,21.369686549359105],[-98.58289257999996,21.370132169359106],[-98.58348625999997,21.37283368935905],[-98.58612286,21.371687489359076],[-98.59005171999996,21.372761719359026],[-98.59097001999999,21.366595939359172],[-98.59609081999997,21.36419088935924],[-98.59693527999998,21.35907351935937],[-98.59956185,21.358415279359377],[-98.59989701999996,21.36005990935939],[-98.60244177999999,21.357868649359418],[-98.60352242,21.359250059359347],[-98.60716719999999,21.358154819359395],[-98.60802821999994,21.35952937935935],[-98.61241571999994,21.35936313935935],[-98.61423281999998,21.361968879359317],[-98.61901314999994,21.358857029359353],[-98.62034724999995,21.361246549359315],[-98.61915785999999,21.362515859359274],[-98.62349639999998,21.36471844935925],[-98.62715564999996,21.359814739359347],[-98.62857602999999,21.36476439935926],[-98.63152665999996,21.365590169359248],[-98.63454024999999,21.36365671935927],[-98.63721970999995,21.364019879359265],[-98.63855264999997,21.367717109359177],[-98.64037401999997,21.365954479359193],[-98.64404664999996,21.36653945935922],[-98.64634808999995,21.35866168935942],[-98.64515976999998,21.35806168935941],[-98.64968796999995,21.354827489359483],[-98.64960082,21.35263961935954],[-98.65190334999994,21.352789109359538],[-98.65275014999999,21.346844179359692],[-98.67182731999999,21.34827785935964],[-98.67509128999995,21.349842939359583],[-98.68108336999997,21.34617848935971],[-98.68358607999994,21.341948369359812],[-98.67695004999996,21.336551249359957],[-98.67072728999996,21.32471964936024],[-98.66027150999997,21.32086819936032],[-98.64759531999994,21.312315659360483],[-98.63142173999995,21.31295477936049],[-98.62446554999997,21.30972884936058],[-98.62494693999997,21.308164049360638],[-98.62018256999994,21.307142289360655],[-98.61892090999999,21.304962519360707],[-98.61575382999996,21.304729109360686],[-98.61220568999994,21.299688259360803],[-98.60949273999995,21.299270549360852],[-98.60467325999998,21.30184202936076],[-98.60391262999997,21.297990849360886],[-98.59913145999997,21.29205041936102],[-98.60164857999996,21.286603079361164],[-98.59596568999997,21.285349999361166],[-98.59524144999995,21.28322956936123],[-98.59747867999995,21.282711119361228],[-98.59853096999996,21.279667229361284],[-98.60258027999998,21.279367859361297],[-98.60393956999997,21.276449349361396],[-98.60109909,21.274806139361438],[-98.60418237999995,21.272342349361463],[-98.60305362999999,21.270310749361556],[-98.60499568999995,21.268482169361555],[-98.60227397999995,21.26588648936166],[-98.60244854999998,21.262349599361727],[-98.59997128999998,21.261201909361763],[-98.60767479999998,21.256547739361842],[-98.60892490999998,21.252703999361955],[-98.60685351999996,21.24877567936205],[-98.60420229,21.24945822936206],[-98.59944870999999,21.247731059362064],[-98.60233514999999,21.24287647936221],[-98.60105354999996,21.232763369362438],[-98.60389997999994,21.22533736936261],[-98.60468066,21.22030471936276],[-98.60359211999997,21.21837633936283],[-98.60654473999995,21.21632368936281],[-98.60522611,21.215213349362877],[-98.60874204999999,21.201408289363236],[-98.61797654999998,21.194284879363387],[-98.63861462999995,21.1849614293636],[-98.63915168999995,21.183229859363628],[-98.64242164999996,21.18215654936368],[-98.65062533999998,21.183517949363655],[-98.65052162999996,21.180932660363695],[-98.65852469,21.18610521936359],[-98.65829707999995,21.182805920363673],[-98.66378250999998,21.18405057936365],[-98.66935088999999,21.19324494936342],[-98.66893113999998,21.194859709363364],[-98.67306432,21.19456134936339],[-98.67691774999999,21.199367659363272],[-98.68038984999998,21.198480229363252],[-98.68266005999999,21.2006378593632],[-98.68345164999995,21.197656919363283],[-98.68659833999999,21.194900850363368],[-98.68515276999995,21.190197139363484],[-98.69169933999996,21.1880284893635],[-98.69147025999996,21.18465488036358],[-98.69464839999995,21.182196769363696],[-98.69111785999996,21.16705116936403],[-98.69664050999995,21.16146012036419],[-98.70182008999996,21.160771139364208],[-98.70251845999996,21.161885599364176],[-98.70365511999996,21.168481449364016],[-98.69937296999996,21.17622851936382],[-98.70274298,21.181529939363713],[-98.70117456999999,21.18296687936364],[-98.70212076999996,21.18511827936358],[-98.70523313999996,21.187196829363558],[-98.70875134999994,21.18725685936354],[-98.71471841999994,21.18343996936364],[-98.71644014999998,21.185986380363598],[-98.71952329,21.184158849363644],[-98.71890810999997,21.186361849363546],[-98.72033850999998,21.187130999363514],[-98.72383487999998,21.183049569363643],[-98.72833651999998,21.184342819363604],[-98.72652961999997,21.181281479363694],[-98.72766076999994,21.179549420363735],[-98.73551174999994,21.18233521936365],[-98.73701952,21.188217109363514],[-98.74131386,21.192791799363427],[-98.74215864999996,21.19134217036344],[-98.74054111,21.189406849363518],[-98.74652870999996,21.184328290363606],[-98.75513779999994,21.186672549363536],[-98.76730345999994,21.184416659363627],[-98.76417493999998,21.181642149363697],[-98.76408025999996,21.179570680363707],[-98.76586624999999,21.17581196936382],[-98.77292137999997,21.171968770363893],[-98.77633513999996,21.173641649363866],[-98.77535884999998,21.17507240036382],[-98.77657710999995,21.18200948936366],[-98.77919794999998,21.18239852036366],[-98.78080933999996,21.185981819363583],[-98.79084916999996,21.188043449363537],[-98.79797068,21.18334341936362],[-98.79921559999998,21.184893969363632],[-98.79735714999998,21.19132031936345],[-98.80814319999998,21.19324490936339],[-98.80808437999998,21.189562999363513],[-98.79859422999999,21.17807978036378],[-98.79198111999995,21.179829630363752],[-98.78987807999994,21.178500939363754],[-98.79068833999997,21.171280799363927],[-98.78856439999998,21.166971249364064],[-98.79395335,21.16018362936421],[-98.79609016999996,21.160710479364177],[-98.79703905999999,21.16422730936411],[-98.79907511999994,21.164846459364085],[-98.81378404999998,21.162857399364153],[-98.82059514999999,21.160353799364206],[-98.82494805999994,21.161350169364173],[-98.82848310999998,21.163522179364108],[-98.82928117999995,21.166679179364067],[-98.83254848999997,21.167075509364064],[-98.83756968999997,21.170550969363926],[-98.84049154999997,21.169080030364015],[-98.84362957999998,21.17070407936396],[-98.84706725999996,21.176619660363837],[-98.84794905999996,21.17471024936384],[-98.85209533999995,21.17679928936383],[-98.85559887999996,21.18009615036372],[-98.85644097999995,21.184125719363628],[-98.85457570999995,21.18729082936355],[-98.85739979999995,21.189264220363476],[-98.86375309,21.188369379363515],[-98.87469731,21.180896619363715],[-98.88265881999996,21.17961087936372],[-98.88289676999995,21.192612599363436],[-98.88565259999996,21.195122910363356],[-98.88512588999998,21.196339859363306],[-98.89542350999994,21.203895939363147],[-98.89513519999997,21.21037880036298],[-98.90363876999999,21.21265713936291],[-98.90637410999994,21.223136030362653],[-98.91508090999997,21.225193770362598],[-98.91476449,21.227262089362597],[-98.90781187999994,21.232793170362406],[-98.89888821999995,21.231270140362472],[-98.89860667999994,21.23296307936243],[-98.90155131999995,21.235505619362343],[-98.89924417999998,21.236047910362377],[-98.89989070999997,21.238561459362284],[-98.90065561999997,21.240329420362283],[-98.90280778,21.238397459362293],[-98.90995141999997,21.24193587936219],[-98.91337051999996,21.23992160036227],[-98.91781810999998,21.239754549362278],[-98.92287341999997,21.24673108936208],[-98.91798686,21.251552429361997],[-98.91772881999998,21.255501079361885],[-98.92215653999996,21.25868907936183],[-98.92133778,21.263216019361728],[-98.92794079999999,21.26874195036156],[-98.92648390999994,21.278667319361347],[-98.92927699999997,21.29272944936096],[-98.93258013999997,21.29829488936083],[-98.94028330999998,21.29460245936097],[-98.94496074999996,21.31133657936053],[-98.95316807999995,21.30877299936058],[-98.95259662999997,21.30681887936064],[-98.95461758,21.30668561936066],[-98.95651354999995,21.30180404936077],[-98.95966667999994,21.30344070936075],[-98.96249808999994,21.302459479360735],[-98.96530147999995,21.306940509360658],[-98.97483776999998,21.303084849360747],[-98.97504330999999,21.297003599360878],[-98.97785545999994,21.29641801936088],[-98.98188427999997,21.298427369360873],[-98.98942511999996,21.297496569360906],[-98.99296245999996,21.29947905936083],[-98.99574077999995,21.297737089360872],[-99.00227936999994,21.297957689360842],[-99.01338899999998,21.29516221936094],[-99.01541256999997,21.292606219360987],[-99.02206041999996,21.290018059361028],[-99.02334197,21.287158969361137],[-99.02602189,21.287226199361154],[-99.03024491999997,21.2839203793612],[-99.03166381999995,21.285963229361133],[-99.03713265999995,21.28257081936123],[-99.03933031999998,21.284213429361166],[-99.04345337999996,21.279433019361317],[-99.04667694999995,21.27967464936132],[-99.04652513999997,21.282129229361257],[-99.04879006,21.281432449361276],[-99.04984936999995,21.283193199361186],[-99.05513848999999,21.28253847936121],[-99.05324381999998,21.281631349361263],[-99.05062985999996,21.27470090936141],[-99.05234397999999,21.269990859361553],[-99.05117673999996,21.253429679361947],[-99.05542782999999,21.25048367936202],[-99.05680176999994,21.24697167936211],[-99.06994048999996,21.243058149362177],[-99.07344782999996,21.23881167936227],[-99.07353210899998,21.23042528436247],[-99.06752428999994,21.22334127936268],[-99.05607053999995,21.22235916936271],[-99.05237049,21.219515579362774],[-99.05255708999994,21.212807079362936],[-99.05043873999995,21.209856029362978],[-99.04307984999997,21.178677249363783],[-99.04793455,21.177928079363795],[-99.04666636999998,21.17410847936385],[-99.04859043,21.169811549364002],[-99.05410831999995,21.165535659364068],[-99.05470748999994,21.159514519364244],[-99.05754613999994,21.159717769364214],[-99.06133168999999,21.154205339364335],[-99.07270743,21.15796582936424],[-99.06432506,21.16703710936402],[-99.05980104999998,21.16751230936404],[-99.06241208999995,21.174308629363853],[-99.06473650999999,21.17509462936384],[-99.07170585999995,21.172195349363907],[-99.07647930999997,21.173463949363875],[-99.07777079999995,21.170747719363973],[-99.07094354999998,21.167586919364055],[-99.07117977999998,21.166028109364095],[-99.07688833999998,21.162370909364157],[-99.07704848999998,21.15914465936422],[-99.08398917999996,21.159589579364223],[-99.09063111999997,21.153095519364346],[-99.09604064999996,21.154652979364325],[-99.10351253999994,21.15343202936436],[-99.11039739999997,21.156610879364322],[-99.11212465999996,21.15459210936436],[-99.11068828999998,21.149608829364446],[-99.11199790999996,21.148345659364526],[-99.12679491999997,21.146701889364515],[-99.13014673999999,21.152063679364385],[-99.13256488999997,21.153031779364376],[-99.13913213999996,21.150766249364455],[-99.14424824999998,21.145140169364574],[-99.15052197999997,21.147750679364513],[-99.16346464999998,21.1398635693647],[-99.16728570999999,21.1401089393647],[-99.17101617999998,21.137484999364734],[-99.17622088999998,21.137841509364737],[-99.18017630999998,21.12741907936499],[-99.18460090999997,21.122261689365157],[-99.19584136999998,21.12189021936516],[-99.20622539999995,21.118689719365246],[-99.20996594999997,21.115053909365287],[-99.20945934999999,21.11019679936541],[-99.21409648999997,21.106775599365513],[-99.22359461999999,21.10574085936552],[-99.22607004999998,21.10798308936549],[-99.23055531999997,21.10755441936548],[-99.23421610999999,21.11280367936538],[-99.24768131999998,21.101265689365643],[-99.25313990999996,21.10429908936555],[-99.25595508999999,21.104246879365583],[-99.26176819999996,21.109403259365415],[-99.27129204999994,21.113069719365363],[-99.27218839999996,21.11483088936533],[-99.27031157999994,21.11903507936521],[-99.27226744999997,21.121606949365155],[-99.27614951999999,21.123416309365087],[-99.27816065999997,21.12026491936519],[-99.28263457999998,21.122438649365133],[-99.28387617,21.12543574936507],[-99.28324746,21.13180294936491],[-99.2868716,21.13097707936491],[-99.28846919999997,21.13579224936482],[-99.29583882999998,21.141764569364685],[-99.30266436999995,21.139420719364686],[-99.30491776999997,21.14444384936461],[-99.30920564999997,21.147299649364516],[-99.32329365999999,21.13957927936473],[-99.32538691999999,21.134035249364864],[-99.33108791999996,21.13014525936495],[-99.33588401999998,21.130260319364925],[-99.33760877999998,21.126109349365027],[-99.34182842999996,21.123659679365115],[-99.34386937999994,21.114549259365308],[-99.34115724999998,21.110111019365423],[-99.34397501999997,21.1072695993655],[-99.34635965999996,21.10087665936565],[-99.35325985999998,21.10291764936561],[-99.35876282999999,21.099659259365698],[-99.36099414999997,21.10478425936554],[-99.36676276999998,21.101947969365614],[-99.37184421999996,21.10175987936561],[-99.37691657,21.098220889365724],[-99.37931182999995,21.10177411936566],[-99.38213982999997,21.10130590936565],[-99.38847277999997,21.1041148193656],[-99.39149233999996,21.100996920365645],[-99.39728073899994,21.102070450365606],[-99.39704401999997,21.09835797936573],[-99.39953684899997,21.095248249365785],[-99.39867017899996,21.089007509365935],[-99.39449402899999,21.085250460366034],[-99.39433374999999,21.0793779193662],[-99.38881828899997,21.079267290366197],[-99.38802617,21.076455319366225],[-99.38959451899996,21.071834579366342],[-99.38767319999994,21.067827229366447],[-99.384188549,21.067855340366442],[-99.37581482999997,21.07336791036632],[-99.37232168999998,21.073283310366346],[-99.36743745899997,21.069479689366403],[-99.36628193899998,21.066154940366484],[-99.36822631899999,21.061830019366617],[-99.36937381899997,21.06084402036662],[-99.37358430899997,21.062143199366595],[-99.37670770899996,21.05938038036665],[-99.37707901999995,21.05661505036673],[-99.37191228999997,21.05584425936678],[-99.367889479,21.049537180366904],[-99.36416645899999,21.049155909366892],[-99.36475019999996,21.043779719367034],[-99.36324590999999,21.04172889036709],[-99.36750264999995,21.03748924936722],[-99.36646734899996,21.033825230367277],[-99.36835677899995,21.024765080367523],[-99.37516187999995,21.024329479367534],[-99.37732171899995,21.02097648936762],[-99.38457482899999,21.01808891036768],[-99.38505179899995,21.01547497936771],[-99.38324236899997,21.012231769367794],[-99.38404916999998,21.00741560036794],[-99.38995451999996,21.004138379367998],[-99.38965234899996,21.000376980368088],[-99.39188973999995,20.99747448936819],[-99.39365599899998,20.990355340368357],[-99.39126436899994,20.986676630368418],[-99.39343519899995,20.982702480368545],[-99.39632911899997,20.981086879368608],[-99.39474110899995,20.973076739368793],[-99.38827884999995,20.966198369368918],[-99.39124565999998,20.963512539369024],[-99.39274781899996,20.958273350369147],[-99.39062601999996,20.952274319369305],[-99.39769787999995,20.94314077036952],[-99.40724056999994,20.93710371936964],[-99.40663385999996,20.934105739369738],[-99.40395591999999,20.9358537093697],[-99.40230614899997,20.934194910369758],[-99.40303522999996,20.930198170369813],[-99.415585509,20.92490059936997],[-99.41340697899994,20.922238890370036],[-99.41507359799999,20.91845150937014],[-99.41267764799994,20.913710539370257],[-99.41255685899995,20.90542893937043],[-99.43522657899997,20.89939699937055],[-99.43500974899996,20.890746969370813],[-99.43760530899999,20.885264259370917],[-99.44200614899995,20.88129454937104],[-99.44018571899994,20.877955519371117],[-99.44068256899999,20.871788179371286],[-99.44299884799995,20.870549230371292],[-99.44858222899997,20.858528819371596],[-99.44545834999997,20.85450049037171],[-99.44606405999997,20.85303105937171],[-99.44824165899996,20.852742089371727],[-99.45210451899999,20.857781829371632],[-99.45443202899997,20.857975579371622],[-99.45701590899995,20.855419519371665],[-99.45560453899998,20.850122779371805],[-99.45653950899998,20.849018799371844],[-99.45918471899995,20.847933549371845],[-99.46548162899995,20.849201859371817],[-99.46925041899999,20.844662719371915],[-99.47556973899998,20.84286716937195],[-99.47921904899994,20.839317769372045],[-99.48257199899996,20.83924874937203],[-99.48873181899995,20.832932889372213],[-99.48469130899997,20.82637247937236],[-99.48528953899995,20.81782754937261],[-99.49319297899996,20.811102979372748],[-99.49413122899995,20.806782279372857],[-99.49972745899998,20.804273369372904],[-99.49762808899999,20.802318279372987],[-99.48926284899994,20.80223594937298],[-99.48870627899998,20.799366659373025],[-99.49153485899996,20.79504179937313],[-99.49725357899996,20.79094462937326],[-99.50376884899998,20.794832939373162],[-99.50218470899995,20.787194799373363],[-99.49741787899997,20.78466539937341],[-99.49630607899996,20.782352599373443],[-99.49705194899997,20.780752719373513],[-99.50116991899995,20.779560659373548],[-99.50239319999997,20.77387436937366],[-99.50645221899998,20.771716979373732],[-99.50381699999997,20.765787319373896],[-99.50973305899998,20.765721109373885],[-99.51837867899998,20.75989608937401],[-99.52173942899998,20.754469999374123],[-99.52553121899996,20.756226349374128],[-99.52867510899995,20.752004049374193],[-99.53752453899996,20.749470599374277],[-99.53935008899998,20.74670437937434],[-99.54277527899997,20.74621451937433],[-99.54847128899996,20.737197749374587],[-99.54742919899996,20.728357019374776],[-99.544144799,20.725799739374878],[-99.54534224899999,20.723598849374895],[-99.54328533899997,20.721188509374954],[-99.54366676899997,20.718412879375062],[-99.53968747899995,20.7168020493751],[-99.53942710899997,20.71389364937514],[-99.53567293899995,20.711663919375198],[-99.53427484899998,20.705974249375352],[-99.52837785899999,20.70511042937536],[-99.52639044899996,20.702679779375412],[-99.52271604899995,20.701657019375432],[-99.509554139,20.689669599375762],[-99.508887309,20.686206679375847],[-99.50554031899998,20.684700519375856],[-99.50623494899999,20.682325199375924],[-99.50493728899994,20.680818419375953],[-99.51103659899998,20.678386709376014],[-99.50384433899997,20.671840979376203],[-99.50064207899999,20.67304250937618],[-99.50093997899995,20.6710101693762],[-99.50429819899996,20.66869742937628],[-99.50127641899998,20.66442173937635],[-99.50192266,20.658962219376495],[-99.51876954999996,20.65845691937652],[-99.52704128999994,20.656626449376542],[-99.53595710999998,20.650606459376718],[-99.53881271999997,20.64366967937692],[-99.55688216999994,20.643586819376882],[-99.56534439999996,20.640394149377],[-99.56818822999999,20.636148689377055],[-99.57346230999997,20.6350131793771],[-99.57530445999998,20.63067565937723],[-99.57864854999998,20.62849542937726],[-99.57894944999998,20.618832249377473],[-99.58167427999996,20.617861879377553],[-99.58767485999994,20.620828689377454],[-99.58970810999995,20.620400139377487],[-99.59379171999996,20.616045429377557],[-99.59274205999998,20.610832289377722],[-99.59843990999998,20.607708229377796],[-99.60741425999998,20.60640001937778],[-99.60944476999998,20.60035857937795],[-99.61248573999997,20.599325659377964],[-99.61291447999997,20.594965109378073],[-99.61643790999996,20.594424979378104],[-99.61951128,20.591406949378204],[-99.62417451,20.593972109378107],[-99.62254665999995,20.597652339377994],[-99.62421645999996,20.600622619377923],[-99.63162282999997,20.603086879377884],[-99.63458374999999,20.605654149377855],[-99.64245454999997,20.604340399377882],[-99.64773793999997,20.601464509377923],[-99.65787036999997,20.6017992893779],[-99.66330971999997,20.594081519378097],[-99.66862339999996,20.59359442937813],[-99.66935277,20.590824549378198],[-99.67413596999995,20.588574319378285],[-99.68025285,20.58886630937827],[-99.67874077999994,20.58532674937831],[-99.68248717999995,20.58371524937839],[-99.68440039999996,20.579149889378485],[-99.69050310999997,20.58138399937844],[-99.69493705999997,20.581020909378456],[-99.69606961999996,20.5787610793785],[-99.69422834999996,20.576416879378574],[-99.69641294999998,20.574445019378594],[-99.70505305999995,20.57671001937857],[-99.70903882999994,20.580835949378436],[-99.71195207999996,20.58126661937845],[-99.71258894,20.57807293937849],[-99.71445324999996,20.57690977937854],[-99.72824336999997,20.57510633937857],[-99.73137839999998,20.567940349378784],[-99.73349004999994,20.567671999378796],[-99.73868325999996,20.560520800378946],[-99.74590333999998,20.559274580379],[-99.75342544999997,20.56303524937887],[-99.75626537899997,20.561361999378907],[-99.76841899999995,20.55981485937899],[-99.76966036999994,20.557545489379024],[-99.77385001899995,20.56001626037896],[-99.77753713999995,20.558501979379024],[-99.77932882,20.559304909378966],[-99.78530365999997,20.553414720379106],[-99.79493104899997,20.551103059379187],[-99.80462507899995,20.54475838037935],[-99.82128051899997,20.540611659379415],[-99.82807117899995,20.543007650379376],[-99.85954142999998,20.26462833938633],[-99.85570370999994,20.269925999386192],[-99.84965608999994,20.27147059938614],[-99.84570582999999,20.27485644938609],[-99.84438494399997,20.27633127538605],[-99.84598211999997,20.277763079386],[-99.84188959999996,20.281881419385893],[-99.79041830999995,20.237994199387003],[-99.78806795099996,20.230034924387184],[-99.79353876999996,20.23140011938715],[-99.79523814,20.227741289387236],[-99.78842667999999,20.223112019387347],[-99.75373161999994,20.19086451938817],[-99.74257891999997,20.183571569388334],[-99.74033625099999,20.177957003388507],[-99.73580523,20.177403059388528],[-99.72918511999995,20.172047649388617],[-99.72321097999999,20.170483249388703],[-99.71937184999996,20.167137979388784],[-99.71068353899994,20.166227080388783],[-99.70095107799996,20.17266426138865],[-99.68752424999997,20.17118753938868],[-99.68164424999998,20.170326539388707],[-99.67768456999994,20.166838229388777],[-99.67694890999996,20.162470459388903],[-99.66939736999996,20.179298749388458],[-99.65972661799998,20.18082053938844],[-99.65675987799995,20.169121460388695],[-99.657896769,20.16803889038873],[-99.65507722899999,20.163089909388873],[-99.64099045999995,20.16422917938885],[-99.63963662199997,20.15916801938896],[-99.63612190899994,20.158157150389016],[-99.63533947999998,20.15180319938918],[-99.63060239999999,20.14569444938932],[-99.61254325,20.15936077938895],[-99.61172825999995,20.161469339388898],[-99.60223274999998,20.167918679388773],[-99.60143496999996,20.166902859388774],[-99.59956087999996,20.169673369388704],[-99.586754849,20.167285219388766],[-99.58216817999995,20.162481019388867],[-99.58260702999996,20.16444379938885],[-99.58130716999996,20.16416637938883],[-99.58140322999998,20.161997489388877],[-99.57626354999996,20.16209159938889],[-99.57256141999994,20.16425687938882],[-99.57141682999998,20.170217679388692],[-99.56211670999994,20.1690676293887],[-99.559278738,20.1707573993887],[-99.55066462899998,20.17139168938867],[-99.55040913799996,20.16640584938878],[-99.54828754799998,20.163131739388852],[-99.53469916899998,20.163935019388855],[-99.53349444999998,20.16205801938891],[-99.53181804999997,20.163778319388864],[-99.52868076999994,20.163583539388853],[-99.52592659999999,20.173295569388614],[-99.51749941799996,20.175689889388554],[-99.51224024899994,20.17510016938858],[-99.50183084899999,20.153286579389103],[-99.50836274799997,20.150437200389174],[-99.51671064999994,20.15035154938917],[-99.51634083,20.148772819389208],[-99.51869825899996,20.148298830389226],[-99.51812819899999,20.145666659389335],[-99.51168331799994,20.140947709389405],[-99.50131221899994,20.127003320389807],[-99.49657701899999,20.119428799389944],[-99.49708961899995,20.116184000390014],[-99.49491784899999,20.11087897939018],[-99.49259856899994,20.11090408039019],[-99.48801654699997,20.10732308039028],[-99.48349685999995,20.10096977039043],[-99.48100856999997,20.082197889390883],[-99.45975870999996,20.06545734039134],[-99.45821436999996,20.055029539391615],[-99.448448769,20.042187109391897],[-99.43685291999998,20.00129905039293],[-99.43798927899996,19.997553170393033],[-99.44549556899995,19.9912278903932],[-99.44360584999998,19.988839320393264],[-99.44466465899997,19.984753740393387],[-99.44809818,19.983105120393404],[-99.44795936899999,19.98166662039343],[-99.45458421999997,19.981219800393465],[-99.45514459999998,19.979724480393497],[-99.45451477999997,19.97503094039361],[-99.451729539,19.97450206039363],[-99.45365596999996,19.97213815039365],[-99.45024359899998,19.964246890393902],[-99.45196910999994,19.96333237039388],[-99.45871531899996,19.96651769039381],[-99.46434028,19.96363723039391],[-99.47301224899996,19.9632437403939],[-99.47399448899995,19.96145092039394],[-99.47776493899994,19.96056640039397],[-99.477237399,19.954790920394107],[-99.47362256899999,19.954443940394096],[-99.48398147999995,19.90517652039537],[-99.48036085999998,19.90469548039537],[-99.47743693999998,19.898274980395545],[-99.47085505899997,19.898605280395564],[-99.46412524899995,19.895060290395612],[-99.46388056899997,19.892596220395713],[-99.45080021999998,19.894612820395654],[-99.43593319999998,19.903129150395404],[-99.43718817899997,19.899687800395483],[-99.43603430999997,19.896146230395598],[-99.44520828899994,19.884321060395884],[-99.43279770899994,19.875383970396157],[-99.43041451999994,19.870879180396265],[-99.4267814,19.874997022396133],[-99.42098756899998,19.85512236939665],[-99.41499176899998,19.85052663039675],[-99.39175174999997,19.85991754039654],[-99.38832302899999,19.85740545039656],[-99.38024794999995,19.855892950396612],[-99.373249909,19.851541850396718],[-99.37444627999997,19.84668854939687],[-99.37697085799994,19.844953163396905],[-99.37429330999998,19.84198467939697],[-99.37439154899994,19.8379143803971],[-99.37871270899996,19.835249313397156],[-99.38137393899996,19.831386430397245],[-99.38152774899999,19.820287689397514],[-99.38298857899997,19.82090232039752],[-99.38312125899995,19.81869635039753],[-99.38473674999995,19.818558220397563],[-99.38672210999994,19.81303202039768],[-99.38644242999999,19.804442630397894],[-99.38421862999996,19.80323128939795],[-99.38274514899997,19.79923564939807],[-99.37754042899996,19.796453400398146],[-99.38811991999995,19.791722600398263],[-99.39033101899997,19.78573354639841],[-99.38877951999996,19.785366259398398],[-99.38936073999997,19.783477600398477],[-99.38716816899996,19.78295893939849],[-99.38117185999994,19.784054400398446],[-99.38296810899999,19.78077765939854],[-99.38591656999995,19.77968726039855],[-99.384425369,19.779118310398566],[-99.38788357999994,19.777913179398585],[-99.38676939899996,19.775894830398666],[-99.38577037899995,19.777070249398633],[-99.38429888999997,19.775902150398625],[-99.38303190899997,19.77141551039876],[-99.37391813899995,19.775924890398638],[-99.37061021999995,19.78184455039851],[-99.36744164999999,19.780092920398552],[-99.35779095,19.781568259398476],[-99.35242497899998,19.775867720398654],[-99.34456044999996,19.77945452039856],[-99.34266984899996,19.782373879398463],[-99.34599881999998,19.784682920398446],[-99.34380928999997,19.787166310398398],[-99.34610054999996,19.787623979398344],[-99.34428526,19.79144423039827],[-99.34573514999994,19.7931282503982],[-99.34501102899998,19.795511310398147],[-99.34285784899998,19.79611637039812],[-99.34260801899995,19.794101980398178],[-99.34244899899994,19.795992680398122],[-99.34030937899996,19.794316249398204],[-99.33865390999996,19.802028249397967],[-99.33589361999998,19.801264939398017],[-99.33551024999997,19.79767374039808],[-99.33079381899995,19.796681030398126],[-99.32558173899997,19.793095490398194],[-99.32388130999999,19.79288825039819],[-99.32164837999994,19.79574937939816],[-99.30660051999996,19.797693709398075],[-99.31267425,19.805228170397914],[-99.311365579,19.809057490397784],[-99.30690517999994,19.812976120397728],[-99.30771873999998,19.814544450397687],[-99.30815033999994,19.812735000397744],[-99.30860933999999,19.814460709397668],[-99.31192294999994,19.81416249039768],[-99.30856354899998,19.817423949397583],[-99.30855728999995,19.819299659397565],[-99.30590267999997,19.82059432039751],[-99.30624579999996,19.822742550397436],[-99.30313021899997,19.82666098039735],[-99.30087394899999,19.827286339397354],[-99.30114564899998,19.829152659397277],[-99.29694378,19.835222249397162],[-99.28632141899999,19.837158289397095],[-99.28511836899999,19.840624399396987],[-99.28161402999996,19.84260908039694],[-99.27871891999996,19.840409400397004],[-99.27538341899998,19.85290120039671],[-99.26946871899999,19.859555280396517],[-99.24796081899997,19.859785450396522],[-99.24566930899994,19.869529090396288],[-99.24143033899998,19.87526211039611],[-99.23637239899995,19.875083140396153],[-99.23594754,19.873494199396163],[-99.23471688999996,19.87685507939608],[-99.23399657999994,19.875797249396136],[-99.23216531999998,19.8767388793961],[-99.22932244899994,19.874033030396184],[-99.22829968999997,19.875046799396145],[-99.22066885999999,19.884236049395877],[-99.21746708899997,19.89142362939575],[-99.22392521999996,19.901998399395428],[-99.22019704999997,19.902389749395446],[-99.21915788999996,19.911390249395232],[-99.21524539999996,19.912603939395183],[-99.21555048999994,19.91470262939509],[-99.21072902999998,19.91447471939512],[-99.20560276999998,19.92750073939478],[-99.20688070999995,19.932131749394692],[-99.20921564999999,19.93243597939467],[-99.21151905999994,19.924288429394878],[-99.21857254099996,19.927241910394827],[-99.22594593999999,19.949880689394238],[-99.22776104999997,19.951068119394222],[-99.21539442999995,19.954614419394108],[-99.21307528999996,19.95872710939401],[-99.21501381999997,19.95983365939401],[-99.21250490899996,19.965539520393826],[-99.21289130999997,19.96364727939386],[-99.21156953999999,19.963310689393918],[-99.20891959999996,19.96636974939384],[-99.21002741999996,19.967696229393802],[-99.20340946,19.97096554939372],[-99.19991765999998,19.976802949393534],[-99.19836768999994,19.977810509393525],[-99.19751041999996,19.975893369393578],[-99.19691905899998,19.984826599393383],[-99.18920571999996,19.98481954939336],[-99.18894371899995,19.98945179939323],[-99.19081111999999,19.99039425939325],[-99.19005264899994,19.993963290393125],[-99.18321621999996,19.99009950939322],[-99.17721733999997,19.99313888939316],[-99.18000148999994,19.998088779393022],[-99.16787277999998,20.00351276939288],[-99.16737417999998,20.012873489392653],[-99.16136616999995,20.012426119392654],[-99.15932082999996,20.017028119392577],[-99.15860311999997,20.027187709392308],[-99.15506042999999,20.025926109392323],[-99.14743347999996,20.027757849392287],[-99.14451242999998,20.026178139392336],[-99.13828864899996,20.02818282039225],[-99.13521381899996,20.02708649039227],[-99.12590924899996,20.031713940392205],[-99.11251928899998,20.029204220392227],[-99.10170457899996,20.032033910392155],[-99.09580482899997,20.030639680392177],[-99.08935131899995,20.034348800392134],[-99.08544996899998,20.032487920392146],[-99.07967267899996,20.026212490392286],[-99.07832394899998,20.018299600392485],[-99.06832041999996,20.018025320392503],[-99.06384085899998,20.01419435039263],[-99.06756047999995,19.98498939939338],[-99.05957573999997,19.973995819393615],[-99.05610070899996,19.984668369393372],[-99.05850077899998,19.98840477039325],[-99.04764814899995,19.995160279393097],[-99.04845382999997,19.99933952039296],[-99.04947288899996,19.99835616939299],[-99.04946350999995,19.999877570393],[-99.05221157899997,20.00134083039293],[-99.05090034999995,20.001626830392954],[-99.04943030999999,20.00769711039276],[-99.03987899899994,20.012798199392677],[-99.03134288999996,20.014853630392597],[-99.03083345099998,20.002912981392903],[-99.02742291,20.00164818039294],[-99.03193745899995,19.99663414939303],[-99.02985914999994,19.993006749393157],[-99.03068742899995,19.990545150393203],[-99.03277759999999,19.990634000393204],[-99.03451296899999,19.971771780393663],[-99.02765581999995,19.964558620393852],[-99.00412010899998,19.964952110393863],[-99.00754749,19.979163340393516],[-99.00871493999995,19.977226480393558],[-99.01423779899996,19.977723649393514],[-99.01385884999998,19.981305249393447],[-99.01125636899998,19.982122380393434],[-99.01396994999999,19.98341557039337],[-99.01309493899998,19.985013180393356],[-99.01514001899994,19.98397923039336],[-99.02155470999998,19.987005230393315],[-99.02034648999995,19.990561620393205],[-99.01862353999996,19.989794420393235],[-99.01790022999995,19.991478849393218],[-99.01897637999998,19.99375548939314],[-99.01796782999998,19.99553534039309],[-99.01333845999994,19.997653139393055],[-99.01328074999999,20.010925230392694],[-99.00526679999996,20.028944050392237],[-99.00476910999998,20.032673219392144],[-99.00593561899996,20.030933120392177],[-99.007859619,20.031130079392163],[-99.00782904999994,20.03386562039215],[-99.01049753899997,20.035479370392093],[-99.00564428999996,20.05320450939163],[-99.00115977899999,20.052394369391667],[-98.99919804899997,20.054166200391606],[-98.99256270999997,20.06574726039133],[-98.98897788999996,20.06826192039125],[-98.98949324999997,20.06499434939135],[-98.98685257899996,20.061209859391447],[-98.97576667899995,20.05244265939166],[-98.97001939899997,20.04540611939183],[-98.96586579899999,20.04243802939188],[-98.96364342,20.04326260039187],[-98.96046104999999,20.039398509391997],[-98.95868768999998,20.039565400391975],[-98.95987796999998,20.032600689392147],[-98.96397656999996,20.031237690392192],[-98.96024050899996,20.03162300039219],[-98.96058036999995,20.02875208939226],[-98.95525064999998,20.027833490392243],[-98.95428247999997,20.031128080392218],[-98.95183681899995,20.028611170392224],[-98.95090601999999,20.029886020392205],[-98.94793677899997,20.029567889392244],[-98.94665464899998,20.027475090392272],[-98.94427981899997,20.017292200392514],[-98.94748725899997,20.008991780392773],[-98.94213154999996,20.00062319939297],[-98.94375911899999,19.98497797039333],[-98.94273048999999,19.979073089393488],[-98.94474247899997,19.975051649393617],[-98.94825474899994,19.975265880393582],[-98.94854934999995,19.974018459393605],[-98.95771396899995,19.975860170393553],[-98.96621945999999,19.973995079393646],[-98.98117571999995,19.9547213993941],[-98.99562281899996,19.956891720394033],[-98.99977850899995,19.941825019394457],[-98.98469074999997,19.946318019394322],[-98.98316474999996,19.938612830394533],[-98.97250559999998,19.93590722039457],[-98.96996642899997,19.932698909394684],[-98.96833301899994,19.93380908039464],[-98.96610562999997,19.929840710394746],[-98.96182585999998,19.929175079394756],[-98.96232616899995,19.926396140394836],[-98.96044456999994,19.92505810939488],[-98.95611242899997,19.928183550394802],[-98.95272259999996,19.90671457039535],[-98.95682916899996,19.905600830395386],[-98.955058749,19.896396480395616],[-98.96144639999994,19.89364070939567],[-98.95354693899998,19.888539889395798],[-98.95597545399995,19.88516672939586],[-98.966005969,19.891656800395733],[-99.02058114999994,19.86768265939634],[-99.02039121999996,19.864106769396393],[-99.01683048999996,19.86145256939647],[-99.01703177999997,19.85970330939651],[-99.01561793999997,19.859386349396495],[-99.00015170999995,19.834179180397147],[-99.00820071899994,19.828402060397337],[-98.96091705699996,19.8050943703979],[-98.96050831899998,19.80311330939798],[-98.95468304999999,19.800543089398058],[-98.95539944999996,19.79883031939805],[-98.95004239899998,19.79964128939806],[-98.94754742999999,19.80453708139789],[-98.94548939999999,19.80380177939797],[-98.927631519,19.843392680396946],[-98.91632319999997,19.839332280397038],[-98.91540541899998,19.841876450396995],[-98.90601608999998,19.845129539396915],[-98.90785451999996,19.849871600396796],[-98.902977939,19.859305510396545],[-98.90878877899996,19.857124970396608],[-98.90520321999999,19.86354379939644],[-98.91748097999995,19.869233179396268],[-98.91460410999997,19.871440420396222],[-98.91573044999996,19.873115110396192],[-98.91394842999995,19.872350460396206],[-98.91312773899995,19.87353993939617],[-98.91484087999999,19.874883630396127],[-98.91244214999995,19.874800509396152],[-98.91444734999999,19.875718820396138],[-98.91385071899998,19.876924310396074],[-98.91109417899997,19.876290999396097],[-98.91362141999997,19.87736925939605],[-98.91274047899998,19.879155859396004],[-98.90972217899997,19.878970089396038],[-98.91182479999999,19.881017260396],[-98.90920373999995,19.87987206039604],[-98.90774673899995,19.883939140395903],[-98.90411751999994,19.88757994939579],[-98.89826970999997,19.88360534039594],[-98.89571239999998,19.886432619395844],[-98.89778887899998,19.889870920395783],[-98.89519622999995,19.893347170395693],[-98.89719514999996,19.894132720395657],[-98.89588993999996,19.895707570395615],[-98.89206056899997,19.894376109395647],[-98.88768591999997,19.89909552039552],[-98.88259862999996,19.9000974793955],[-98.88316207999999,19.901528749395474],[-98.86589593999997,19.892586889395712],[-98.85583001999998,19.90428014939537],[-98.84095154999994,19.892308859395722],[-98.84403367999994,19.881988259395982],[-98.83665425999999,19.881219519395987],[-98.83818213999996,19.87942053939604],[-98.81713524999998,19.86728414939633],[-98.81623367999998,19.868969379396308],[-98.81367557999995,19.865871739396358],[-98.80619936999996,19.864586259396415],[-98.79517247999996,19.856414689396622],[-98.78972153999996,19.86188684939648],[-98.79106421999995,19.865144019396386],[-98.78949670999998,19.86854268939628],[-98.79392681999997,19.872084089396207],[-98.78750513999995,19.878920949396043],[-98.78057411999998,19.883540549395942],[-98.76145096999994,19.874902379396133],[-98.75235628999997,19.876981709396077],[-98.73917285,19.87255950939617],[-98.73884431999994,19.86723497939632],[-98.73509348999995,19.867405849396352],[-98.72770842999995,19.86397121939641],[-98.71854336999998,19.862337309396448],[-98.71282065999999,19.853801919396645],[-98.71125593999994,19.85510427939663],[-98.70925014999996,19.853781229396656],[-98.70812779999994,19.855751679396587],[-98.70341925999998,19.854539089396663],[-98.70459934999997,19.855581169396626],[-98.70354102999994,19.857356289396577],[-98.70098794999997,19.85606337939659],[-98.70275547999995,19.85860101939653],[-98.70041364999997,19.8565732493966],[-98.69912665,19.85841985939653],[-98.68912830999996,19.851285689396754],[-98.68536754999997,19.850548969396737],[-98.68084464999998,19.860651479396505],[-98.67265891999995,19.86283461939645],[-98.67183973999994,19.853659139396676],[-98.69764124999995,19.832114819397248],[-98.67900019999996,19.814285429397653],[-98.67587541999995,19.813184349397684],[-98.67247717999999,19.816723379397605],[-98.67479217999995,19.832396199397223],[-98.66522996999998,19.83538890939715],[-98.66081485999997,19.835031419397158],[-98.65461090999999,19.828101199397317],[-98.65545582999994,19.827550509397316],[-98.64699316999997,19.82088153939753],[-98.64732676999996,19.818381309397584],[-98.64369884999998,19.8175225093976],[-98.64433637999998,19.81443794939769],[-98.63990310999998,19.811964449397742],[-98.63797544999996,19.80757624939786],[-98.63878784999997,19.800769629398005],[-98.63255816999998,19.796433169398128],[-98.62356191999999,19.793888689398205],[-98.62526104999995,19.785182519398408],[-98.61747561999995,19.788051219398344],[-98.61223370999994,19.786368419398357],[-98.61341219999998,19.781672719398525],[-98.60960391999998,19.77710891939861],[-98.61166367999999,19.774128949398673],[-98.59942510999997,19.768229139398866],[-98.60059801999995,19.76492277939894],[-98.59686665999999,19.765839749398914],[-98.60208937999995,19.756150769399124],[-98.60321305999999,19.732646879399763],[-98.60456143,19.73293930939975],[-98.60810170999999,19.725075029399918],[-98.61589902999998,19.729482949399813],[-98.62377969,19.725574339399913],[-98.62470304999995,19.727424489399866],[-98.62693237999997,19.725647089399928],[-98.62763636999995,19.72182159940002],[-98.63292433999999,19.72223585940003],[-98.63085373999996,19.717719399400153],[-98.63346157999997,19.71496451940016],[-98.63002634999998,19.716104449400166],[-98.63247573999996,19.713292749400246],[-98.62943356999996,19.709720849400338],[-98.63079324999995,19.704704419400453],[-98.62391539999999,19.696408049400677],[-98.62511027999994,19.691374629400777],[-98.62937253999996,19.687275799400926],[-98.63010693999996,19.679025739401098],[-98.63223710999996,19.674526349401244],[-98.63701167999994,19.674867909401208],[-98.63989708999999,19.67108310940131],[-98.63792954999998,19.668973249401343],[-98.63549351999995,19.67076534940133],[-98.63407924999997,19.668072709401393],[-98.63002716999995,19.667310309401422],[-98.62791537,19.66353507940149],[-98.62332062999997,19.663451079401533],[-98.61967056999998,19.661163919401552],[-98.62444870999997,19.655837829401705],[-98.62949489,19.656736029401678],[-98.63494913999996,19.655537859401697],[-98.64381413999998,19.648837799401857],[-98.65310665999999,19.654314999401745],[-98.65554582999994,19.65047225940186],[-98.65812101999995,19.65396741940176],[-98.66435701999997,19.65703244940165],[-98.66474333999999,19.660729619401568],[-98.66536248999995,19.66160828940156],[-98.66549588999999,19.659789279401583],[-98.66643597999997,19.66226787940155],[-98.66822856999994,19.658504309401653],[-98.67005481999996,19.658676139401646],[-98.67041422999995,19.651222289401844],[-98.66763139999995,19.644355619401995],[-98.67203664999994,19.636729479402184],[-98.67239571999995,19.625147569402458],[-98.67054910999997,19.624827919402474],[-98.66867648999995,19.619175289402634],[-98.66193165,19.611692549402825],[-98.66174659999996,19.61011299940289],[-98.66557708999996,19.606153739402938],[-98.66314561999998,19.604754219403027],[-98.65772397999997,19.60555557940298],[-98.65487517999998,19.607645229402944],[-98.64964568999994,19.60644094940295],[-98.64590928999996,19.607530169402956],[-98.64198713999998,19.605367249402967],[-98.63830191999995,19.59894117940315],[-98.63468662999998,19.59775810940316],[-98.63101379999995,19.60199316940309],[-98.62591689,19.60033221940311],[-98.60983607999998,19.602014309403096],[-98.60381871,19.60556128940295],[-98.60083945999997,19.608284949402908],[-98.60031777999995,19.61140919940281],[-98.59034870999994,19.61936364940261],[-98.58961570999998,19.62294070940251],[-98.58496771999995,19.627821679402434],[-98.57993997999996,19.637416339402197],[-98.56904890999999,19.638757109402118],[-98.56635779999999,19.641119659402108],[-98.56136994999997,19.637595399402187],[-98.56371950999994,19.627148819402443],[-98.55561045999997,19.628102369402377],[-98.55574042999996,19.625392059402444],[-98.55016621999994,19.6245487794025],[-98.55039967999994,19.618578169402628],[-98.53557578,19.634418879402258],[-98.52595336999997,19.61943791940264],[-98.52826301999994,19.614315569402738],[-98.51923879999998,19.602399289403056],[-98.51442207999997,19.603972749402995],[-98.50231581999998,19.60320214940307],[-98.49570102999998,19.607443019402954],[-98.49161384899998,19.607367829402925],[-98.49089354999995,19.61016431040288],[-98.49270407999995,19.61383725940275],[-98.49019542999997,19.619953319402597],[-98.48750625999998,19.617513340402688],[-98.483771629,19.618776219402623],[-98.47851768899994,19.618002829402634],[-98.46675296999996,19.613708599402774],[-98.46600370899995,19.614922110402752],[-98.46125170999996,19.61441788040277],[-98.46037668999998,19.616081979402704],[-98.45409830899996,19.618305979402667],[-98.45070584899997,19.61808756940267],[-98.44403917999995,19.615681940402727],[-98.443256379,19.612901309402783],[-98.44142364899994,19.61258057040278],[-98.43878354999998,19.614325919402756],[-98.43009193899996,19.614145089402733],[-98.41266653899999,19.61749908940267],[-98.38169684999997,19.609361859402874],[-98.32380313999994,19.68529764940095],[-98.32094917999997,19.701010889400578],[-98.32883788,19.69801211940062],[-98.33004673999994,19.69903745940061],[-98.32948161999997,19.703776049400478],[-98.33330922999994,19.709327979400346],[-98.33313550999998,19.711763999400294],[-98.33192044999998,19.711642149400266],[-98.33273798,19.719736079400104],[-98.33166719999997,19.72231996940002],[-98.31505351999999,19.724711179399943],[-98.31108688999996,19.72772644939986],[-98.30732444999995,19.727020819399915],[-98.30155850999996,19.723078749400006],[-98.29269257999994,19.72392468939997],[-98.29332171999994,19.726229599399925],[-98.2796724,19.71688148940014],[-98.28229974999994,19.724035779399987],[-98.28052154999995,19.726321079399906],[-98.27619961999994,19.723989519399943],[-98.27198236999999,19.724579429399967],[-98.26563677899998,19.71701394940012],[-98.25957476799994,19.717209480400136],[-98.23626308999997,19.72333394939997],[-98.23136938,19.729234879399815],[-98.21896014999999,19.736986969399616],[-98.21510933999997,19.741314449399535],[-98.20934210999997,19.738351849399617],[-98.19569879999996,19.741619659399493],[-98.19784547999996,19.748787849399328],[-98.19551187999998,19.753366179399233],[-98.19866701999997,19.758236539399093],[-98.19779385999999,19.76205908939899],[-98.19351748999999,19.762954089398978],[-98.19448419999998,19.765589649398894],[-98.20264141999996,19.767954909398874],[-98.21071577999999,19.77426614939871],[-98.22142424999998,19.77357634939869],[-98.21615554999995,19.778416969398553],[-98.22563971999995,19.77978711939853],[-98.22583671999996,19.77659544939864],[-98.22983834999997,19.7744830493987],[-98.23481544999999,19.77704550939861],[-98.24469862999996,19.791924169398264],[-98.25102747999995,19.795064479398178],[-98.24970851999996,19.8060694593979],[-98.25317574999997,19.81175034939776],[-98.25085804999999,19.81275797939774],[-98.25488387999997,19.819186199397535],[-98.26102399999996,19.820256399397522],[-98.26458218,19.822999289397444],[-98.26621051999996,19.834739149397176],[-98.26538884999997,19.83839257939708],[-98.26714910999999,19.843335999396906],[-98.27108008999996,19.846308749396854],[-98.27868001999997,19.848246429396834],[-98.28354045999998,19.84696914939686],[-98.28674988999995,19.8490976193968],[-98.29599990999998,19.84758102939685],[-98.29947077999998,19.845408089396873],[-98.30529208999998,19.845870519396886],[-98.30174499999998,19.847377079396843],[-98.31500433999997,19.855115600396612],[-98.30447290999996,19.870115879396277],[-98.29107487999994,19.87581240039614],[-98.29253245899997,19.879275489396033],[-98.28904231899998,19.881169819395947],[-98.287918339,19.88499548039586],[-98.29105259899995,19.888550200395777],[-98.29093341999999,19.888877050395795],[-98.28664368899996,19.887253970395836],[-98.27841922,19.892582380395705],[-98.26935184999996,19.895709140395617],[-98.26879974999997,19.900243060395475],[-98.26604062999996,19.901590860395455],[-98.26778856999994,19.905276340395357],[-98.26782019999996,19.91611391939509],[-98.26202911899998,19.916262310395055],[-98.26341724999997,19.915189800395115],[-98.25779536999994,19.916500520395083],[-98.25633931,19.915024169395107],[-98.25162905899998,19.91798969039505],[-98.24807294999995,19.91753071939507],[-98.24825191999997,19.92038942039497],[-98.24530905999995,19.92399808039488],[-98.24919473999995,19.92614009039482],[-98.25517311899995,19.925476090394874],[-98.25626444999995,19.929305019394786],[-98.25172553899996,19.929496710394773],[-98.25104127899999,19.934851290394597],[-98.24219274899997,19.94114945939449],[-98.25384648899995,19.94607022039435],[-98.25160377899994,19.948149770394267],[-98.237386309,19.94978097039424],[-98.23017227899999,19.949406350394245],[-98.22732471999996,19.947374889394304],[-98.22471871999994,19.948523279394298],[-98.22208168899999,19.946932059394324],[-98.22102453899998,19.947914540394287],[-98.22619724899994,19.952322369394178],[-98.22674648899994,19.956222169394074],[-98.22236685999998,19.964043119393875],[-98.21594134999998,19.968521139393776],[-98.213201659,19.96837010939375],[-98.21310810899998,19.965377050393876],[-98.20943899999997,19.964231970393875],[-98.20114051899998,19.964469550393858],[-98.19784345999994,19.961702569393953],[-98.19782504999996,19.959793000393965],[-98.18069764899997,19.959751570393966],[-98.16042797899996,19.97812957039354],[-98.17426388899997,19.997739400393012],[-98.17076534999995,20.0058497503928],[-98.16946196899994,20.00570333939281],[-98.17078904999995,20.01072392039274],[-98.16396113899998,20.022457819392404],[-98.17499656999998,20.029600579392255],[-98.17352919899997,20.03447633939209],[-98.17947162999998,20.04098777939191],[-98.18090284899995,20.046985539391773],[-98.17585145899994,20.052760661391616],[-98.16814645899996,20.05722971039152],[-98.16454727899999,20.070516819391166],[-98.16554697899996,20.07402851939112],[-98.15719079999997,20.084867449390842],[-98.16027288999999,20.0901769503907],[-98.15887213999999,20.09174638039068],[-98.15970473799997,20.09256997039065],[-98.14914199899994,20.097979680390484],[-98.14244704899994,20.098441310390474],[-98.13853765899995,20.105061659390323],[-98.13388916799995,20.104615181390326],[-98.13157311899994,20.107542910390272],[-98.12827265999994,20.107202649390253],[-98.12700718099995,20.109892542390217],[-98.128104018,20.115498089390094],[-98.12389965899996,20.12122123038992],[-98.12460705899997,20.12406989038983],[-98.12191331899999,20.124634570389844],[-98.11658722999994,20.120086080389964],[-98.11292817899994,20.121737740389918],[-98.10846245999994,20.12080340038992],[-98.10155656999996,20.129729540389732],[-98.10363105999994,20.133864250389582],[-98.10314336899995,20.137151030389496],[-98.09787944999994,20.145389660389288],[-98.10064368899998,20.146826750389266],[-98.10507942899994,20.14227950938937],[-98.12555387899994,20.14867587938922],[-98.13149164999999,20.148270420389252],[-98.13296782899994,20.149504689389236],[-98.13620091899998,20.146986719389247],[-98.13958264899998,20.150141620389192],[-98.13980868899995,20.15479095038908],[-98.13811393999998,20.154588320389095],[-98.13674887899998,20.15663521938903],[-98.134786739,20.154639620389087],[-98.13260828899998,20.155032420389066],[-98.13355425999998,20.159475659388967],[-98.12972681999997,20.161483110388904],[-98.13315519999999,20.166201799388816],[-98.13051316999997,20.166422249388777],[-98.13217299899998,20.167122980388758],[-98.13270933999996,20.170178400388686],[-98.12980062999998,20.17664253938852],[-98.13178659999994,20.17858668938847],[-98.12752762999997,20.18246122038837],[-98.12795854999997,20.18594136938827],[-98.12965599999995,20.18880342938824],[-98.13489136899994,20.190863680388173],[-98.13889654999997,20.199828880387933],[-98.14383513999996,20.199505309387966],[-98.15139822899995,20.20787304938774],[-98.153922219,20.208580680387737],[-98.15294807899994,20.212464820387616],[-98.15506244999995,20.217432970387502],[-98.15015008999995,20.22130995038738],[-98.14700521999998,20.220614029387406],[-98.14772630899995,20.2263854003873],[-98.15706191999999,20.23819654938699],[-98.16109765899995,20.236668750386997],[-98.16280490999998,20.240980769386944],[-98.17592493899997,20.254229539386564],[-98.18047887899996,20.255026019386584],[-98.18029899999999,20.256946280386536],[-98.18487494999995,20.259198020386442],[-98.19239567899997,20.258217750386507],[-98.19536995,20.25428654038658],[-98.19783913999999,20.253975310386572],[-98.20480213899998,20.245022510386825],[-98.20937008999994,20.243944111386856],[-98.20829264899999,20.239364659386943],[-98.21296385999995,20.234291060387058],[-98.21676819899996,20.238125491386988],[-98.221387049,20.236503381386996],[-98.22913871899999,20.236613220387014],[-98.23476782999997,20.23175995138716],[-98.23560141999997,20.223817351387318],[-98.24126733899999,20.221934880387384],[-98.24381245899998,20.21794322038749],[-98.25268522899995,20.218342341387466],[-98.25974056899999,20.21526382138756],[-98.27054616899994,20.215806280387522],[-98.27654164999997,20.220505170387458],[-98.27892477899996,20.225272890387288],[-98.28421947899996,20.249979291386683],[-98.28444353999998,20.26278884938638],[-98.280566509,20.26616662938628],[-98.27545313999997,20.26612922138631],[-98.27482531999999,20.268806230386204],[-98.26603711999996,20.273611090386126],[-98.26043188999996,20.28552494038581],[-98.25619816999995,20.286293651385773],[-98.25757111899998,20.298130510385498],[-98.25402964899997,20.301341881385387],[-98.24658665899996,20.30121008038538],[-98.24222073999995,20.304119351385328],[-98.23647647899998,20.304347481385303],[-98.23267153899997,20.300629251385452],[-98.23050759999995,20.295284550385578],[-98.22476757999999,20.295113029385547],[-98.21594822999998,20.29145658138562],[-98.20649988899999,20.296238831385512],[-98.200447539,20.29210045038565],[-98.19448333999998,20.290837370385677],[-98.19144805899998,20.291355121385624],[-98.18994417999994,20.29441082938558],[-98.17907756999995,20.293808369385566],[-98.17813088999998,20.29726436938551],[-98.18042004999995,20.303449289385373],[-98.17792303,20.309413449385175],[-98.17953699999998,20.31278577938514],[-98.17787157999999,20.32046390938493],[-98.17966565999996,20.326847399384793],[-98.17923608999996,20.332355059384625],[-98.18130810999999,20.336543079384544],[-98.16949474999996,20.332320219384624],[-98.16325354999998,20.327848599384733],[-98.15761342999997,20.332451769384605],[-98.14661021999996,20.330255569384704],[-98.14264793999996,20.33196979938461],[-98.14501465999997,20.334783029384553],[-98.13915868,20.332704349384592],[-98.13152862999999,20.33652834938451],[-98.12683550999998,20.336231019384556],[-98.12423839999997,20.341480769384386],[-98.12719467999995,20.344392889384327],[-98.12618399999997,20.34629634938428],[-98.12399988999994,20.348502829384206],[-98.11740541999997,20.350145659384207],[-98.11557411999996,20.353803659384084],[-98.11250377999995,20.354295719384066],[-98.11333130999999,20.36089861938392],[-98.11564638,20.363107370383883],[-98.10674030999996,20.36812337038371],[-98.10838853999998,20.37395829038361],[-98.10188201999996,20.375218110383543],[-98.10150071,20.380876199383408],[-98.08938012,20.389068709383224],[-98.08837502999997,20.39640262938305],[-98.07731790999999,20.403119749382835],[-98.076867769,20.407025229382757],[-98.07904468,20.40892807938273],[-98.07189462999997,20.416395219382505],[-98.07610837999995,20.41768504938249],[-98.07660101999996,20.42080994938239],[-98.07427650999995,20.42161465938239],[-98.07048425999996,20.43027316938221],[-98.06344027999995,20.435876139382056],[-98.06127271999999,20.43548554938208],[-98.05699233999998,20.438747619381992],[-98.05361877999997,20.438589089381974],[-98.05200125999995,20.441878629381915],[-98.04681393999995,20.436891399382006],[-98.04455364999995,20.436634879382023],[-98.04278561999998,20.440567879381952],[-98.03999094999995,20.44018508938194],[-98.03384982999997,20.447690689381755],[-98.02194824999998,20.448893310381735],[-98.01709384999998,20.454739289381603],[-98.01138481999999,20.45577225038153],[-98.01397291999997,20.456386180381518],[-98.01207979999998,20.45842094938149],[-98.01497424999997,20.45918668938144],[-98.01156194999999,20.461232999381423],[-98.01406575,20.466209649381298],[-98.00834251999999,20.474746029381087],[-98.00886477999995,20.482540999380863],[-97.99985079999999,20.48254471938091],[-97.99792782999998,20.48437930938085],[-97.99901291999998,20.487117799380798],[-97.99337037999999,20.485221349380836],[-97.99193536999996,20.49281733938063],[-97.98879099999999,20.49538519938056],[-97.99742608999998,20.50609524938029],[-97.99288050999996,20.507632829380242],[-97.99159141999996,20.513046719380107],[-97.98934102999999,20.515454349380054],[-97.98528259999995,20.51560434938006],[-97.98507111999999,20.517405599380044],[-97.98974331999996,20.51829942938001],[-97.99002919999998,20.52019870937995],[-97.99265130999999,20.51986081937999],[-97.99497804999999,20.522979509379873],[-97.99792301999999,20.523024309379874],[-97.99876461999997,20.525199859379818],[-98.00347727999998,20.522838949379896],[-98.00416636999996,20.52487951937985],[-98.01259185999999,20.525247619379847],[-98.01379491999995,20.523966219379833],[-98.01727161999997,20.525992379379804],[-98.01826437999995,20.528792449379708],[-98.01207593999999,20.529534309379706],[-98.00830564999995,20.532689819379627],[-98.02872816999997,20.58971159937822],[-98.01770979999999,20.601704909377897],[-98.02100999999999,20.626779999377305],[-98.02939276999996,20.6321218293772],[-98.03601714999996,20.633330219377154],[-98.03997941999997,20.63193242937719],[-98.06678288999996,20.673869739376137],[-98.07134289,20.67711622937604],[-98.07490281999998,20.6765478493761],[-98.07678094999996,20.67379859937615],[-98.07639205999999,20.671422539376188],[-98.07130987999994,20.669918169376267],[-98.07029217999998,20.668199289376304],[-98.07255461999996,20.66066064937648],[-98.07195810999997,20.657720629376517],[-98.07931796999998,20.649696119376735],[-98.08271168999994,20.64220682937695],[-98.08060970999998,20.633513979377128],[-98.08545604999996,20.62975961937725],[-98.08718084999998,20.622876769377413],[-98.09469422999996,20.625521749377363],[-98.09821413999998,20.624369459377345],[-98.10055236999995,20.62124904937747],[-98.09830343,20.617028939377565],[-98.10059181999998,20.61387778037762],[-98.10582736999999,20.616046490377595],[-98.11178647999998,20.61593675037757],[-98.10804805999999,20.611392400377685],[-98.10950044999998,20.607393510377793],[-98.11225391999996,20.60715135037777],[-98.11497674999998,20.60010386037795],[-98.11789727999998,20.600749400377925],[-98.11867045999998,20.59815597037801],[-98.12102596999995,20.597000720378013],[-98.12690596999994,20.59726720037801],[-98.11872357999994,20.594129310378147],[-98.12372688899995,20.59211997037817],[-98.12164279999996,20.586094380378338],[-98.13018797999996,20.59093125037818],[-98.13186906,20.587327630378283],[-98.13043142999999,20.58445400037834],[-98.13207490999997,20.581991540378393],[-98.13538981999994,20.58192294037844],[-98.13813476999997,20.574767680378578],[-98.14249561999998,20.570845200378702],[-98.14261814999998,20.568494950378746],[-98.14750034999997,20.565534280378827],[-98.14773642999997,20.562661800378894],[-98.15371824999994,20.565220830378816],[-98.15218324999996,20.554515510379083],[-98.15342397999996,20.552384080379166],[-98.15814905999999,20.550261800379193],[-98.15657137999995,20.54731125037928],[-98.15887759999998,20.545645030379312],[-98.15804301999998,20.542561280379427],[-98.16444636999996,20.54119057037945],[-98.16650836999999,20.536583020379567],[-98.17289370999998,20.52971563037971],[-98.17758668999994,20.527666860379764],[-98.18075287999994,20.528859460379717],[-98.18218814999994,20.526210490379786],[-98.18562182999995,20.527565630379794],[-98.18796759999998,20.525837060379814],[-98.18834482999995,20.52321994037986],[-98.20395805999999,20.527864120379757],[-98.21037233999999,20.52606085037982],[-98.21160088999996,20.52869984937976],[-98.21943857999997,20.523006520379894],[-98.22230508999996,20.52373150937987],[-98.22869404999994,20.520834720379916],[-98.23247973999997,20.514241370380066],[-98.23032234999994,20.51054133938017],[-98.23329949,20.50979454038023],[-98.23410279999996,20.506195050380324],[-98.23901922,20.50496254038034],[-98.24101904999999,20.500573780380467],[-98.24575839999994,20.50440371038035],[-98.24728928999997,20.50120257938042],[-98.25577373999995,20.499940120380472],[-98.25758369,20.49560548038055],[-98.26042026,20.495397370380545],[-98.27104425,20.481920820380914],[-98.27543862999994,20.48124482038095],[-98.27545891999995,20.479198940380968],[-98.27765171999994,20.477794800381027],[-98.27641811999996,20.475484080381058],[-98.27727179999994,20.47288989038109],[-98.28010274999998,20.47216758038116],[-98.28046356999995,20.469377050381198],[-98.28726587999995,20.466710970381275],[-98.28789834999998,20.4647129503813],[-98.29215011999997,20.464912450381306],[-98.29456807999998,20.460285030381456],[-98.29727325999994,20.46053857038141],[-98.29969239999997,20.458671310381465],[-98.29912944999995,20.455590110381547],[-98.30263047999995,20.45568942038154],[-98.30262794,20.45411082038157],[-98.30444490999997,20.454721400381555],[-98.30831399999994,20.45209372038163],[-98.30900956999994,20.449533570381742],[-98.31213859999997,20.449767650381713],[-98.31234881999995,20.447971950381753],[-98.31571256999997,20.4456851103818],[-98.31391381999998,20.43946863038198],[-98.31810931999996,20.435257680382062],[-98.31727767999996,20.428780650382247],[-98.31981974999998,20.424398680382353],[-98.31605382999999,20.423190540382357],[-98.31852842999997,20.422432860382397],[-98.32101361999997,20.418013800382475],[-98.32605350999995,20.41828474038247],[-98.33010796999999,20.415686049382533],[-98.33717954999997,20.414130620382558],[-98.33864630999994,20.411136550382633],[-98.34370862999998,20.41030240038265],[-98.34855414999998,20.40662629038279],[-98.34865648,20.40501517038281],[-98.35880990999999,20.401409370382904],[-98.35981996999999,20.399809740382963],[-98.37047104999999,20.401881430382893],[-98.37658436999999,20.398508600382993],[-98.38073128999997,20.399225340382934],[-98.38614877999998,20.402712910382856],[-98.41829413999994,20.3800486893834],[-98.46038914999997,20.331449619384667],[-98.47109765999996,20.335947149384523],[-98.48037161799999,20.336467169384523],[-98.48667582999997,20.33478804838457],[-98.48993113899996,20.336917799384498],[-98.49467021799995,20.33625498138455],[-98.49649439999996,20.33869173938448],[-98.498084018,20.337655169384504],[-98.49960907899998,20.338739679384485],[-98.50080607899999,20.337172460384476],[-98.50385211999998,20.337827618384487],[-98.50559284899998,20.335406030384547],[-98.51124493999998,20.33932745938445],[-98.51740107999996,20.33685167938452],[-98.52285224999997,20.342618519384356],[-98.52528325999998,20.3418599993844],[-98.52714071999998,20.344991079384315],[-98.53426456999996,20.34622116938426],[-98.53506988,20.34988714938417],[-98.53885076999995,20.352756339384104],[-98.54035428999998,20.35808571938401],[-98.54299354999995,20.356242549384024],[-98.54541767999996,20.359147059383965],[-98.54896665999996,20.360286119383947],[-98.54733682999995,20.36149071938391],[-98.54868345999995,20.36469273938384],[-98.54546124999997,20.367984339383764],[-98.54650530999999,20.370134079383707],[-98.54306479999997,20.37556033938354],[-98.54596977999995,20.37678914938351],[-98.54443687999998,20.37880382938345],[-98.54521171999994,20.388198739383252],[-98.54843997999996,20.390247859383166],[-98.54438907999997,20.392342599383134],[-98.54784561999999,20.39289733938311],[-98.55017916999998,20.395705109383044],[-98.55042721999996,20.39927516938297],[-98.54874937999995,20.399704279382938],[-98.54824276999994,20.402494659382896],[-98.55053544999998,20.40625173938281],[-98.54940268999998,20.41500767938254],[-98.55073199999998,20.419854739382455],[-98.549469,20.421551919382427],[-98.55132121999998,20.423822109382353],[-98.54996008999996,20.425874829382302],[-98.55191605999994,20.42728727938225],[-98.55242901999999,20.431888509382173],[-98.55001713999998,20.432594689382107],[-98.54968913999996,20.43535916938204],[-98.55239627999998,20.435530539382068],[-98.55437033999999,20.43850424938199],[-98.55518387999996,20.442835059381874],[-98.55371099999998,20.446434309381765],[-98.55610331999998,20.449621019381702],[-98.57186284999995,20.463609379381353],[-98.57237989,20.466943539381273],[-98.57672227999996,20.47070231938118],[-98.57576585999999,20.47283136938112],[-98.57873255,20.473237169381118],[-98.57661742999994,20.476075549381072],[-98.57886150999997,20.47631879938104],[-98.57950425999996,20.479259459380952],[-98.58625264999996,20.482882109380867],[-98.58577404999994,20.484868309380797],[-98.58823819999999,20.487459149380776],[-98.59396073999996,20.489599029380685],[-98.59513204999996,20.494408399380596],[-98.59728568999998,20.49577085938056],[-98.59315030999994,20.499498749380457],[-98.58698676999995,20.501175029380434],[-98.58239557999997,20.50548948938032],[-98.57666557999995,20.50428907938033],[-98.57111916999997,20.509042689380227],[-98.56673093999996,20.50789821938028],[-98.55760622999999,20.509364769380202],[-98.55852137999995,20.51142837938016],[-98.55461408999997,20.518705949379957],[-98.54563970999999,20.521038219379914],[-98.53466516999998,20.53065817937968],[-98.53084355,20.540152599379457],[-98.52613728999995,20.544231029379354],[-98.52449233999994,20.54836222937927],[-98.52571588999996,20.551065379379203],[-98.52411728999999,20.552456089379174],[-98.52263599999998,20.559203349378997],[-98.52405673999999,20.560984519378923],[-98.52339719999998,20.567333259378785],[-98.52491531999999,20.570762169378664],[-98.52370393999996,20.571976889378643],[-98.52427924999996,20.575544769378546],[-98.52231657999994,20.577218649378562],[-98.52297864999997,20.58181259937841],[-98.51224801999996,20.594224349378106],[-98.50292093999997,20.595870019378083],[-98.49630305999995,20.589495969378206],[-98.48747059999994,20.588853029378242],[-98.48492633999996,20.590181089378206],[-98.48241453999998,20.58793422937825],[-98.48018045999999,20.588998889378217],[-98.47845985,20.594250659378122],[-98.48118150999994,20.60163561937791],[-98.48012207999994,20.60329590937788],[-98.48359568999997,20.606518279377806],[-98.48950407999996,20.619656739377465],[-98.49039753999995,20.626973689377312],[-98.49516868999996,20.636628709377035],[-98.49484671999994,20.644340509376885],[-98.49116331999994,20.64577173937683],[-98.48974136999999,20.64998617937673],[-98.48702822999996,20.65005234937675],[-98.48601377999995,20.65439671937659],[-98.47950927999996,20.656784369376542],[-98.47847828,20.659242349376505],[-98.47513745999998,20.659817369376483],[-98.47260953999995,20.662676769376446],[-98.47001287999996,20.66257030937641],[-98.46741519999995,20.666138089376346],[-98.46368594999996,20.6672412793763],[-98.46397859999996,20.67412753937612],[-98.46040281999996,20.67683068937605],[-98.46049090999998,20.683204849375898],[-98.45854296999994,20.685372429375832],[-98.45988339999998,20.69620334937562],[-98.44921636999999,20.700895719375477],[-98.44590364999999,20.694336709375655],[-98.44535453999998,20.703140309375403],[-98.44178039999997,20.708616829375277],[-98.44334989,20.70988096937522],[-98.43927051999998,20.70885744937527],[-98.42920124999996,20.7164115193751],[-98.43346559999999,20.717523679375073],[-98.42480717999996,20.730291659374732],[-98.42444568999997,20.735044889374617],[-98.42145376999999,20.73934781937451],[-98.42144781999997,20.744276119374398],[-98.42551050999998,20.74892928937427],[-98.42802687999995,20.74448847937438],[-98.43385742,20.743163179374445],[-98.43563665,20.739844549374514],[-98.44033147999995,20.737673519374557],[-98.44134224999999,20.733799479374678],[-98.44409839999999,20.731285919374738],[-98.44338871999997,20.72923317937476],[-98.44736334,20.727593629374816],[-98.44794512,20.724614849374845],[-98.45415481999999,20.721288449374946],[-98.46034182999995,20.71331210937518],[-98.46244270999995,20.714172149375116],[-98.46646801999998,20.710267119375214],[-98.47298787999996,20.708961829375298],[-98.47513374999994,20.705988369375348],[-98.48357670999997,20.70600633937534],[-98.48578454999995,20.70348887937542],[-98.49722017,20.699880059375506],[-98.50115037999996,20.694583319375635],[-98.50628637999996,20.694075719375643],[-98.50877087999999,20.690120459375738],[-98.51094808,20.69149961937571],[-98.51482508999999,20.689202019375745],[-98.51744150999998,20.683771419375873],[-98.52505133999996,20.68183910937594],[-98.52903745999998,20.675842569376098],[-98.53160517999999,20.66731564937629],[-98.53042065999995,20.66512171937636],[-98.53339734999999,20.662716909376396],[-98.53422444999995,20.664571619376378],[-98.53614088999996,20.6633637093764],[-98.54262345999996,20.668491259376275],[-98.54877061999998,20.682252829375916],[-98.55017975,20.689392539375742],[-98.53999178,20.693506969375655],[-98.53869448999995,20.69559111937562],[-98.54025704999998,20.69810748937553],[-98.53422705999998,20.698421779375526],[-98.53095528999995,20.702007219375428],[-98.53111445999997,20.70414664937538],[-98.52907259999995,20.703993919375414],[-98.53014962999998,20.70996864937527],[-98.53044530999996,20.708846939375288],[-98.53264448999995,20.71130274937523],[-98.53222847999996,20.715409229375098],[-98.53015979999999,20.718098319375024],[-98.52453759999997,20.721693979374948],[-98.52036925999994,20.727032489374835],[-98.51568224999994,20.725355569374855],[-98.51345222999998,20.726598569374868],[-98.51396051999996,20.728170689374814],[-98.51097488999996,20.728679179374762],[-98.50643805999994,20.733119149374676],[-98.51053262999994,20.733862769374635],[-98.51449332,20.732322379374672],[-98.51443965999994,20.736179909374577],[-98.51779631999996,20.74015993937453],[-98.51665390999996,20.742889679374464],[-98.50813864999998,20.744189399374385],[-98.50728719999995,20.738050369374555],[-98.50361051,20.732226689374706],[-98.49681113999998,20.736830119374563],[-98.47601268999995,20.73892531937457],[-98.47069985999998,20.74494271937437],[-98.45756613999998,20.74690728937431],[-98.44972887999995,20.751345709374245],[-98.45603717999995,20.75561034937411],[-98.46009941999996,20.762848339373953],[-98.46164621999998,20.770170309373746],[-98.46455730999999,20.772529109373707],[-98.46051696999997,20.778983139373537],[-98.46323054999999,20.785177109373407],[-98.46051605999999,20.788127949373315],[-98.45585202999996,20.789519049373258],[-98.44964144999994,20.80608857937288],[-98.44921876999996,20.81009470937278],[-98.45220522999995,20.8139662293727],[-98.45055356999997,20.821471859372494],[-98.44402745999997,20.828992229372304],[-98.44368017999994,20.834323509372172],[-98.44045427999998,20.835648049372132],[-98.43937543,20.838335579372064],[-98.43318674999996,20.841834579372016],[-98.43232487999997,20.840977059372026],[-98.42952067999994,20.846958119371887],[-98.43063857999994,20.847672429371862],[-98.42763194999998,20.849305479371814],[-98.42686690999994,20.847101829371862],[-98.42473269,20.849919779371806],[-98.42180630999997,20.849164629371852],[-98.41942901999994,20.85110245937177],[-98.41702216999994,20.848096089371875],[-98.41371721999997,20.848636449371853],[-98.41142150999998,20.854093019371703],[-98.40558101999994,20.855197229371658],[-98.40290905999997,20.858383879371615],[-98.39824765999998,20.858730629371557],[-98.39364302999996,20.854402119371677],[-98.38956814999995,20.855790319371653],[-98.38799570999998,20.853790859371713],[-98.38188182999994,20.85351377937173],[-98.37966077999994,20.851861579371757],[-98.37303521999996,20.85654687937164],[-98.37112594999996,20.862314449371496],[-98.36806884999999,20.8618526893715],[-98.36583887999996,20.863874949371436],[-98.36342939999999,20.860639739371557],[-98.36001807999997,20.859508289371576],[-98.35932327999997,20.85679690937165],[-98.35751017999998,20.85679011937161],[-98.35101053999995,20.86118747937154],[-98.34889194999995,20.865621489371392],[-98.34736984999995,20.863064349371488],[-98.34514553999998,20.864852539371448],[-98.34451774899999,20.862235509371505],[-98.34778627899999,20.85886784937156],[-98.34801451899996,20.854088079371696],[-98.35178802899999,20.848796429371824],[-98.34975127899999,20.84298104937197],[-98.35287045899997,20.836007139372157],[-98.34706379899997,20.834495629372178],[-98.34542919899997,20.831843149372244],[-98.339667369,20.832742579372237],[-98.32719607899998,20.829438229372307],[-98.32864647899999,20.820501349372506],[-98.31653604899998,20.81777047937258],[-98.31483784899996,20.809815479372787],[-98.34466525899997,20.797485339373075],[-98.33942801899997,20.796685649373092],[-98.33845036899999,20.793057019373194],[-98.33526781899997,20.789852679373258],[-98.32768837899994,20.786090629373366],[-98.32852231899994,20.784096819373435],[-98.32524590899999,20.783823369373433],[-98.315315979,20.78874682937328],[-98.31209257899997,20.797727569373095],[-98.30783034899997,20.80191610937296],[-98.30287690899996,20.79590076937314],[-98.29844642899997,20.80142925937302],[-98.29777077899996,20.79574657937316],[-98.30447870899997,20.78273345937344],[-98.29881005899996,20.77783984937361],[-98.292022939,20.785506749373358],[-98.284395799,20.786664569373336],[-98.27954145899999,20.782698289373442],[-98.27556588899996,20.786018219373393],[-98.26159516999996,20.785969229373364],[-98.25701367899995,20.792827909373187],[-98.25404154899998,20.79410288937316],[-98.24774964899996,20.78943699937332],[-98.24555167899996,20.793315109373186],[-98.24891859899998,20.796377709373132],[-98.24488684899995,20.802221599372967],[-98.24494536899994,20.800905619372994],[-98.23744850899999,20.79845207937308],[-98.23626991899994,20.796756879373095],[-98.23365261899994,20.797555569373078],[-98.232660819,20.80443845937289],[-98.22470505899997,20.818235229372554],[-98.23932534899996,20.817581629372608],[-98.24793782899997,20.81969881937253],[-98.24949422899995,20.822297749372503],[-98.25196188899997,20.819914379372538],[-98.25376504899998,20.821491719372485],[-98.25211236899997,20.82781513937234],[-98.25891393899997,20.83397101937218],[-98.25952410899998,20.8375609193721],[-98.25820576899997,20.83971745937203],[-98.26061161899997,20.83982613937207],[-98.26232287899995,20.846892539371876],[-98.25464297899998,20.84895219937181],[-98.25880533899999,20.85506804937168],[-98.25622228899995,20.858969279371582],[-98.26550304899997,20.86653622937141],[-98.25898673999995,20.874919749371205],[-98.25096630899998,20.897304689370632],[-98.24866814899998,20.898961619370564],[-98.23236124899995,20.900116979370576],[-98.22486288899995,20.906357249370412],[-98.22901764899996,20.90819034937036],[-98.22266011899997,20.91335857937022],[-98.22270428899999,20.918447979370114],[-98.22400981899996,20.918974819370135],[-98.22982202899999,20.91459442937018],[-98.23426393899996,20.915829909370192],[-98.23935464899996,20.923026419369997],[-98.23682347899995,20.928975169369856],[-98.23738625,20.93477624936969],[-98.23524293999998,20.94044262936959],[-98.23020382999994,20.94476553936947],[-98.22973062999995,20.949748319369327],[-98.22736933999994,20.954065429369262],[-98.22857368999998,20.95760884936914],[-98.22568767999996,20.959419449369094],[-98.21611156999995,20.95260791936928],[-98.21350321999995,20.962580599369012],[-98.20953930999998,20.967088579368923],[-98.21203354999994,20.967833109368936],[-98.20976451999996,20.970700829368838],[-98.21107974999995,20.972245719368793],[-98.21691939999994,20.97374301936873],[-98.21328042999995,20.983119719368542],[-98.21500744999997,20.989627309368384],[-98.20061927999997,20.994696319368256],[-98.19953090999996,20.999058799368147],[-98.20200897999997,21.00532810936799],[-98.20206845999998,21.011749219367843],[-98.19699341999996,21.016592490367707],[-98.18899836999998,21.018318769367685],[-98.18863119999997,21.021279379367616],[-98.19093174999996,21.026336879367463],[-98.18827143,21.031308149367334],[-98.18266530999995,21.029990319367354],[-98.18047351999998,21.024052319367556],[-98.17631741999999,21.021167879367614],[-98.17301377999996,21.020606119367585],[-98.16786371999996,21.022892659367535],[-98.16389661999995,21.01764717936767],[-98.16115767999997,21.01913062936766],[-98.16270053999995,21.028331889367436],[-98.15977051,21.03218301936733],[-98.15567794999998,21.03338617936728],[-98.15077630999997,21.04721847936694],[-98.15065957999997,21.052440709366824],[-98.15452367999997,21.06607944936653],[-98.15043955,21.0695089093664],[-98.14741033999998,21.07658336936624],[-98.15094677999997,21.085498279366004],[-98.17095650999994,21.09681164936577],[-98.17486191999997,21.106223889365488],[-98.18076671999997,21.10683487936553],[-98.18334301999994,21.110241279365408],[-98.186359,21.11081251936539],[-98.20198242999999,21.106442939365486],[-98.20235608999997,21.110890199365386],[-98.19951485999997,21.115819179365303],[-98.19566734999995,21.117817419365245],[-98.19515224999999,21.120363199365173],[-98.19690603,21.12297436936514],[-98.20741765999998,21.128726049365007],[-98.20799982999995,21.130808029364893],[-98.20422108999998,21.135311449364842],[-98.20505371999997,21.138087909364724],[-98.20862628999998,21.143316019364608],[-98.21683122999998,21.144719719364605],[-98.21784764999995,21.147673659364532],[-98.21557536999995,21.150083659364462],[-98.21682458,21.151472349364433],[-98.22735004999998,21.15041593936447],[-98.22924062999995,21.145590749364562],[-98.23165608999994,21.144357659364566],[-98.23126162999995,21.142368569364628],[-98.23421217999999,21.14281730936463],[-98.23379630999995,21.14061070936467],[-98.23692059999998,21.143358249364628],[-98.23938305999997,21.138065349364727],[-98.24596097999995,21.134601769364853],[-98.24527342,21.132169539364902],[-98.24911036999998,21.129403319364965],[-98.25710233999996,21.133924969364866],[-98.26250276999997,21.140656579364677],[-98.28217377,21.1364173793648],[-98.28118930999996,21.141459779364666],[-98.28624941999999,21.145087349364566],[-98.29451370999999,21.147188549364532],[-98.29571870999996,21.148665259364467],[-98.29535381999995,21.155971849364327],[-98.29020561999995,21.16090121936417],[-98.28468485999997,21.162365509364136],[-98.27857934999997,21.172584719363897],[-98.27887445999994,21.182858449363636],[-98.27551631999997,21.187373059363523],[-98.27913113999996,21.192752549363387],[-98.28717821999999,21.194296199363382],[-98.29615025999999,21.18796153936354],[-98.29597868999997,21.183036799363617],[-98.29956813999998,21.18412834936361],[-98.29790336999999,21.17740248936382],[-98.30538370999994,21.181294769363667],[-98.30499994999998,21.182956539363673],[-98.30803421999997,21.18025193936373],[-98.30844527999994,21.184814909363613],[-98.31118847999994,21.183434849363614],[-98.31585590999998,21.186879619363584],[-98.32114636999995,21.181262979363684],[-98.33814956999998,21.1727709093639],[-98.34235647999998,21.16719014936405],[-98.34088671999997,21.164823629364108],[-98.34211254999997,21.160773709364197],[-98.35058216999994,21.159867649364184],[-98.35075422999996,21.157142679364288],[-98.35368264999995,21.15980476936422],[-98.35814102999996,21.156289179364293],[-98.35947833999997,21.15761565936425],[-98.36203994,21.157049029364295],[-98.36506314999997,21.158095179364235],[-98.36496607999999,21.161738379364152],[-98.36624107999995,21.16223505936416],[-98.36774019999996,21.158830969364242],[-98.38021951999998,21.155124739364357],[-98.38016741999996,21.158363419364257],[-98.38359719999994,21.158460829364223],[-98.38404217999995,21.16090864936421],[-98.38680796999996,21.16225913936417],[-98.38933274999994,21.158667879364238],[-98.39113209,21.160536319364205],[-98.39780193999997,21.156478259364278],[-98.39953368999994,21.158588079364268],[-98.40105822999999,21.1559029493643],[-98.40380897999995,21.15759244936427],[-98.40319688999995,21.15442451036435],[-98.40454444999995,21.152651889364417],[-98.40541854899999,21.154706679364356],[-98.41643568999997,21.154981889364336],[-98.41708788999996,21.160399119364175],[-98.41871304999997,21.162385279364127],[-98.42037913999997,21.161455489364165],[-98.42345442999995,21.163522109364113],[-98.42371097999995,21.167174599364046],[-98.43025564999999,21.168046059364023],[-98.43010748999995,21.172787739363898],[-98.43235248999997,21.172256199363908],[-98.43299814999996,21.17477882936384],[-98.43546059999994,21.174550659363828],[-98.43704150999997,21.17717048936378],[-98.43896324999999,21.176221549363806],[-98.44513342999994,21.178672399363737],[-98.44545931999994,21.18062011936373],[-98.44676690999995,21.179813149363707],[-98.44939984999996,21.18667068936354],[-98.44906708999997,21.193626319363418],[-98.44667299999998,21.19961999936323],[-98.44935957999998,21.201993049363196],[-98.45706777,21.202879029363192],[-98.45962605999996,21.204801749363128],[-98.45289288999999,21.21003194936298],[-98.45694787999997,21.214832999362883],[-98.46650622999995,21.21990011936274],[-98.46775950999995,21.22384070936266],[-98.47280665999995,21.219810549362737],[-98.47965662999998,21.223888459362673],[-98.47919525999998,21.22645176936259],[-98.48174121999996,21.22869988936251],[-98.48081487999997,21.23067464936247],[-98.46925782999995,21.23416397936242],[-98.46845076999995,21.23917667936231],[-98.47049299999998,21.244497569362192],[-98.46835973999998,21.249651139362],[-98.47699550999995,21.252360219361993],[-98.48700537999997,21.250667579361988],[-98.49313762999998,21.25175650936199],[-98.49319718,21.250521679362038],[-98.49900977999994,21.252231139361974],[-98.50049842999994,21.251672949361986],[-98.49983217999994,21.247756679362087],[-98.50226141999998,21.246000479362156],[-98.50832659999998,21.247072569362103],[-98.51654336999997,21.24426894936216],[-98.53786081999999,21.26386608936166],[-98.54398171999999,21.26390122936168],[-98.54239405999999,21.269065139361572],[-98.52581108999999,21.287498859361097],[-98.51716925999995,21.30448816936072],[-98.49556691999999,21.329965769360093],[-98.49735693999997,21.33723271935989],[-98.49561751,21.34042021935984],[-98.48517774999999,21.35014985935959],[-98.4782684,21.347417619359664],[-98.47787816999994,21.34376121935973],[-98.47203393999996,21.346671379359666],[-98.46562071999995,21.347134369359672],[-98.46360567999996,21.35015433935962],[-98.46995976999996,21.357538909359437],[-98.46966741999995,21.36232450935932],[-98.46614550999999,21.365489479359237],[-98.46841911999996,21.370329829359115],[-98.46546345999998,21.373191909359054],[-98.46988404999996,21.3834404293588],[-98.46869708999998,21.387032619358727],[-98.47333556999997,21.391241539358617],[-98.48109139999997,21.388400819358694],[-98.47982853999997,21.396595429358474],[-98.48553527999998,21.398375679358445]]]}}]}
