{"type":"FeatureCollection","features":[{"type":"Feature","properties":{"cve_ent":"15","cvegeo":"15","nombre_inegi":"México","nombre_catalogo":"Estado de México"},"geometry":{"type":"Polygon","coordinates":[[[-99.91236793999997,20.28562617938581],[-99.91517785999997,20.28551542938578],[-99.91950096999996,20.281665379385895],[-99.92037293999994,20.27800896938596],[-99.92384001999994,20.27576447938607],[-99.92337393699995,20.273572112386105],[-99.92554914999994,20.273051629386117],[-99.92663928999997,20.269433339386186],[-99.92955044999997,20.2684576593862],[-99.93040579999996,20.264876889386308],[-99.92846694999999,20.2502211393867],[-99.93408082999997,20.249991489386712],[-99.92856565999996,20.23295850938713],[-99.92238150999998,20.231139479387128],[-99.92296695,20.225713089387305],[-99.92045996999998,20.217285649387524],[-99.91866267999995,20.216166089387546],[-99.91841458,20.211788449387633],[-99.95093302,20.215903509387534],[-99.95273790999994,20.24043527938692],[-99.95546505999995,20.24299454938687],[-99.95626022999994,20.248421969386712],[-99.96074467999996,20.254533619386606],[-99.96878527999996,20.258210509386455],[-99.97420033999998,20.262803919386375],[-99.97539671999999,20.267441709386276],[-99.97444079999998,20.2695747393862],[-99.97681365999995,20.272256679386135],[-99.98118391999998,20.271370339386127],[-99.98494288999996,20.264800479386345],[-99.98646354999994,20.2570676893865],[-99.98087445999995,20.25307202938662],[-99.97936370999999,20.247454849386756],[-99.98132107999999,20.244548819386807],[-99.97826617999999,20.238903339386955],[-99.97612176999996,20.239675569386932],[-99.97329888899998,20.236858029387026],[-99.97569774899995,20.23232912038716],[-99.96867074899995,20.221456799387408],[-99.96988876899997,20.21844777938751],[-99.96450356899999,20.21629785938755],[-99.96697582999997,20.20795994938773],[-99.96431736999996,20.204640619387856],[-99.96522981899994,20.201157510387937],[-99.96066836999995,20.201680229387875],[-99.96080077999994,20.200111199387926],[-99.95610584999997,20.196841219388034],[-99.95370528999997,20.1927357193881],[-99.94633596999995,20.189242909388245],[-99.94805207999997,20.186833369388275],[-99.94707116999996,20.184508079388337],[-99.94241974999996,20.18172454938842],[-99.93713525,20.18173176938841],[-99.94118309,20.17901519938845],[-99.93981437999997,20.176239419388544],[-99.93234519999999,20.174012029388564],[-99.93575337999995,20.169311572388743],[-99.93520621999994,20.165253449388786],[-99.92720551999997,20.16280096938886],[-99.92632488,20.159599199388975],[-99.92190281999996,20.158739969388975],[-99.92288142999996,20.15661574938905],[-99.92717559999994,20.157141539389016],[-99.92974627999997,20.16170617938892],[-99.93621276999994,20.162523033388887],[-99.93757653999995,20.152973259389146],[-99.93075371999998,20.14313188938938],[-99.93917459999996,20.135292029389596],[-99.94220644999996,20.12010033938992],[-99.93718616999996,20.1133380493901],[-99.93763837999995,20.104556449390362],[-99.93605133999996,20.099060749390464],[-99.92376684999994,20.084134679390836],[-99.92735091999998,20.067065169391267],[-99.92633741999998,20.064330679391368],[-99.95696914999996,20.061003519391434],[-99.96147754999998,20.062289909391414],[-99.96414817999994,20.06043290939144],[-99.96906671999994,20.06186448939143],[-99.98019265,20.059147449391496],[-99.97846821999997,20.07404544939109],[-100.00035233999996,20.077480399391042],[-100.00563976999996,20.06420050939134],[-100.01406921999997,20.059340219391444],[-100.02031119999998,20.059740659391466],[-100.02761599999997,20.056577079391573],[-100.04379796999996,20.03656621939205],[-100.04633986,20.036096049392043],[-100.05778744999999,20.03992999939195],[-100.06172581999999,20.03879053939198],[-100.06288627999999,20.036882219392037],[-100.06619719999999,20.036235289392042],[-100.06562642999995,20.031359139392197],[-100.07217744999997,20.03120771939219],[-100.07242219999995,20.029237799392217],[-100.07960696999999,20.030111179392215],[-100.08134076999994,20.02885024939226],[-100.08501834899995,20.024778449392336],[-100.08463915099998,20.022463329392405],[-100.08881793999997,20.015018289392597],[-100.08819808999999,20.016691279392532],[-100.09134324999997,20.02425956939234],[-100.09708625999997,20.027306229392266],[-100.09699734999998,20.02332879939239],[-100.10157282999995,20.02668273939231],[-100.10549622999997,20.0267441993923],[-100.11079061999999,20.031092659392208],[-100.11133048999996,20.033969509392143],[-100.11848216999995,20.033821199392108],[-100.11958902999999,20.03603017939209],[-100.11857561999996,20.03782959939203],[-100.12025204999998,20.038911689392016],[-100.12659759999997,20.03805882939203],[-100.13336068999996,20.040967399391953],[-100.13403105999998,20.04339036939188],[-100.13793736999999,20.04431153939184],[-100.13965685899996,20.04313105939189],[-100.14715850999995,20.05532522039156],[-100.15332016899998,20.05367405939161],[-100.15454245999997,20.0350876893921],[-100.15865697999999,20.035769879392063],[-100.15587665999999,20.02450984939237],[-100.15769502999996,20.017914859392537],[-100.15507902999997,20.013471659392636],[-100.15507771999995,20.00744062939281],[-100.14448741999996,20.00520488939286],[-100.13773150999998,20.010753999392723],[-100.13063294999995,20.009651319392727],[-100.12524019999996,20.0121751493927],[-100.12316982999994,20.00769573939277],[-100.11602354999997,20.006129709392802],[-100.12444045999997,19.99684590939304],[-100.13139411999998,19.9820018593934],[-100.13012248999996,19.9161930493951],[-100.11916874999997,19.912100219395217],[-100.11747477999995,19.904014819395393],[-100.11423059999998,19.901431519395484],[-100.10241977,19.879710179396042],[-100.07104497999997,19.86307051939646],[-100.06720305999994,19.86173551939644],[-100.06697307999997,19.86328081939644],[-100.06470499899996,19.862823119396417],[-100.06318391999999,19.860016289396498],[-100.06427233999996,19.85619347939662],[-100.06303281899996,19.855808629396638],[-100.06335633999998,19.854553079396684],[-100.06706024999995,19.855082849396624],[-100.08748121999999,19.860416999396495],[-100.09485362999999,19.860426980396497],[-100.10204782999995,19.853992579396678],[-100.12290985999995,19.8569035193966],[-100.12603906,19.856321079396604],[-100.12711839999997,19.85398461939668],[-100.13148713999999,19.852013859396713],[-100.14260847999999,19.82878721939729],[-100.14433948999995,19.823771649397415],[-100.14331388999994,19.818925349397528],[-100.14669650999998,19.812848109397727],[-100.14288528999998,19.803523849397937],[-100.14694077999997,19.79796464939808],[-100.14186484999999,19.787388319398353],[-100.14605434899994,19.77858913939859],[-100.14511365199996,19.771117689398753],[-100.14932848999997,19.766785219398862],[-100.14475605899997,19.764313909398947],[-100.14532281899994,19.757177969399116],[-100.14340777999998,19.74953931939933],[-100.14712654999994,19.741843939399487],[-100.14644585999999,19.73235934939973],[-100.14818575,19.72821519939983],[-100.1557858,19.72520885939995],[-100.15748759999997,19.72728894939989],[-100.15976457999994,19.726050539399942],[-100.15940810999996,19.72400233939994],[-100.15562257999996,19.721954999400005],[-100.16933971999998,19.707739109400368],[-100.17084507999999,19.711177309400277],[-100.17005345999998,19.712947089400245],[-100.18600621999998,19.712972249400256],[-100.19025002999997,19.698189419400627],[-100.19211205999996,19.697137779400638],[-100.19223505999999,19.701637739400514],[-100.19678617999996,19.70225396940054],[-100.19707205999998,19.70069407940057],[-100.20414999999997,19.704623349400485],[-100.21587356999999,19.703385659400478],[-100.21759421999997,19.705155289400444],[-100.22098496999996,19.70280168940051],[-100.22948997999998,19.70220574940054],[-100.23082130999997,19.707264849400396],[-100.22959325999994,19.708532119400346],[-100.23118176999998,19.708623019400363],[-100.23176948999998,19.710550169400296],[-100.22952737999998,19.714077999400192],[-100.22732165999999,19.71334247940024],[-100.22611835,19.714869569400232],[-100.22878399999996,19.71509370940022],[-100.22580267999996,19.717158049400116],[-100.22969291999999,19.72006341940004],[-100.23137127999996,19.71759022940012],[-100.23224279999995,19.720504259400045],[-100.23413636999999,19.72003622940008],[-100.23710417999996,19.718633339400107],[-100.23605339999995,19.716146659400156],[-100.23710730999994,19.712482999400287],[-100.23868070999998,19.71138530940027],[-100.24028919999995,19.712881919400225],[-100.24297701999997,19.70853919940038],[-100.2406812,19.70862731940036],[-100.24369665999996,19.704793219400447],[-100.25257641999997,19.70394099940047],[-100.25851571,19.700195680400547],[-100.25814894999996,19.69487941940072],[-100.26386947999998,19.695790449400697],[-100.26751688999997,19.67723341940116],[-100.27398971999997,19.672251279401305],[-100.26174745999998,19.65802717940162],[-100.24751921999996,19.63451277040226],[-100.25166285899996,19.627279750402437],[-100.24961633899994,19.627268980402423],[-100.25225344999996,19.623486020402545],[-100.25213924999998,19.617497949402654],[-100.24360067999999,19.58562087940346],[-100.24428387999995,19.573680579403785],[-100.24230304999998,19.569717419403915],[-100.23795364999995,19.566681979403974],[-100.23747632,19.5572187994042],[-100.22514968999998,19.557930879404218],[-100.21469630999997,19.552765399404333],[-100.21048939999997,19.54205287940459],[-100.19642667999995,19.53173310940488],[-100.20185051999994,19.522931849405115],[-100.20057431999999,19.51874156940518],[-100.20193951999995,19.499528259405672],[-100.19651382999996,19.498233109405735],[-100.19579062999998,19.499239519405705],[-100.19338421999998,19.497383369405718],[-100.19328722999995,19.499202909405717],[-100.18488364999997,19.4988351494057],[-100.17769417999995,19.492624749405877],[-100.17864955,19.49068844940592],[-100.17671497999999,19.489678049405963],[-100.17982090999999,19.488314769405974],[-100.20097975,19.492791709405875],[-100.20087068999999,19.482552464406098],[-100.20414453999996,19.479691509406223],[-100.20186499999994,19.475510249406327],[-100.20643777999999,19.47037022940646],[-100.20745737999994,19.461129279406652],[-100.20673873999999,19.457885549406786],[-100.20573191999995,19.45816710940673],[-100.20608791999996,19.45446617940684],[-100.20249202999997,19.454932909406807],[-100.19887113999995,19.452413599406906],[-100.18987261999996,19.439704049407233],[-100.19733526,19.43346724940738],[-100.20207738,19.4320195194074],[-100.21594202999995,19.413421199407924],[-100.23742516999994,19.403512259408174],[-100.26767324999999,19.40257281940817],[-100.27303924999995,19.39894499940825],[-100.29309411999999,19.395128859408377],[-100.29437442999996,19.380928569408724],[-100.29957370999995,19.376581119408826],[-100.30213551999998,19.36999830940899],[-100.31237445999994,19.362361119409222],[-100.31111185999998,19.35322421940947],[-100.30073062999999,19.342744279409693],[-100.30693544999997,19.33824294940983],[-100.30682136999997,19.32282396941024],[-100.31627754999995,19.319410459410296],[-100.31995929,19.316230219410368],[-100.32326505999998,19.306803249410613],[-100.32066167999994,19.306829139410628],[-100.31309785999998,19.29725853941087],[-100.32006527999994,19.290933399411024],[-100.32014568999996,19.288899249411088],[-100.31530953999999,19.287416649411156],[-100.32048584999997,19.28029311941134],[-100.32106848999996,19.267135629411655],[-100.31973156999999,19.261792169411788],[-100.32173477999999,19.25634733941194],[-100.31988333999999,19.252991539412015],[-100.32249742999996,19.25069233941209],[-100.33125507999995,19.230464939412606],[-100.33364590999997,19.230918829412612],[-100.36033622999999,19.20508774741326],[-100.35922308999996,19.202996717413324],[-100.36255454999998,19.20294030741332],[-100.37006090999995,19.194371689413515],[-100.37308511999998,19.194171967413524],[-100.37110593999995,19.177496687413996],[-100.37819147999994,19.17110004741412],[-100.36159113999997,19.154706827414547],[-100.36365362,19.152111059414622],[-100.36637391999994,19.15338870941461],[-100.36665257999994,19.14970808941469],[-100.36923111999995,19.15054130941468],[-100.37311787999995,19.148563429414697],[-100.37604093999994,19.151520029414627],[-100.37970784999999,19.15146307941464],[-100.38285211999994,19.14761254941477],[-100.38611203,19.147505779414775],[-100.38652777,19.14505411941482],[-100.38948228999999,19.142912859414846],[-100.38816394999999,19.136778339415013],[-100.39149724999999,19.128411379415233],[-100.39393107999996,19.127561479415274],[-100.39214294999994,19.124618339415335],[-100.39629742999995,19.123403349415366],[-100.39464461999995,19.121676199415386],[-100.39515830999996,19.117905779415523],[-100.39756130999996,19.11620737941556],[-100.39908904999999,19.110500519415723],[-100.40437841999994,19.109457289415708],[-100.40387685999997,19.107724509415753],[-100.40665778,19.105893949415833],[-100.40549337999994,19.104065519415887],[-100.40294796999996,19.103800599415887],[-100.40386105999994,19.09789390941603],[-100.40657801999998,19.096110169416065],[-100.40475554999996,19.093271939416127],[-100.41067570999996,19.084017549416405],[-100.40679861999996,19.080506089416463],[-100.40893347999997,19.07893584941652],[-100.40747937999998,19.075580769416614],[-100.41162361999994,19.072819979416707],[-100.41261934999994,19.06665807941681],[-100.41046021999995,19.065212539416894],[-100.41082722999994,19.063595079416903],[-100.41976854999996,19.065943619416856],[-100.42046965999998,19.060961969416994],[-100.43173824999997,19.060726979416977],[-100.43144648999998,19.05492056941714],[-100.43618889,19.057886019417097],[-100.43955913999999,19.05429213941715],[-100.44712634999998,19.05202316941721],[-100.44839697999998,19.048956029417315],[-100.44559307999998,19.045435179417368],[-100.45115771999998,19.047768689417342],[-100.45363905999994,19.042444049417444],[-100.45790570999999,19.040980089417523],[-100.45903571999997,19.03302677941772],[-100.46129085999998,19.031475569417754],[-100.46557610999997,19.031692879417736],[-100.46867419999997,19.029085309417802],[-100.47711394,19.0341474894177],[-100.47936125999998,19.031092449417788],[-100.47913911999996,19.02615285941787],[-100.48514625999998,19.02772405941782],[-100.48327249,19.024143919417916],[-100.48433579999994,19.021025419418038],[-100.48881868999997,19.023207119417975],[-100.49209850999995,19.020085889418077],[-100.49528097999996,19.022015249417986],[-100.49596977999995,19.0181579494181],[-100.50170607999996,19.016640029418173],[-100.50273325999997,19.013289429418215],[-100.50643371999996,19.013323229418194],[-100.50894088999996,19.01030025941832],[-100.51275174999996,19.012430629418244],[-100.51415950999997,19.008354509418364],[-100.51937215,19.01208444941824],[-100.52985277999994,19.009331219418318],[-100.53078107999995,19.006898219418375],[-100.52474262,19.000110749418553],[-100.52324039999998,18.99363388941876],[-100.52482004999996,18.992673289418736],[-100.53016411999995,18.994152289418714],[-100.53239488999998,18.991243909418777],[-100.53022250999999,18.987028199418916],[-100.53237285999995,18.98570041941895],[-100.53523171999996,18.98772896941887],[-100.53772053999995,18.984185119418996],[-100.53376251999998,18.978628349419143],[-100.53731350999999,18.972344149419268],[-100.53321909,18.966394709419426],[-100.53339671999998,18.964396979419504],[-100.54010887999999,18.96268799941956],[-100.54476765999999,18.96594447941948],[-100.54667083,18.964194569419526],[-100.54759565999997,18.952107819419798],[-100.54608404999999,18.950149969419858],[-100.54971088999997,18.946420169419987],[-100.54691676999995,18.941424629420066],[-100.54356562999999,18.940407679420154],[-100.54378585999996,18.934703709420276],[-100.54684471999997,18.932745429420347],[-100.55817187999997,18.93509794942026],[-100.56199351999999,18.932814709420327],[-100.56316561999996,18.931263379420376],[-100.56217279999998,18.92862133942044],[-100.56497510999998,18.928568859420423],[-100.56385642999999,18.923763199420556],[-100.56878230999997,18.921684689420626],[-100.56519567999999,18.91768984942071],[-100.57594761999997,18.92287353942059],[-100.57800602999998,18.921066029420647],[-100.57401888999999,18.916996569420714],[-100.57423545999995,18.914533019420766],[-100.57815910999996,18.914111909420786],[-100.58037061999994,18.915718029420763],[-100.58540984999996,18.911309399420876],[-100.59035627999998,18.915570379420796],[-100.59323687999995,18.91527941942077],[-100.58938916999995,18.90811631942094],[-100.59399781999998,18.905914569421018],[-100.59942479999995,18.900306319421144],[-100.60410662999999,18.89938274942116],[-100.60123199999998,18.89699187942123],[-100.60048296999997,18.89285148942136],[-100.60600133999998,18.89293602942135],[-100.60867856999995,18.89477376942128],[-100.61289734999998,18.89345450942132],[-100.61062839999994,18.89058105942141],[-100.61309099999994,18.887100649421495],[-100.61021274999997,18.88784677942151],[-100.60801841999996,18.885157459421574],[-100.60517677999997,18.87568171942181],[-100.59746865999996,18.876181849421766],[-100.59140131999999,18.867934749422034],[-100.59245991999997,18.86588994942207],[-100.59076667999996,18.86590673942207],[-100.58549378,18.85876585942226],[-100.57677921999999,18.857780949422285],[-100.57701413999996,18.85561559942236],[-100.57222373999997,18.85420153942239],[-100.56639397999999,18.848590109422492],[-100.55179422999998,18.845546459422575],[-100.54456677999997,18.838042909422796],[-100.54111202999997,18.83672927942281],[-100.53795384999995,18.83618339942282],[-100.53861988999995,18.844110649422642],[-100.51396314999994,18.82931225942302],[-100.50216997999996,18.830865399422972],[-100.49348270999997,18.82391671942316],[-100.48988194999998,18.8103785394235],[-100.49585521999995,18.808174719423576],[-100.49761485999994,18.805960689423635],[-100.49028504999995,18.78930304942407],[-100.48177021999999,18.79865164942383],[-100.47762776999997,18.795960659423876],[-100.46508119999999,18.794440999423923],[-100.46215874999997,18.796968419423845],[-100.45939164999999,18.796892689423853],[-100.45836685999996,18.795671379423887],[-100.45935605999996,18.79099576942402],[-100.45747268999997,18.79003871942403],[-100.45799267999996,18.788233459424106],[-100.45573687999996,18.7843172294242],[-100.45752784999996,18.779548949424303],[-100.45600434999996,18.77787814942435],[-100.45325601999997,18.77857905942431],[-100.45303888999996,18.78127756942426],[-100.45103541999998,18.782793089424217],[-100.45047650999999,18.77999097942429],[-100.44554967999994,18.779172819424318],[-100.44463021999996,18.776834889424364],[-100.44181494999998,18.776527429424387],[-100.44284416999994,18.7798217394243],[-100.44093553999994,18.781881219424267],[-100.43656885899998,18.78311119942424],[-100.43528291999998,18.77961601942431],[-100.43063374999997,18.783248449424192],[-100.43180208999998,18.7755054594244],[-100.42614314999997,18.773737250424468],[-100.42775821899994,18.766618519424664],[-100.42314182899997,18.764773830424716],[-100.41808521999997,18.759514079424815],[-100.43713042999997,18.75055524942507],[-100.43730562999997,18.74560527942521],[-100.44023151999995,18.739723059425376],[-100.44428970999996,18.72311104942579],[-100.45037354999995,18.71604807942599],[-100.44989448999996,18.703619719426314],[-100.44713331999999,18.701575049426335],[-100.45447493999995,18.694417719426536],[-100.47338493999996,18.690928719426623],[-100.47833719999994,18.68686477942675],[-100.47777168,18.672983539427122],[-100.48841631999994,18.653191109427592],[-100.48702768999999,18.640351649427977],[-100.47639271999998,18.630089689428214],[-100.47428931999997,18.619216119428497],[-100.46193145999996,18.61855991942853],[-100.45763579999999,18.6223792894284],[-100.45140797999996,18.62392634942837],[-100.44650902999997,18.622465229428418],[-100.43683305999997,18.613716579428672],[-100.42973330999996,18.59927321942902],[-100.43693696999999,18.59647485942911],[-100.43559604999996,18.591999659429224],[-100.43701602999994,18.592875829429175],[-100.43685110999998,18.58524291942939],[-100.44105888999997,18.579399709429584],[-100.44080939999998,18.574422339429695],[-100.44349344999996,18.570993119429748],[-100.44271161999995,18.56713019942989],[-100.44936159999997,18.55656136943016],[-100.44822544999994,18.552236259430245],[-100.44608882999997,18.550448799430303],[-100.44663879999996,18.545662089430444],[-100.44332716999999,18.542667679430497],[-100.43488791999995,18.528808889430884],[-100.42909694999999,18.51004805943135],[-100.41136791999998,18.52073968943107],[-100.40591521999995,18.533549889430773],[-100.40315005999999,18.53397482943072],[-100.39595368999996,18.540520089430558],[-100.38879848,18.540176859430566],[-100.38237851999997,18.537343289430634],[-100.37370129,18.529113849430868],[-100.37319441899996,18.524134309430984],[-100.36200317899994,18.49684722943173],[-100.36749148899997,18.47538311943229],[-100.37739657999998,18.463479059432597],[-100.37756947999998,18.45963265943271],[-100.38029987999995,18.455661769432812],[-100.38535698,18.42652413943355],[-100.37411453999995,18.42298568943369],[-100.35944131999999,18.423461859433633],[-100.35203464999996,18.4143327694339],[-100.34614128999999,18.40031448943424],[-100.33153381999995,18.391435019434518],[-100.31958017999995,18.38064105943481],[-100.31563899999999,18.38139762043479],[-100.31396650899995,18.37739234043489],[-100.30375316899996,18.367017219435134],[-100.30130687999997,18.370469260435048],[-100.298198519,18.371644150435028],[-100.29746665,18.374392260434913],[-100.29332634899998,18.375296489434913],[-100.29197827999997,18.381605919434733],[-100.28820894999996,18.37989741943483],[-100.28579042899999,18.380584279434782],[-100.28383142999996,18.37786087943488],[-100.27877122999996,18.380791779434766],[-100.27697305,18.378565380434825],[-100.27668865999999,18.37208036943501],[-100.27089151899997,18.373732460434944],[-100.26787442899997,18.37945125943482],[-100.26884902899998,18.38312454943472],[-100.26725865999998,18.38577724943465],[-100.27061177899999,18.393681919434464],[-100.26949651999996,18.39990518043429],[-100.26758753899999,18.401420059434255],[-100.26630487999996,18.408474539434046],[-100.26377254899995,18.408514119434056],[-100.26558413899994,18.412178710433913],[-100.26114525899999,18.41285016943395],[-100.26375428899998,18.41383146043389],[-100.26296773999998,18.417782909433782],[-100.26042796999997,18.415559319433864],[-100.26033564999994,18.41802701943381],[-100.25902501999998,18.418353479433797],[-100.26065149,18.418342689433768],[-100.26114648999999,18.420693879433717],[-100.25811588,18.42554264943362],[-100.25951990999995,18.427432689433555],[-100.25729327999994,18.429010779433515],[-100.25351657999994,18.425751969433556],[-100.25049767899999,18.42668205043357],[-100.25004635,18.425329800433595],[-100.24828383,18.426762579433575],[-100.24946012,18.42469432043364],[-100.24723379899997,18.42152808943369],[-100.24722604999994,18.423173109433662],[-100.24582004899997,18.423873970433625],[-100.24556521899997,18.418719749433766],[-100.24373579999998,18.419139259433788],[-100.24416857999995,18.417892860433792],[-100.24217410899996,18.416536309433805],[-100.23987984999997,18.419485829433754],[-100.23809451999995,18.41836017943377],[-100.23879670999997,18.41650840043383],[-100.23639964899996,18.41677176943381],[-100.23529988899998,18.42242270943367],[-100.23801431999999,18.425218720433573],[-100.23426890999997,18.426179659433586],[-100.23396879999996,18.423715649433678],[-100.23336947999998,18.42819848043351],[-100.23125082999998,18.427338150433567],[-100.23153565999998,18.43193830943346],[-100.22702641999996,18.43085584943347],[-100.22753373999997,18.43535442043334],[-100.22441425899996,18.43412703043339],[-100.22410471999996,18.438186850433294],[-100.21820445899999,18.44062731943318],[-100.21707608899999,18.445923690433084],[-100.20871122999995,18.449159379432952],[-100.20832699999994,18.4440209494331],[-100.20967214999996,18.44198031943314],[-100.20865576999996,18.441229319433177],[-100.19919621999998,18.45193507943291],[-100.20013964999998,18.456694509432765],[-100.19773505999996,18.456575019432787],[-100.19635187999995,18.454656229432846],[-100.19503951999997,18.45675245943281],[-100.19168221999996,18.454852419432843],[-100.18573624999999,18.455107229432834],[-100.18805770999997,18.459091859432732],[-100.18653350999995,18.46001073943267],[-100.18492613999997,18.458313169432746],[-100.18063065999996,18.464091799432595],[-100.18023110999998,18.465798429432553],[-100.18236813999994,18.468121539432456],[-100.17198382999999,18.47151414943241],[-100.17420297999998,18.48168133943209],[-100.17167221999996,18.481057059432153],[-100.17037911999995,18.483422339432085],[-100.16941208999998,18.479070679432198],[-100.16533599999997,18.479713629432172],[-100.16692163,18.482005219432143],[-100.16432356999998,18.483062509432063],[-100.16617828999995,18.486500939431984],[-100.16325108999996,18.485604419432047],[-100.16199488999996,18.487723179431963],[-100.16083047999996,18.48583641943201],[-100.15892651999997,18.48835933943194],[-100.15754725999994,18.486810549431976],[-100.15612634999998,18.490144449431913],[-100.15930733999994,18.488840119431966],[-100.16012807999995,18.490489999431865],[-100.15876999999995,18.491819619431862],[-100.15169875,18.491425849431856],[-100.15082471999995,18.488197799431923],[-100.14681961999999,18.489879289431887],[-100.14559150999997,18.488021919431954],[-100.14519037999997,18.49804313943169],[-100.14216151999995,18.502539059431577],[-100.13831422999999,18.502418079431564],[-100.13618333999995,18.50612407943148],[-100.13355522999996,18.506309249431492],[-100.13217454999995,18.499963979431662],[-100.13028898,18.503227029431557],[-100.12696342,18.502643229431563],[-100.12801217999998,18.50780308943142],[-100.12532877999996,18.508088029431445],[-100.12262813999996,18.505577859431515],[-100.11851553999998,18.505962139431496],[-100.12245779999995,18.510181799431376],[-100.12149502999995,18.51158651943131],[-100.11864376999995,18.50995585943138],[-100.11966522999995,18.511643059431318],[-100.11797545999998,18.513711219431286],[-100.12085376999994,18.51365922943126],[-100.12003048999998,18.516203709431238],[-100.12267728999996,18.516494549431226],[-100.10450951999997,18.52401221943099],[-100.08995113999998,18.52216077943104],[-100.08533516999996,18.53861551943064],[-100.08180473999994,18.540409519430547],[-100.07523570999996,18.551446349430286],[-100.07294305,18.560297939430058],[-100.06888633999996,18.564440649429947],[-100.07073150999997,18.58281633942943],[-100.08241382999995,18.587949829429355],[-100.07175497999998,18.59369148942916],[-100.06592782999996,18.590518569429246],[-100.06359593999997,18.585503919429414],[-100.05161188999996,18.590969999429223],[-100.05140916999994,18.5931579794292],[-100.04562413999997,18.593533769429154],[-100.04033499999997,18.597377969429054],[-100.03757927999999,18.5965899394291],[-100.03356964999995,18.60617347942884],[-100.02496362999995,18.606866749428836],[-100.01513265999995,18.599677199429],[-100.01474585999995,18.596307879429098],[-100.01061414999998,18.590352089429285],[-100.00518864999998,18.585867949429353],[-99.99930084999994,18.58357836942944],[-100.00364931999998,18.56749874942984],[-100.00160336999994,18.56393005942998],[-99.99821850999996,18.56361385942995],[-99.99369321999995,18.566191259429885],[-99.99226528999998,18.56943396942979],[-99.98969490999997,18.569702149429826],[-99.98077688999997,18.566000429429877],[-99.97608801999996,18.561450909430054],[-99.96504102999997,18.556172199430165],[-99.96167225999996,18.552978909430227],[-99.96041681999999,18.555407599430154],[-99.96195507999995,18.556121219430132],[-99.95990198099997,18.560436077430065],[-99.96101973999998,18.563726059429936],[-99.95792294999995,18.564855139429962],[-99.96057457999996,18.567338689429864],[-99.95691551999994,18.56937837942981],[-99.95615999999995,18.572459799429737],[-99.95296054999994,18.57250516942974],[-99.95386873999996,18.574963259429683],[-99.95157873999995,18.578359429429565],[-99.94889582999997,18.578750629429578],[-99.95097139999996,18.58040081942949],[-99.94729231999999,18.58299074942943],[-99.94836479999998,18.58406414942945],[-99.94716185,18.58794056942933],[-99.94452342999995,18.587685459429323],[-99.94260634999995,18.590024569429243],[-99.94094964999995,18.58921361942931],[-99.93905722999995,18.592009139429244],[-99.93650390999994,18.59104031942925],[-99.93434639999998,18.59334416942914],[-99.93334348999998,18.59229888942922],[-99.92714548,18.59477265942915],[-99.92212636999994,18.598565549429043],[-99.91666421999997,18.597881769429083],[-99.90700144999994,18.60182096942898],[-99.90637234999997,18.605130419428846],[-99.89621076999998,18.610095509428763],[-99.88846284999994,18.618663049428534],[-99.88344162,18.619149579428512],[-99.88175327999994,18.617535429428536],[-99.87187331999996,18.616497479428606],[-99.86893924999998,18.61469821942861],[-99.86374139999998,18.61786202942851],[-99.86329981999995,18.614255909428646],[-99.85814941999998,18.612272079428664],[-99.85140416999997,18.606256779428822],[-99.84761807999996,18.60549039942888],[-99.84471991999999,18.608525089428795],[-99.84788908999998,18.611258539428714],[-99.84759653999998,18.612734909428656],[-99.84914005999998,18.612549909428672],[-99.84835951999997,18.620258829428497],[-99.84299176999998,18.62125379942845],[-99.84371864999997,18.624883689428355],[-99.83787208999998,18.62347487942841],[-99.83048054999995,18.627569089428302],[-99.82769151999997,18.624060649428372],[-99.82521365999997,18.6263381394283],[-99.82088099999999,18.62499468942836],[-99.81752377999999,18.626322539428323],[-99.81655874999997,18.62500342942835],[-99.81324285999995,18.62981730942825],[-99.81366947999999,18.63478061942812],[-99.81118023,18.63646733942802],[-99.81251751999997,18.640857909427904],[-99.80697839999999,18.636272949428044],[-99.80469799999999,18.637051149428032],[-99.80266921999998,18.635678029428092],[-99.80073705999997,18.631844769428167],[-99.80106885999999,18.634007939428123],[-99.79861696999996,18.631088029428206],[-99.79751217999996,18.633775309428103],[-99.79423179999998,18.629879819428222],[-99.79300474999997,18.63065762942818],[-99.78331554999994,18.64236634942788],[-99.78457830999997,18.651088939427645],[-99.78032270999996,18.654089769427586],[-99.78426791999999,18.658850229427458],[-99.78430557999997,18.66233559942739],[-99.78207027999999,18.66673228942723],[-99.77434733999996,18.67458636942705],[-99.77229097899999,18.68070174042691],[-99.77242274999998,18.686197400426774],[-99.7675698,18.688456509426675],[-99.76311530999999,18.69365331042656],[-99.75992317899995,18.693949889426552],[-99.75490033999995,18.69738709042646],[-99.75482729,18.70173943042637],[-99.75758794999997,18.704184019426293],[-99.75829576999996,18.711275579426104],[-99.753356549,18.717421200425914],[-99.75392821899999,18.71881702042592],[-99.75026487999997,18.719833829425852],[-99.74787496999996,18.723238079425776],[-99.74219604899997,18.725885290425722],[-99.74121488999998,18.728515139425664],[-99.73909764999996,18.72827910942568],[-99.74106482999997,18.731138179425596],[-99.73964668999997,18.73461954942548],[-99.74068031899998,18.73649773942545],[-99.737031399,18.739832510425337],[-99.72471159899999,18.738151020425367],[-99.71815985899997,18.734440480425473],[-99.71056147999997,18.736430220425422],[-99.70928247999996,18.73505418042549],[-99.70472864899996,18.73493251942545],[-99.70044367899999,18.732691570425526],[-99.69842116899997,18.729735109425587],[-99.69892710899995,18.727629350425694],[-99.69317805999998,18.721232719425824],[-99.68340957,18.717975920425935],[-99.67956404999997,18.711333290426122],[-99.67197237999996,18.713503939426058],[-99.67199617899996,18.717287319425918],[-99.67748941899998,18.726333229425677],[-99.68077544999994,18.7274296294257],[-99.681930149,18.731541369425575],[-99.68418184899997,18.733182540425545],[-99.68187108999996,18.735951340425434],[-99.68454574999998,18.735751080425445],[-99.68758951899999,18.742706820425294],[-99.69206530899999,18.745356709425216],[-99.69213017999999,18.74754588042516],[-99.69789647899995,18.753055719425035],[-99.70166492,18.76038911042481],[-99.70447441899995,18.76163099942475],[-99.70613350999997,18.76650811042467],[-99.70915788899998,18.768838880424568],[-99.69473545999995,18.776772279424378],[-99.69666554999998,18.778783089424323],[-99.69699519999995,18.782557199424225],[-99.69566891999995,18.783224429424237],[-99.69702896999998,18.783057379424225],[-99.69721550999998,18.78633610942412],[-99.69204399999995,18.784265429424206],[-99.69030077999997,18.78137691942428],[-99.68834673999999,18.782323619424254],[-99.68373479999998,18.779433399424335],[-99.68314033999997,18.780789649424264],[-99.67856917999997,18.77863825942433],[-99.67532122999997,18.77925301942432],[-99.66489816999996,18.77168241942451],[-99.66145586,18.771305459424546],[-99.66031659999999,18.765238619424682],[-99.65731753999995,18.76269853942473],[-99.65610076999998,18.757575679424896],[-99.64862322999996,18.748027049425165],[-99.64874044999999,18.743186179425276],[-99.64352427999995,18.738508419425404],[-99.63832102999999,18.737328139425408],[-99.63656650999997,18.73263064942552],[-99.63688332,18.72663845942571],[-99.63090774999995,18.720552229425863],[-99.62373147999995,18.722510219425814],[-99.62112074999999,18.725932779425715],[-99.62091882999995,18.734899279425463],[-99.62286605999999,18.739838909425362],[-99.61877987999998,18.741256309425292],[-99.61429805999995,18.73612107942542],[-99.61263093999997,18.73896194942535],[-99.60574101999998,18.740627619425336],[-99.60110854999999,18.738995659425374],[-99.58990891999998,18.739307219425378],[-99.57972024999998,18.73517862942549],[-99.58169085999998,18.72174757942583],[-99.58033407999996,18.7184474494259],[-99.57632888999997,18.716162309425993],[-99.57614944999996,18.71209839942609],[-99.57296882999998,18.71166250942608],[-99.56978154999996,18.705510939426265],[-99.56232397999999,18.70120451942634],[-99.55966387999996,18.70179767942632],[-99.55534456999999,18.697761119426456],[-99.55401868999996,18.698787849426406],[-99.55110773999996,18.697391489426433],[-99.54566073999996,18.697757939426427],[-99.54449767999995,18.695357569426523],[-99.53643491999999,18.69375110942656],[-99.53339699999998,18.694186829426524],[-99.53238334999998,18.696766459426478],[-99.52690678,18.69968387942641],[-99.52234290999998,18.707430599426214],[-99.51403045999997,18.708038519426182],[-99.50452976999998,18.711703419426076],[-99.49387021999998,18.72082108942586],[-99.48782548999999,18.728068879425628],[-99.48825945999995,18.7311338794256],[-99.48419944999996,18.732555219425546],[-99.4672442,18.751892879425053],[-99.46497077999999,18.7601362904248],[-99.46552757999996,18.759090520424863],[-99.46619916999998,18.760980889424786],[-99.463318739,18.76718653942465],[-99.45899756999997,18.769974637424582],[-99.45569765999994,18.769841919424543],[-99.45588282999995,18.771709449424517],[-99.45097173899995,18.772519949424503],[-99.42588876999999,18.826432970423067],[-99.43010702,18.832612460422936],[-99.43219570999997,18.85351797942238],[-99.43225919899999,18.857813690422265],[-99.42443410999994,18.860279980422234],[-99.42617867999998,18.864285749422073],[-99.43099890999999,18.86574712042204],[-99.42935451999996,18.877569289421768],[-99.42052364899996,18.87982524942172],[-99.41604397899994,18.87796163042176],[-99.41095701899997,18.878183860421707],[-99.40665362899996,18.89518775042129],[-99.373128319,18.898629800421187],[-99.36703682999996,18.893998779421338],[-99.35840154899995,18.906476020421014],[-99.34890662899994,18.91645058042074],[-99.34420110899998,18.91866742042071],[-99.34275179899998,18.92392272042055],[-99.34201176999996,18.922517849420608],[-99.33914533899998,18.926532510420497],[-99.33790484899998,18.93239908942032],[-99.33009884899998,18.936696629420204],[-99.32461984899999,18.937406369420227],[-99.32156954899996,18.940289779420134],[-99.32099576899999,18.943224719420048],[-99.31716279899996,18.94000013942013],[-99.31702533899994,18.94311459942006],[-99.31303622899998,18.948117350419942],[-99.31059777199994,18.956853510419716],[-99.30871639899999,18.95879774041966],[-99.30998316799997,18.962414617419523],[-99.31105382899996,18.991653690418804],[-99.30846782899994,18.994005490418736],[-99.31406991899998,19.000554570418565],[-99.31967044899996,19.011271689418287],[-99.31857234899996,19.020305460418072],[-99.31175781999998,19.024650079417956],[-99.318906369,19.031068709417784],[-99.31749171899997,19.04012584941752],[-99.30857024899996,19.040301349417526],[-99.31616944899997,19.048787219417324],[-99.31769644899998,19.0533853694172],[-99.31909128899999,19.060644879416994],[-99.317189059,19.081867199416433],[-99.31831897899998,19.087416829416295],[-99.31374411899998,19.098218879416024],[-99.29507790999997,19.122931509415395],[-99.27869521999999,19.13170171941513],[-99.28760524999996,19.146600569414762],[-99.30276264999999,19.19085508941365],[-99.30713554,19.21372845941302],[-99.31624974999994,19.22150167941286],[-99.31534334999998,19.229196489412637],[-99.32129650999997,19.23266547941254],[-99.3267196,19.23256556941258],[-99.33082147999995,19.237935289412416],[-99.34234096999995,19.24112239941233],[-99.33985722999995,19.259652909411862],[-99.33762984999998,19.264039969411748],[-99.33915988999996,19.26769714941165],[-99.3446866,19.269475229411622],[-99.34821370999998,19.2739609494115],[-99.36192190999998,19.275741859411422],[-99.36492419999996,19.2777692494114],[-99.35358134999996,19.291934309411012],[-99.35453602999996,19.29328801941096],[-99.35149208999997,19.29415237941098],[-99.35349777999994,19.29740184941086],[-99.34998526,19.29683717941091],[-99.35627424999996,19.30201451941077],[-99.35660784999999,19.306675799410637],[-99.33384207999995,19.330590399410042],[-99.32827225999996,19.345202429409618],[-99.32848441999995,19.35309237940947],[-99.32639199899995,19.35367163040943],[-99.32328581899998,19.35833765940934],[-99.31813401899997,19.35815641940932],[-99.32069894999995,19.360443799409243],[-99.31954277999996,19.363618049409194],[-99.31686154999994,19.366306519409086],[-99.31538974999997,19.365888349409108],[-99.31308764999994,19.370448739408975],[-99.30776485899997,19.371561169408988],[-99.30348342999999,19.37783002940881],[-99.30130904999999,19.377083829408843],[-99.30123156999997,19.369700449409006],[-99.29901978,19.367515259409103],[-99.29791713899999,19.36932494940905],[-99.29558728999996,19.369077289409045],[-99.29061393999996,19.375022539408874],[-99.28569702999994,19.376439109408835],[-99.28283047999999,19.381404000408747],[-99.27368510999997,19.387036719408542],[-99.27243248999999,19.389678419408508],[-99.26171793299994,19.39598893540833],[-99.25813004999998,19.404763480408107],[-99.25697934999994,19.400431690408233],[-99.25603810899997,19.403561489408183],[-99.24831196999997,19.408648579408005],[-99.23730471,19.412359619407955],[-99.23084345899998,19.42170688940769],[-99.22546287999995,19.42658732040757],[-99.22232828999995,19.426945620407572],[-99.22337833999997,19.429505059407482],[-99.22681802899996,19.431338249407457],[-99.22617134899997,19.43396534040735],[-99.229627479,19.437374663407294],[-99.21813294999998,19.444111830407106],[-99.22014871999994,19.44611634940708],[-99.21997277999998,19.452880139406883],[-99.21528511999998,19.456223859406776],[-99.21153665999998,19.467993349406477],[-99.20886264999996,19.47008231940647],[-99.20717364999997,19.469568119406482],[-99.20682496999996,19.471215079406406],[-99.22111506,19.475068479406335],[-99.20925753999995,19.512409019405364],[-99.20467164999998,19.515135969405314],[-99.18229079999999,19.50746979940547],[-99.17705041999994,19.506194909405504],[-99.17304284999994,19.50858670940544],[-99.15718110999995,19.50284888940562],[-99.16297519999995,19.51796148940523],[-99.17418228999998,19.52346561940505],[-99.17136727999997,19.52718851940497],[-99.17536094999997,19.530094619404906],[-99.17704573999998,19.529328479404942],[-99.17601145999998,19.53203604940486],[-99.15915864999994,19.526903349405],[-99.15679811999998,19.52809076940498],[-99.15859872,19.528857859404965],[-99.15584724999997,19.532440479404848],[-99.15851347999995,19.533921029404805],[-99.15108488999994,19.544845709404548],[-99.16089999999997,19.54926087940445],[-99.15756896999994,19.555047399404256],[-99.15809551899999,19.55735133940419],[-99.15423821899998,19.561376060404093],[-99.15090062899998,19.56052034940413],[-99.14918591999998,19.562012849404073],[-99.14599554999995,19.56590128940401],[-99.14476044999998,19.57082736940389],[-99.13956813999994,19.57539504940376],[-99.13790437999997,19.581134709403624],[-99.13376084999999,19.586243629403494],[-99.12699259999995,19.5885076894034],[-99.12370608999998,19.59275727940333],[-99.11788785,19.59059230940335],[-99.11859756999998,19.584461719403507],[-99.11466171999997,19.57979630940366],[-99.11181804999995,19.56872692040394],[-99.10809721999999,19.564888490404005],[-99.13057459999999,19.536091289404766],[-99.12736765999995,19.535083909404765],[-99.12818362999997,19.525881289405003],[-99.12589848999994,19.521208179405125],[-99.11440710999995,19.511060819405415],[-99.10763551999997,19.511026549405404],[-99.10730428999995,19.509684999405422],[-99.09739951999995,19.512631249405338],[-99.06386253999996,19.49877871040572],[-99.06799134,19.489083219405966],[-99.06485288999994,19.481835969406173],[-99.06327781999994,19.481267649406178],[-99.06336101999995,19.47860927940624],[-99.04645906599995,19.442364561407132],[-99.05519642999997,19.42427336940761],[-99.05813571999994,19.400692149408233],[-99.01957204999997,19.383256349408693],[-98.99193917799994,19.36759870940906],[-98.99455665899995,19.358141320409334],[-98.97879331999998,19.34328927940967],[-98.97432514899998,19.337026569409844],[-98.95790262899999,19.323227620410222],[-98.96296582899998,19.316727380410413],[-98.96477605999998,19.306880770410658],[-98.96722392399994,19.305969335410648],[-98.97653062999996,19.253125379412005],[-98.96598687999996,19.249940999412093],[-98.96858650999998,19.232217949412572],[-98.94030281999994,19.223239649412783],[-98.94255322,19.215614859413012],[-98.95108553999997,19.21818370941294],[-98.95394833999995,19.214645849413024],[-98.96269404999998,19.214142629413004],[-98.96852791999999,19.210571080413136],[-98.96682650999999,19.208961339413147],[-98.96722873999995,19.206251089413204],[-98.96967856999999,19.20425290941327],[-98.96770188999996,19.203128849413314],[-98.96702582999997,19.199909859413395],[-98.96769388999996,19.18974307941363],[-98.95984905999995,19.179167879413907],[-98.95617467999995,19.176763059413986],[-98.95238564999994,19.168637619414184],[-98.96736639999995,19.16443868941432],[-98.95462631,19.149524349414683],[-98.96645593999995,19.14387050941485],[-98.95750747999995,19.122383219415433],[-98.95906350999998,19.10427794941586],[-98.96572147999996,19.08586116941634],[-98.97899539999997,19.074455949416667],[-98.96922514,19.06590377941686],[-98.95777854999994,19.060294489417],[-98.94434754999997,19.069734419416744],[-98.91559816999995,19.064057279416907],[-98.91519408999994,19.060263939416984],[-98.91706059999996,19.059424949417032],[-98.90338977999994,19.038482889417597],[-98.88816679999998,19.0369198894176],[-98.87895562999995,19.028108339417866],[-98.87102642999999,19.025393149417933],[-98.87405916999995,19.010403849418303],[-98.86889164999997,19.00570473941843],[-98.86809853999995,19.00246888941849],[-98.87000551999996,18.990510399418827],[-98.85733334999998,18.97459190941925],[-98.85793508999996,18.970404339419364],[-98.86000328999995,18.968168539419377],[-98.85947964999998,18.964777939419466],[-98.84516701999996,18.955143369419723],[-98.84071910999995,18.95566624941971],[-98.83589087999997,18.950151769419875],[-98.83055073999998,18.955255369419717],[-98.82645054999995,18.956690879419707],[-98.82145542999997,18.952800749419797],[-98.82077353999995,18.947236169419938],[-98.81685267999997,18.943262539420036],[-98.80317537999998,18.94156530942008],[-98.79501625899996,18.93845441942015],[-98.79208027999994,18.935339879420276],[-98.78611494999996,18.94290094942004],[-98.78530959999995,18.9411593094201],[-98.78089230799999,18.939842045420107],[-98.77498450699994,18.943537690420065],[-98.77277643099997,18.94190410842009],[-98.76685482999994,18.94272617942003],[-98.76305969099997,18.940397819420113],[-98.75642594899995,18.940923779420114],[-98.75555217899996,18.942828418420024],[-98.75304255099998,18.942257648420078],[-98.74749956999995,18.944337049420028],[-98.73710122999995,18.943933649420053],[-98.73335187999999,18.945712119419987],[-98.71403711,18.94303233942006],[-98.70777950999998,18.950644259419864],[-98.70145337999999,18.954803739419734],[-98.70056096999997,18.95927062941963],[-98.69635176999998,18.964206909419488],[-98.69020971999998,18.96658831941942],[-98.69093074999995,18.96757311941942],[-98.66447447999997,19.00355685941848],[-98.65220273999995,19.00599079941842],[-98.62927385999996,19.017086779418136],[-98.61987462999997,19.03505956941765],[-98.62978821999997,19.043602979417443],[-98.62696911999996,19.04982877941727],[-98.62751461999994,19.054364689417167],[-98.63110261999998,19.059646539417045],[-98.62347051999997,19.06638176941687],[-98.62755677999998,19.06938924941675],[-98.63023184999997,19.0677941194168],[-98.63929816999996,19.077440489416592],[-98.63108407999994,19.087956859416316],[-98.62589248999996,19.08937645941624],[-98.62613241999999,19.092189539416175],[-98.63246051999994,19.09871381941602],[-98.63255931999998,19.100606909415973],[-98.63075436999998,19.102385219415897],[-98.62880304999999,19.116269259415542],[-98.62634324999999,19.117183829415524],[-98.62548934999997,19.11957197941546],[-98.62696799999998,19.124763479415357],[-98.63964042999999,19.123214489415396],[-98.64065705999998,19.125455739415337],[-98.63891617999998,19.150599149414678],[-98.63533871,19.147032339414782],[-98.64293041999997,19.17568617941404],[-98.64702237999995,19.184827889413793],[-98.64288379999995,19.22066870941285],[-98.64357119999994,19.23872985941238],[-98.64080611999998,19.24341373941228],[-98.63269365999997,19.249789649412072],[-98.63229459999997,19.25334164941201],[-98.62752487999995,19.257759169411894],[-98.66347588999997,19.324792379410205],[-98.66058796999994,19.35173637940946],[-98.65494902999995,19.349299689409555],[-98.64447925999997,19.351999979409502],[-98.64430567999995,19.358231459409332],[-98.63965196999999,19.356874339409348],[-98.63807977999994,19.35891099940928],[-98.64039591999995,19.364716229409147],[-98.65058557999998,19.36464762940914],[-98.65554270999996,19.373452339408903],[-98.65812962999996,19.382708539408707],[-98.65642153999994,19.386029969408597],[-98.65713702999994,19.397078199408337],[-98.66284794999997,19.402998249408164],[-98.66003199999996,19.404723739408137],[-98.65857734999999,19.409371579407985],[-98.66176327999996,19.41291108940788],[-98.65634848999997,19.4220925694077],[-98.65664409,19.425979369407575],[-98.66017836999998,19.43209356940744],[-98.64875749,19.431593149407412],[-98.65020316999995,19.43463884940736],[-98.64122901999997,19.427058019407557],[-98.63894074999997,19.43010697940748],[-98.63707190999997,19.42596714940761],[-98.63482204999997,19.431241879407466],[-98.66143519999997,19.45809034940679],[-98.65322654999996,19.465986229406553],[-98.65434736899994,19.4710620794064],[-98.66102185899996,19.478433119406212],[-98.66039770899994,19.485502459406078],[-98.67486344899999,19.49804353940571],[-98.67817088899994,19.51209837940538],[-98.68191239899994,19.51801070940522],[-98.70002110899999,19.531311769404887],[-98.70234216999997,19.540268259404655],[-98.70161076899997,19.545813629404517],[-98.70839857899995,19.547599689404446],[-98.70546288899999,19.552477029404322],[-98.70813173899995,19.554805569404277],[-98.70604428899999,19.559336259404184],[-98.703841739,19.559091599404162],[-98.70446353899997,19.561323419404122],[-98.69950685899994,19.56715064940395],[-98.70200894899995,19.565262419404036],[-98.70126827899998,19.570944249403837],[-98.69480682899997,19.570641919403904],[-98.69563721899999,19.572450199403836],[-98.69326710899998,19.576077459403713],[-98.68911016899995,19.576859429403733],[-98.69115391899999,19.579433859403643],[-98.69124122899996,19.583007339403547],[-98.69300661899996,19.58366353940353],[-98.69243199899996,19.585879489403453],[-98.68151245899998,19.587920219403436],[-98.68137994999995,19.59828493940316],[-98.67818357,19.599970889403146],[-98.67008462999998,19.59848304940314],[-98.66622965999996,19.60577794940299],[-98.66174659999996,19.61011299940289],[-98.66382604999995,19.61505331940276],[-98.66867648999995,19.619175289402634],[-98.67054910999997,19.624827919402474],[-98.67239571999995,19.625147569402458],[-98.67203664999994,19.636729479402184],[-98.66763139999995,19.644355619401995],[-98.67041422999995,19.651222289401844],[-98.67005481999996,19.658676139401646],[-98.66822856999994,19.658504309401653],[-98.66643597999997,19.66226787940155],[-98.66549588999999,19.659789279401583],[-98.66536248999995,19.66160828940156],[-98.66474333999999,19.660729619401568],[-98.66435701999997,19.65703244940165],[-98.65812101999995,19.65396741940176],[-98.65554582999994,19.65047225940186],[-98.65310665999999,19.654314999401745],[-98.64381413999998,19.648837799401857],[-98.63494913999996,19.655537859401697],[-98.62949489,19.656736029401678],[-98.62444870999997,19.655837829401705],[-98.61967056999998,19.661163919401552],[-98.62332062999997,19.663451079401533],[-98.62791537,19.66353507940149],[-98.63002716999995,19.667310309401422],[-98.63407924999997,19.668072709401393],[-98.63549351999995,19.67076534940133],[-98.63792954999998,19.668973249401343],[-98.63989708999999,19.67108310940131],[-98.63701167999994,19.674867909401208],[-98.63223710999996,19.674526349401244],[-98.63010693999996,19.679025739401098],[-98.62937253999996,19.687275799400926],[-98.62511027999994,19.691374629400777],[-98.62391539999999,19.696408049400677],[-98.63079324999995,19.704704419400453],[-98.62943356999996,19.709720849400338],[-98.63247573999996,19.713292749400246],[-98.63002634999998,19.716104449400166],[-98.63346157999997,19.71496451940016],[-98.63085373999996,19.717719399400153],[-98.63292433999999,19.72223585940003],[-98.62763636999995,19.72182159940002],[-98.62693237999997,19.725647089399928],[-98.62470304999995,19.727424489399866],[-98.62377969,19.725574339399913],[-98.61589902999998,19.729482949399813],[-98.60810170999999,19.725075029399918],[-98.60456143,19.73293930939975],[-98.60321305999999,19.732646879399763],[-98.60208937999995,19.756150769399124],[-98.59686665999999,19.765839749398914],[-98.60059801999995,19.76492277939894],[-98.59942510999997,19.768229139398866],[-98.61166367999999,19.774128949398673],[-98.60960391999998,19.77710891939861],[-98.61341219999998,19.781672719398525],[-98.61223370999994,19.786368419398357],[-98.61747561999995,19.788051219398344],[-98.62526104999995,19.785182519398408],[-98.62356191999999,19.793888689398205],[-98.63255816999998,19.796433169398128],[-98.63878784999997,19.800769629398005],[-98.63797544999996,19.80757624939786],[-98.63990310999998,19.811964449397742],[-98.64433637999998,19.81443794939769],[-98.64369884999998,19.8175225093976],[-98.64732676999996,19.818381309397584],[-98.64699316999997,19.82088153939753],[-98.65545582999994,19.827550509397316],[-98.65461090999999,19.828101199397317],[-98.66081485999997,19.835031419397158],[-98.66522996999998,19.83538890939715],[-98.67479217999995,19.832396199397223],[-98.67247717999999,19.816723379397605],[-98.67587541999995,19.813184349397684],[-98.67900019999996,19.814285429397653],[-98.69764124999995,19.832114819397248],[-98.67183973999994,19.853659139396676],[-98.67265891999995,19.86283461939645],[-98.68084464999998,19.860651479396505],[-98.68536754999997,19.850548969396737],[-98.68912830999996,19.851285689396754],[-98.69912665,19.85841985939653],[-98.70041364999997,19.8565732493966],[-98.70275547999995,19.85860101939653],[-98.70098794999997,19.85606337939659],[-98.70354102999994,19.857356289396577],[-98.70459934999997,19.855581169396626],[-98.70341925999998,19.854539089396663],[-98.70812779999994,19.855751679396587],[-98.70925014999996,19.853781229396656],[-98.71125593999994,19.85510427939663],[-98.71282065999999,19.853801919396645],[-98.71854336999998,19.862337309396448],[-98.72770842999995,19.86397121939641],[-98.73509348999995,19.867405849396352],[-98.73884431999994,19.86723497939632],[-98.73917285,19.87255950939617],[-98.75235628999997,19.876981709396077],[-98.76145096999994,19.874902379396133],[-98.78057411999998,19.883540549395942],[-98.78750513999995,19.878920949396043],[-98.79392681999997,19.872084089396207],[-98.78949670999998,19.86854268939628],[-98.79106421999995,19.865144019396386],[-98.78972153999996,19.86188684939648],[-98.79517247999996,19.856414689396622],[-98.80619936999996,19.864586259396415],[-98.81367557999995,19.865871739396358],[-98.81623367999998,19.868969379396308],[-98.81713524999998,19.86728414939633],[-98.83818213999996,19.87942053939604],[-98.83665425999999,19.881219519395987],[-98.84403367999994,19.881988259395982],[-98.84095154999994,19.892308859395722],[-98.85583001999998,19.90428014939537],[-98.86589593999997,19.892586889395712],[-98.88316207999999,19.901528749395474],[-98.88259862999996,19.9000974793955],[-98.88768591999997,19.89909552039552],[-98.89206056899997,19.894376109395647],[-98.89588993999996,19.895707570395615],[-98.89719514999996,19.894132720395657],[-98.89519622999995,19.893347170395693],[-98.89778887899998,19.889870920395783],[-98.89571239999998,19.886432619395844],[-98.89826970999997,19.88360534039594],[-98.90411751999994,19.88757994939579],[-98.90774673899995,19.883939140395903],[-98.90920373999995,19.87987206039604],[-98.91182479999999,19.881017260396],[-98.90972217899997,19.878970089396038],[-98.91274047899998,19.879155859396004],[-98.91362141999997,19.87736925939605],[-98.91109417899997,19.876290999396097],[-98.91385071899998,19.876924310396074],[-98.91444734999999,19.875718820396138],[-98.91244214999995,19.874800509396152],[-98.91484087999999,19.874883630396127],[-98.91312773899995,19.87353993939617],[-98.91394842999995,19.872350460396206],[-98.91573044999996,19.873115110396192],[-98.91460410999997,19.871440420396222],[-98.91748097999995,19.869233179396268],[-98.90520321999999,19.86354379939644],[-98.90878877899996,19.857124970396608],[-98.902977939,19.859305510396545],[-98.90785451999996,19.849871600396796],[-98.90601608999998,19.845129539396915],[-98.91540541899998,19.841876450396995],[-98.91632319999997,19.839332280397038],[-98.927631519,19.843392680396946],[-98.94548939999999,19.80380177939797],[-98.94754742999999,19.80453708139789],[-98.95004239899998,19.79964128939806],[-98.95539944999996,19.79883031939805],[-98.95468304999999,19.800543089398058],[-98.96050831899998,19.80311330939798],[-98.96091705699996,19.8050943703979],[-99.00820071899994,19.828402060397337],[-99.00015170999995,19.834179180397147],[-99.01561793999997,19.859386349396495],[-99.01703177999997,19.85970330939651],[-99.01683048999996,19.86145256939647],[-99.02039121999996,19.864106769396393],[-99.02058114999994,19.86768265939634],[-98.966005969,19.891656800395733],[-98.95597545399995,19.88516672939586],[-98.95354693899998,19.888539889395798],[-98.96144639999994,19.89364070939567],[-98.955058749,19.896396480395616],[-98.95682916899996,19.905600830395386],[-98.95272259999996,19.90671457039535],[-98.95611242899997,19.928183550394802],[-98.96044456999994,19.92505810939488],[-98.96232616899995,19.926396140394836],[-98.96182585999998,19.929175079394756],[-98.96610562999997,19.929840710394746],[-98.96833301899994,19.93380908039464],[-98.96996642899997,19.932698909394684],[-98.97250559999998,19.93590722039457],[-98.98316474999996,19.938612830394533],[-98.98469074999997,19.946318019394322],[-98.99977850899995,19.941825019394457],[-98.99562281899996,19.956891720394033],[-98.98117571999995,19.9547213993941],[-98.96621945999999,19.973995079393646],[-98.95771396899995,19.975860170393553],[-98.94854934999995,19.974018459393605],[-98.94825474899994,19.975265880393582],[-98.94474247899997,19.975051649393617],[-98.94273048999999,19.979073089393488],[-98.94375911899999,19.98497797039333],[-98.94213154999996,20.00062319939297],[-98.94748725899997,20.008991780392773],[-98.94427981899997,20.017292200392514],[-98.94665464899998,20.027475090392272],[-98.94793677899997,20.029567889392244],[-98.95090601999999,20.029886020392205],[-98.95183681899995,20.028611170392224],[-98.95428247999997,20.031128080392218],[-98.95525064999998,20.027833490392243],[-98.96058036999995,20.02875208939226],[-98.96024050899996,20.03162300039219],[-98.96397656999996,20.031237690392192],[-98.95987796999998,20.032600689392147],[-98.95868768999998,20.039565400391975],[-98.96046104999999,20.039398509391997],[-98.96364342,20.04326260039187],[-98.96586579899999,20.04243802939188],[-98.97001939899997,20.04540611939183],[-98.97576667899995,20.05244265939166],[-98.98685257899996,20.061209859391447],[-98.98949324999997,20.06499434939135],[-98.98897788999996,20.06826192039125],[-98.99256270999997,20.06574726039133],[-98.99919804899997,20.054166200391606],[-99.00115977899999,20.052394369391667],[-99.00564428999996,20.05320450939163],[-99.01049753899997,20.035479370392093],[-99.00782904999994,20.03386562039215],[-99.007859619,20.031130079392163],[-99.00593561899996,20.030933120392177],[-99.00476910999998,20.032673219392144],[-99.00526679999996,20.028944050392237],[-99.01328074999999,20.010925230392694],[-99.01333845999994,19.997653139393055],[-99.01796782999998,19.99553534039309],[-99.01897637999998,19.99375548939314],[-99.01790022999995,19.991478849393218],[-99.01862353999996,19.989794420393235],[-99.02034648999995,19.990561620393205],[-99.02155470999998,19.987005230393315],[-99.01514001899994,19.98397923039336],[-99.01320557899999,19.98506585039335],[-99.01309493899998,19.985013180393356],[-99.01396994999999,19.98341557039337],[-99.01125636899998,19.982122380393434],[-99.01385884999998,19.981305249393447],[-99.01423779899996,19.977723649393514],[-99.00871493999995,19.977226480393558],[-99.00754749,19.979163340393516],[-99.00412010899998,19.964952110393863],[-99.02765581999995,19.964558620393852],[-99.03451296899999,19.971771780393663],[-99.03277759999999,19.990634000393204],[-99.03068742899995,19.990545150393203],[-99.02985914999994,19.993006749393157],[-99.03193745899995,19.99663414939303],[-99.02742291,20.00164818039294],[-99.03083345099998,20.002912981392903],[-99.03134288999996,20.014853630392597],[-99.03987899899994,20.012798199392677],[-99.04943030999999,20.00769711039276],[-99.05090034999995,20.001626830392954],[-99.05221157899997,20.00134083039293],[-99.04946350999995,19.999877570393],[-99.04947288899996,19.99835616939299],[-99.04845382999997,19.99933952039296],[-99.04764814899995,19.995160279393097],[-99.05850077899998,19.98840477039325],[-99.05610070899996,19.984668369393372],[-99.05957573999997,19.973995819393615],[-99.06756047999995,19.98498939939338],[-99.06384085899998,20.01419435039263],[-99.06832041999996,20.018025320392503],[-99.07832394899998,20.018299600392485],[-99.07967267899996,20.026212490392286],[-99.08544996899998,20.032487920392146],[-99.08935131899995,20.034348800392134],[-99.09580482899997,20.030639680392177],[-99.10170457899996,20.032033910392155],[-99.11251928899998,20.029204220392227],[-99.12590924899996,20.031713940392205],[-99.13521381899996,20.02708649039227],[-99.13828864899996,20.02818282039225],[-99.14451242999998,20.026178139392336],[-99.14743347999996,20.027757849392287],[-99.15506042999999,20.025926109392323],[-99.15860311999997,20.027187709392308],[-99.15932082999996,20.017028119392577],[-99.16136616999995,20.012426119392654],[-99.16737417999998,20.012873489392653],[-99.16787277999998,20.00351276939288],[-99.18000148999994,19.998088779393022],[-99.17721733999997,19.99313888939316],[-99.18321621999996,19.99009950939322],[-99.19005264899994,19.993963290393125],[-99.19081111999999,19.99039425939325],[-99.18894371899995,19.98945179939323],[-99.18920571999996,19.98481954939336],[-99.19691905899998,19.984826599393383],[-99.19751041999996,19.975893369393578],[-99.19836768999994,19.977810509393525],[-99.19991765999998,19.976802949393534],[-99.20340946,19.97096554939372],[-99.21002741999996,19.967696229393802],[-99.20891959999996,19.96636974939384],[-99.21156953999999,19.963310689393918],[-99.21289130999997,19.96364727939386],[-99.21250490899996,19.965539520393826],[-99.21501381999997,19.95983365939401],[-99.21307528999996,19.95872710939401],[-99.21539442999995,19.954614419394108],[-99.22776104999997,19.951068119394222],[-99.22594593999999,19.949880689394238],[-99.21857254099996,19.927241910394827],[-99.21151905999994,19.924288429394878],[-99.20921564999999,19.93243597939467],[-99.20688070999995,19.932131749394692],[-99.20560276999998,19.92750073939478],[-99.21072902999998,19.91447471939512],[-99.21555048999994,19.91470262939509],[-99.21524539999996,19.912603939395183],[-99.21915788999996,19.911390249395232],[-99.22019704999997,19.902389749395446],[-99.22392521999996,19.901998399395428],[-99.21746708899997,19.89142362939575],[-99.22066885999999,19.884236049395877],[-99.22829968999997,19.875046799396145],[-99.22932244899994,19.874033030396184],[-99.23216531999998,19.8767388793961],[-99.23399657999994,19.875797249396136],[-99.23471688999996,19.87685507939608],[-99.23594754,19.873494199396163],[-99.23637239899995,19.875083140396153],[-99.24143033899998,19.87526211039611],[-99.24566930899994,19.869529090396288],[-99.24796081899997,19.859785450396522],[-99.26946871899999,19.859555280396517],[-99.27538341899998,19.85290120039671],[-99.27871891999996,19.840409400397004],[-99.28161402999996,19.84260908039694],[-99.28511836899999,19.840624399396987],[-99.28632141899999,19.837158289397095],[-99.29694378,19.835222249397162],[-99.30114564899998,19.829152659397277],[-99.30087394899999,19.827286339397354],[-99.30313021899997,19.82666098039735],[-99.30624579999996,19.822742550397436],[-99.30590267999997,19.82059432039751],[-99.30855728999995,19.819299659397565],[-99.30856354899998,19.817423949397583],[-99.31192294999994,19.81416249039768],[-99.30860933999999,19.814460709397668],[-99.30815033999994,19.812735000397744],[-99.30771873999998,19.814544450397687],[-99.30690517999994,19.812976120397728],[-99.311365579,19.809057490397784],[-99.31267425,19.805228170397914],[-99.30660051999996,19.797693709398075],[-99.32164837999994,19.79574937939816],[-99.32388130999999,19.79288825039819],[-99.32558173899997,19.793095490398194],[-99.33079381899995,19.796681030398126],[-99.33551024999997,19.79767374039808],[-99.33589361999998,19.801264939398017],[-99.33865390999996,19.802028249397967],[-99.34030937899996,19.794316249398204],[-99.34244899899994,19.795992680398122],[-99.34260801899995,19.794101980398178],[-99.34285784899998,19.79611637039812],[-99.34501102899998,19.795511310398147],[-99.34573514999994,19.7931282503982],[-99.34428526,19.79144423039827],[-99.34610054999996,19.787623979398344],[-99.34380928999997,19.787166310398398],[-99.34599881999998,19.784682920398446],[-99.34266984899996,19.782373879398463],[-99.34456044999996,19.77945452039856],[-99.35242497899998,19.775867720398654],[-99.35779095,19.781568259398476],[-99.36744164999999,19.780092920398552],[-99.37061021999995,19.78184455039851],[-99.37391813899995,19.775924890398638],[-99.37688430899999,19.775507969398646],[-99.38244518,19.77120406039876],[-99.38429888999997,19.775902150398625],[-99.38577037899995,19.777070249398633],[-99.38676939899996,19.775894830398666],[-99.38788357999994,19.777913179398585],[-99.384425369,19.779118310398566],[-99.38591656999995,19.77968726039855],[-99.38296810899999,19.78077765939854],[-99.38117185999994,19.784054400398446],[-99.38716816899996,19.78295893939849],[-99.38936073999997,19.783477600398477],[-99.38877951999996,19.785366259398398],[-99.39033101899997,19.78573354639841],[-99.38811991999995,19.791722600398263],[-99.37754042899996,19.796453400398146],[-99.38274514899997,19.79923564939807],[-99.38421862999996,19.80323128939795],[-99.38644242999999,19.804442630397894],[-99.38672210999994,19.81303202039768],[-99.38473674999995,19.818558220397563],[-99.38312125899995,19.81869635039753],[-99.38298857899997,19.82090232039752],[-99.38152774899999,19.820287689397514],[-99.38137393899996,19.831386430397245],[-99.37871270899996,19.835249313397156],[-99.37439154899994,19.8379143803971],[-99.37429330999998,19.84198467939697],[-99.37697085799994,19.844953163396905],[-99.37444627999997,19.84668854939687],[-99.373249909,19.851541850396718],[-99.38024794999995,19.855892950396612],[-99.38832302899999,19.85740545039656],[-99.39175174999997,19.85991754039654],[-99.41499176899998,19.85052663039675],[-99.42098756899998,19.85512236939665],[-99.4267814,19.874997022396133],[-99.43041451999994,19.870879180396265],[-99.43279770899994,19.875383970396157],[-99.44520828899994,19.884321060395884],[-99.43603430999997,19.896146230395598],[-99.43718817899997,19.899687800395483],[-99.43593319999998,19.903129150395404],[-99.45080021999998,19.894612820395654],[-99.46388056899997,19.892596220395713],[-99.46412524899995,19.895060290395612],[-99.47085505899997,19.898605280395564],[-99.47743693999998,19.898274980395545],[-99.48036085999998,19.90469548039537],[-99.48398147999995,19.90517652039537],[-99.47362256899999,19.954443940394096],[-99.477237399,19.954790920394107],[-99.47776493899994,19.96056640039397],[-99.47399448899995,19.96145092039394],[-99.47301224899996,19.9632437403939],[-99.46434028,19.96363723039391],[-99.45871531899996,19.96651769039381],[-99.45196910999994,19.96333237039388],[-99.45024359899998,19.964246890393902],[-99.45365596999996,19.97213815039365],[-99.451729539,19.97450206039363],[-99.45451477999997,19.97503094039361],[-99.45514459999998,19.979724480393497],[-99.45458421999997,19.981219800393465],[-99.44795936899999,19.98166662039343],[-99.44809818,19.983105120393404],[-99.44466465899997,19.984753740393387],[-99.44360584999998,19.988839320393264],[-99.44549556899995,19.9912278903932],[-99.43798927899996,19.997553170393033],[-99.43685291999998,20.00129905039293],[-99.448448769,20.042187109391897],[-99.45821436999996,20.055029539391615],[-99.45975870999996,20.06545734039134],[-99.48100856999997,20.082197889390883],[-99.48349685999995,20.10096977039043],[-99.48801654699997,20.10732308039028],[-99.49259856899994,20.11090408039019],[-99.49491784899999,20.11087897939018],[-99.49708961899995,20.116184000390014],[-99.49657701899999,20.119428799389944],[-99.50131221899994,20.127003320389807],[-99.51168331799994,20.140947709389405],[-99.51812819899999,20.145666659389335],[-99.51869825899996,20.148298830389226],[-99.51634083,20.148772819389208],[-99.51671064999994,20.15035154938917],[-99.50836274799997,20.150437200389174],[-99.50183084899999,20.153286579389103],[-99.51224024899994,20.17510016938858],[-99.51749941799996,20.175689889388554],[-99.52592659999999,20.173295569388614],[-99.52868076999994,20.163583539388853],[-99.53181804999997,20.163778319388864],[-99.53349444999998,20.16205801938891],[-99.53469916899998,20.163935019388855],[-99.54828754799998,20.163131739388852],[-99.55040913799996,20.16640584938878],[-99.55066462899998,20.17139168938867],[-99.559278738,20.1707573993887],[-99.56211670999994,20.1690676293887],[-99.57141682999998,20.170217679388692],[-99.57256141999994,20.16425687938882],[-99.57626354999996,20.16209159938889],[-99.58140322999998,20.161997489388877],[-99.58130716999996,20.16416637938883],[-99.58260702999996,20.16444379938885],[-99.58216817999995,20.162481019388867],[-99.586754849,20.167285219388766],[-99.59956087999996,20.169673369388704],[-99.60143496999996,20.166902859388774],[-99.60223274999998,20.167918679388773],[-99.61172825999995,20.161469339388898],[-99.61254325,20.15936077938895],[-99.63060239999999,20.14569444938932],[-99.63533947999998,20.15180319938918],[-99.63612190899994,20.158157150389016],[-99.63963662199997,20.15916801938896],[-99.64099045999995,20.16422917938885],[-99.65507722899999,20.163089909388873],[-99.657896769,20.16803889038873],[-99.65675987799995,20.169121460388695],[-99.65972661799998,20.18082053938844],[-99.66939736999996,20.179298749388458],[-99.67694890999996,20.162470459388903],[-99.67768456999994,20.166838229388777],[-99.68164424999998,20.170326539388707],[-99.68752424999997,20.17118753938868],[-99.70095107799996,20.17266426138865],[-99.71068353899994,20.166227080388783],[-99.71937184999996,20.167137979388784],[-99.72321097999999,20.170483249388703],[-99.72918511999995,20.172047649388617],[-99.73580523,20.177403059388528],[-99.74033625099999,20.177957003388507],[-99.74257891999997,20.183571569388334],[-99.75373161999994,20.19086451938817],[-99.78842667999999,20.223112019387347],[-99.79523814,20.227741289387236],[-99.79353876999996,20.23140011938715],[-99.78806795099996,20.230034924387184],[-99.79041830999995,20.237994199387003],[-99.84188959999996,20.281881419385893],[-99.84598211999997,20.277763079386],[-99.84438494399997,20.27633127538605],[-99.84570582999999,20.27485644938609],[-99.84965608999994,20.27147059938614],[-99.85570370999994,20.269925999386192],[-99.85954142999998,20.26462833938633],[-99.85910641999999,20.268470549386254],[-99.87741096999997,20.271395449386162],[-99.91236793999997,20.28562617938581]]]}}]}
