{"type":"FeatureCollection","features":[{"type":"Feature","properties":{"cve_ent":"16","cvegeo":"16","nombre_inegi":"Michoacán de Ocampo","nombre_catalogo":"Michoacán"},"geometry":{"type":"Polygon","coordinates":[[[-102.01341432,20.393703488383128],[-102.01820191999998,20.3935156273831],[-102.01893237999998,20.38600851938332],[-102.02265090999998,20.380889939383394],[-102.03666362999996,20.378564769383438],[-102.05190199999998,20.378736770383448],[-102.06503262899999,20.374921570383588],[-102.06932596999997,20.375404879383574],[-102.07387164999994,20.379322969383434],[-102.08113404999995,20.380193889383428],[-102.08731204999998,20.384894029383325],[-102.09772659999999,20.383900769383317],[-102.10885974999997,20.378048719383475],[-102.11514533999997,20.38112968938338],[-102.12305550999997,20.37810882938347],[-102.13157450999995,20.381129139383404],[-102.13370908999997,20.37970096938344],[-102.13489825999994,20.37566277938353],[-102.14157710999996,20.37540597938354],[-102.15414974,20.37891265938344],[-102.16816767999995,20.378740429383463],[-102.16747722999997,20.376249249383545],[-102.16004762999995,20.374904259383555],[-102.15815804999994,20.366960229383785],[-102.16574144999998,20.36699148938374],[-102.17326159999999,20.369229059383727],[-102.17702246,20.36815444938376],[-102.17742428999998,20.363201319383837],[-102.17458674999995,20.361711219383913],[-102.17343390999999,20.35780851938399],[-102.17536613999994,20.355966059384066],[-102.18930093999995,20.353708089384092],[-102.19660681999996,20.35049711938418],[-102.20812153999998,20.35667982938404],[-102.21175828999999,20.35214676938412],[-102.21956691999998,20.350915969384186],[-102.22180524999999,20.34406876938432],[-102.22621764999997,20.344468319384294],[-102.23183639999998,20.34148610938441],[-102.23802734999998,20.34180824938437],[-102.24136181999995,20.339340459384488],[-102.24713454999994,20.33902031938444],[-102.25415981999998,20.335265599384588],[-102.25908268899997,20.339371970384438],[-102.26095654999996,20.335848679384515],[-102.26756805899998,20.335627059384542],[-102.27419791899997,20.338677169384464],[-102.27712136999999,20.34316450938437],[-102.28408599999995,20.345560169384296],[-102.28606318,20.3452351403843],[-102.28985959999994,20.340835979384426],[-102.29360924899999,20.34590681938428],[-102.29206211999998,20.35297620038411],[-102.29637784999994,20.353131800384133],[-102.30046845,20.35652296938404],[-102.30659801999998,20.358163579383987],[-102.30904464999998,20.357148999384002],[-102.31608994,20.344587139384316],[-102.31947245999999,20.34475807938435],[-102.32722421999996,20.34948328938417],[-102.33594899999997,20.34153593938438],[-102.34243759999998,20.339993079384445],[-102.34601982999999,20.33506514938457],[-102.35844417,20.337027089384506],[-102.36239970999998,20.330030769384702],[-102.36670074999996,20.327795119384767],[-102.37238117999999,20.329951149384694],[-102.38256677999999,20.33006527938468],[-102.39120450999997,20.333951489384596],[-102.39984930999998,20.327740829384734],[-102.40996594999996,20.33349699938457],[-102.42122890999998,20.332706029384628],[-102.42789342999998,20.33935411938446],[-102.43237304999997,20.341044719384424],[-102.44247334999994,20.338263969384503],[-102.44738625999997,20.33849051938447],[-102.45447153999999,20.334082249384586],[-102.45486047899999,20.32896880038469],[-102.46783415,20.330596679384662],[-102.48099824999998,20.32490562938481],[-102.48612182999995,20.320113079384942],[-102.48855231999995,20.310900479385165],[-102.49062868,20.30860133938524],[-102.49620704999995,20.307903779385246],[-102.49955761999998,20.31307397938513],[-102.50544248999995,20.31585774938507],[-102.50740804999998,20.311624579385153],[-102.50728436999998,20.303478169385368],[-102.50895541999996,20.301355489385394],[-102.51188444999997,20.300082229385424],[-102.52083945999999,20.300799109385444],[-102.53001817999997,20.296220849385534],[-102.53007505999994,20.2908135793857],[-102.52224473999998,20.28735004938575],[-102.52008239999999,20.28041517938591],[-102.52052268999996,20.277314279385994],[-102.52927761999996,20.270615289386143],[-102.53518361999994,20.27216988938613],[-102.53429768999996,20.276444169386032],[-102.53586416999998,20.278984679385974],[-102.54411807999999,20.28055939938594],[-102.54709010999994,20.277883689386],[-102.55208666,20.26192868938639],[-102.55497734999994,20.260685349386446],[-102.55783714999997,20.263598519386377],[-102.55581828999999,20.271401569386132],[-102.56458297999995,20.27815502938599],[-102.56874670999997,20.27450841938611],[-102.56541850999997,20.270185919386208],[-102.56667930999998,20.26562497938629],[-102.58010284999996,20.264380579386298],[-102.59048612,20.258465339386465],[-102.59345293999996,20.26248430938638],[-102.59751961999997,20.261747969386388],[-102.59894079999998,20.267107779386272],[-102.61014553999996,20.26908850938623],[-102.61480584999998,20.26330567938632],[-102.61239510999997,20.25921224938648],[-102.61325393999999,20.255086019386585],[-102.61724327999998,20.254950249386553],[-102.62100362999996,20.25248241938662],[-102.61692217999996,20.247870919386703],[-102.62005841999996,20.245163739386825],[-102.62733124899995,20.229385549387235],[-102.64120001999999,20.223453479387345],[-102.64774924999996,20.224826279387337],[-102.65125644999996,20.22865824938719],[-102.65692707999995,20.228565629387234],[-102.66087619999996,20.231545799387145],[-102.66972991999995,20.230776779387156],[-102.67346616999998,20.226341659387284],[-102.67902536999998,20.226913109387272],[-102.68537030999995,20.218005309387458],[-102.68294317,20.20666862938774],[-102.68206185999998,20.19092742938817],[-102.67891453999994,20.185146479388333],[-102.67972185999997,20.171501549388676],[-102.68967554999995,20.166032799388777],[-102.70887539999995,20.168321779388737],[-102.72531281999994,20.165346219388823],[-102.73022627999997,20.166618059388814],[-102.74325893999998,20.15485402938905],[-102.74877902999998,20.153003939389144],[-102.75249427999995,20.14861481938921],[-102.75724257999997,20.15342850938909],[-102.76705428999998,20.1486622493892],[-102.77617837999998,20.141940659389395],[-102.77439768999996,20.139660289389457],[-102.77614710999997,20.13844636938948],[-102.78891902999999,20.138274019389474],[-102.79350819999996,20.141670379389417],[-102.81520405999999,20.139264649389446],[-102.81925341999994,20.136826029389546],[-102.80742987999997,20.13317704938959],[-102.80187339999998,20.123034289389903],[-102.80726142999998,20.11266311939012],[-102.81628737999995,20.106047879390314],[-102.82430356999998,20.108037599390247],[-102.83516193999999,20.11656150939004],[-102.83748870999996,20.113482139390094],[-102.84067467999995,20.11610910939003],[-102.84542081999996,20.12328876938986],[-102.84605990999995,20.13077024938969],[-102.85011577999995,20.131850919389645],[-102.85499430999994,20.13671274938955],[-102.85700551999997,20.144303349389325],[-102.85573642999998,20.147791349389237],[-102.85290922999997,20.147849949389226],[-102.85230836999995,20.14924734938922],[-102.86245285999996,20.15439324938909],[-102.86595325999997,20.162363619388902],[-102.87549554999998,20.157576029388988],[-102.88148251999996,20.160074199388948],[-102.88688137999998,20.15880879938896],[-102.89463356999995,20.164168319388835],[-102.90184547999996,20.16443347938887],[-102.90690402999998,20.16220733938891],[-102.91031476999996,20.162489599388906],[-102.93026554999994,20.166994119388754],[-102.93577325999996,20.170708259388643],[-102.94017025999995,20.17168182938867],[-102.95414337999996,20.170877849388695],[-102.95400313999994,20.16656853938881],[-102.94323261999996,20.149777479389222],[-102.92450007999999,20.136258449389558],[-102.92644827999999,20.129575179389732],[-102.94202599999994,20.128828799389748],[-102.94729899999999,20.132398939389617],[-102.95117471999998,20.13818476938951],[-102.95958016999998,20.141240079389412],[-102.96159842999998,20.140197139389457],[-102.96378719999996,20.134786259389593],[-102.96446231999994,20.127135829389765],[-102.97058390999996,20.12540361938981],[-102.98553677999996,20.12740007938974],[-102.99839414999997,20.1259606193898],[-103.00171402999996,20.135106309389545],[-103.00481853999997,20.138195709389496],[-103.03246367999998,20.136446949389544],[-103.0352314,20.13348574938959],[-103.03133347999994,20.126751379389763],[-103.04415234,20.124119379389818],[-103.04205332,20.1210151793899],[-103.04258987999998,20.115195659390064],[-103.03537313999999,20.116716199390027],[-103.03281554999997,20.111360619390155],[-103.03609354999998,20.09942433939047],[-103.03910610999998,20.09677907939052],[-103.04171093999997,20.090640659390708],[-103.03569424999995,20.08392065939086],[-103.03544804999996,20.081398199390897],[-103.03072882999999,20.07854944939097],[-103.03377877999999,20.07567636939107],[-103.03050717999999,20.072714549391144],[-103.03240681999996,20.06872542939122],[-103.02908279999998,20.064749969391325],[-103.03080574999997,20.06218345939138],[-103.02880601999999,20.058312419391502],[-103.02465610999997,20.057758249391522],[-103.02606607999996,20.056011909391557],[-103.02438994999994,20.055085949391575],[-103.02444530999998,20.052366829391634],[-103.02162811999995,20.05330347939164],[-103.02072002999995,20.047306349391775],[-103.02511647999997,20.049923749391713],[-103.02651681999998,20.04934365939171],[-103.02578621999999,20.046465709391818],[-103.02817819999996,20.044551999391864],[-103.02636307999995,20.03934825939199],[-103.02845756999994,20.036660689392075],[-103.02438544999995,20.033308849392114],[-103.03018593999998,20.029507119392246],[-103.03309816999996,20.029307139392248],[-103.03376494999998,20.03056397939223],[-103.03569601999999,20.029414769392247],[-103.03648834999997,20.026987309392286],[-103.03437039999996,20.02516854939233],[-103.03279322999998,20.026154179392318],[-103.03260976999997,20.024680149392342],[-103.03694284999995,20.021824089392428],[-103.03742531999995,20.01696807939252],[-103.04560865999998,20.011287179392706],[-103.04496788999995,20.008102509392785],[-103.04818042999995,20.007278319392817],[-103.04742178,20.004881429392878],[-103.04405196999994,20.004552399392832],[-103.04599830999996,20.00264914939287],[-103.04381199999995,20.001978619392908],[-103.04440937999999,19.99997845939294],[-103.05016131999997,19.99674237939306],[-103.05150417999994,19.991611149393172],[-103.04935031999997,19.99067236939318],[-103.04545025,19.983593629393376],[-103.04060076999997,19.978943999393522],[-103.03622561999998,19.969443369393723],[-103.03478241999994,19.967913289393803],[-103.02937674999998,19.967435139393825],[-103.02608514999999,19.96416027939387],[-103.02521954999997,19.960492089393977],[-103.02356441999996,19.96237937939394],[-103.01548274999999,19.95975401939398],[-103.01076236999997,19.9670270193938],[-103.01221753999995,19.970157649393702],[-103.00448808999994,19.971705649393687],[-102.99990613999995,19.9751331693936],[-102.99380967999998,19.98389474939338],[-102.97792971999998,19.987193539393324],[-102.96849794999999,19.991124279393212],[-102.96331217999995,19.989836519393226],[-102.96263005999998,19.99267081939316],[-102.95844011999998,19.99198770939317],[-102.95846473999995,19.995380909393088],[-102.95494942999994,19.995711509393065],[-102.95488967999997,19.994677629393134],[-102.95121493999994,19.996556509393066],[-102.94576511999998,19.99109339939322],[-102.94362421999995,19.98413362939335],[-102.93643771999997,19.98286411939341],[-102.93362024999999,19.986106979393313],[-102.92626761999999,19.98418754939339],[-102.90262188999999,19.96686347939378],[-102.88558485999994,19.970233339393722],[-102.88209693999995,19.96958510939371],[-102.88204962999998,19.97576925939359],[-102.86380128999997,19.970639829393697],[-102.85977873899998,19.971373549393714],[-102.86139422899998,19.969787689393723],[-102.85646690999994,19.968044140393797],[-102.84671285899998,19.968330059393754],[-102.82468397899999,19.962951910393915],[-102.82196938,19.964577029393862],[-102.81909996999997,19.96119787939394],[-102.81849516999996,19.96251825939389],[-102.80934084999997,19.959106220394023],[-102.80770505999999,19.956185050394065],[-102.80570559999995,19.95718615039404],[-102.80303741999995,19.952600779394185],[-102.79400945999998,19.95029102039424],[-102.79030176899994,19.951104059394197],[-102.77991916999997,19.960039259393962],[-102.77687357899998,19.96015374039398],[-102.77534290899996,19.958557400394028],[-102.78403604899995,19.951235690394178],[-102.77063354899997,19.92986845039475],[-102.744795319,19.9078668293953],[-102.73121510999995,19.89950784939554],[-102.73251993999997,19.890383169395754],[-102.73979185999997,19.885765719395856],[-102.74249004999996,19.87875947939603],[-102.73476891999996,19.874518179396144],[-102.73537068999998,19.872190829396175],[-102.73368465999994,19.869823399396243],[-102.73557254999997,19.867436449396344],[-102.73487678,19.86039030939652],[-102.73035267999995,19.853208679396662],[-102.73434456999996,19.85039699939675],[-102.73505317999997,19.847313819396845],[-102.74314245999994,19.84460394939693],[-102.74933853999994,19.83447934939715],[-102.75333019999994,19.834123509397166],[-102.74957773999995,19.832136859397217],[-102.74849593999994,19.82904701939733],[-102.74520977999998,19.828002599397323],[-102.74497665999998,19.824833049397416],[-102.73917656999998,19.817684369397583],[-102.73939630999996,19.81582582939763],[-102.74464988999995,19.814228149397696],[-102.74522967999997,19.811973259397746],[-102.74998074999996,19.81274671939772],[-102.75056927999998,19.81427419939768],[-102.75520834999998,19.813959459397672],[-102.75908267999996,19.80798444939783],[-102.76272604999997,19.810057219397756],[-102.76977788999994,19.809483379397822],[-102.77466122,19.812717479397723],[-102.78175014999995,19.813049259397722],[-102.78498383,19.81544861939763],[-102.78724582999996,19.813605429397697],[-102.79231222999995,19.814115509397656],[-102.81952684999999,19.777941199398594],[-102.81280867999999,19.775953369398625],[-102.81184905999999,19.77398891939866],[-102.81319934999999,19.76636885939889],[-102.80860645999996,19.75956077939908],[-102.81660181999997,19.751873479399233],[-102.81627408999998,19.749905059399318],[-102.80524721999997,19.752946549399223],[-102.80392627999998,19.752157629399253],[-102.80258642999996,19.746630259399414],[-102.80938076999996,19.74339144939946],[-102.81080471999996,19.74101608939956],[-102.80685368999998,19.73995636939958],[-102.80494350999999,19.73825610939962],[-102.80487723,19.73467541939968],[-102.79831799999994,19.728783199399864],[-102.79580604999995,19.72837325939987],[-102.79217071999996,19.717671339400116],[-102.78562367999996,19.712547419400284],[-102.78546742999998,19.708201999400334],[-102.78221457999997,19.707185659400402],[-102.78048171999997,19.704324089400473],[-102.78309277999995,19.698191949400595],[-102.78223173999999,19.695211259400708],[-102.78528179999995,19.694799519400718],[-102.79223154999995,19.68842305940087],[-102.79062724999996,19.686857139400885],[-102.79549648999995,19.68471634940094],[-102.79763282,19.678123539401145],[-102.80566253999996,19.67483776940123],[-102.80038663,19.674921219401206],[-102.79967954999996,19.67312267940127],[-102.79238659999999,19.674624629401215],[-102.79120334999999,19.673186419401244],[-102.79273705999998,19.67074001940132],[-102.79115914999996,19.66805948940142],[-102.79310365999999,19.66143087940157],[-102.79260147999997,19.65455056940171],[-102.78721193999998,19.65172801940183],[-102.78418647999996,19.652087539401766],[-102.78748533999999,19.648229059401913],[-102.78205053999996,19.646620379401938],[-102.78331448999995,19.643531479402],[-102.78228273999997,19.64258979940203],[-102.77959813999996,19.644311909402006],[-102.77683477999996,19.63411347940225],[-102.77720711999996,19.628977279402406],[-102.77584945999996,19.627714999402386],[-102.77434167999996,19.62662048940244],[-102.76085876999998,19.62753390940243],[-102.75896454999997,19.624868459402514],[-102.75366430999998,19.62289856940257],[-102.75543125999998,19.619820019402646],[-102.75374154999997,19.62015693940263],[-102.75321433999994,19.617439679402704],[-102.74756634999994,19.61277702940282],[-102.73723528999996,19.61507604940272],[-102.73049124999996,19.613768569402772],[-102.72851270999996,19.611890619402825],[-102.72608754999999,19.61313682940277],[-102.72585616999999,19.60994051940288],[-102.72068890999998,19.61066965940285],[-102.71881888999998,19.609412169402876],[-102.72098859999994,19.607689829402897],[-102.72028121999996,19.605855709403],[-102.71747477999999,19.605730449402987],[-102.71817561999995,19.60408853940305],[-102.71593204999999,19.602935149403066],[-102.71608403,19.600187979403117],[-102.71814516999996,19.59961516940313],[-102.71846728999998,19.5928725694033],[-102.72110816999998,19.591574089403338],[-102.72453136999998,19.585415169403486],[-102.72658021999997,19.58614401940349],[-102.72235264999995,19.582377029403563],[-102.72465884999998,19.581871459403597],[-102.72603888999998,19.57902554940365],[-102.72497502999994,19.57786121940369],[-102.72035924999994,19.579621749403653],[-102.72064367999997,19.57429131940377],[-102.71680113999999,19.570637339403902],[-102.71964628999996,19.568290249403958],[-102.71351670999996,19.563261339404065],[-102.71634701999996,19.561210539404122],[-102.71844633999996,19.550319259404382],[-102.71581336999998,19.54634031940452],[-102.71158553999999,19.54556794940454],[-102.71065634999998,19.54106876940462],[-102.71670745999995,19.533525749404795],[-102.71456599999999,19.530782549404865],[-102.71841814999999,19.525863029405013],[-102.71751902999995,19.519467719405164],[-102.72231488999995,19.51814056940524],[-102.72457719999996,19.509122229405456],[-102.72575596999997,19.508799309405436],[-102.72548025999998,19.511400709405375],[-102.72724276999998,19.51216722940536],[-102.73096977999995,19.51054484940539],[-102.73015411999997,19.506845889405486],[-102.73888293999994,19.498667319405712],[-102.73806493999996,19.49335947940583],[-102.73600388999996,19.493167829405866],[-102.73199405999998,19.4960465394058],[-102.72372804999999,19.493176089405893],[-102.71927781999995,19.49735101940576],[-102.71366491999999,19.49913987940568],[-102.71399659999997,19.500905339405644],[-102.71224831999997,19.499716999405678],[-102.70437934999997,19.507172949405486],[-102.69261761999996,19.510226579405423],[-102.68948708999994,19.513415679405323],[-102.67742129,19.510255819405423],[-102.67302471999994,19.51199530940536],[-102.67264628999999,19.504457179405545],[-102.6703702,19.498832489405707],[-102.67197644999999,19.494591689405823],[-102.66884796999994,19.49142185940591],[-102.67093010999997,19.490625879405915],[-102.65752781999998,19.487237279406006],[-102.63459542,19.495967779405788],[-102.62891773999996,19.500451449405688],[-102.62300299999998,19.497524319405713],[-102.62052957999998,19.49877165940571],[-102.60951568999997,19.510078619405427],[-102.59845961999997,19.51864948940518],[-102.59290099999998,19.521839739405152],[-102.59113716999997,19.520097249405158],[-102.58652854999997,19.5229810494051],[-102.58399522999997,19.522693709405107],[-102.58186419999998,19.528255119404946],[-102.57825273999998,19.524490199405065],[-102.57619221999995,19.524894949405024],[-102.57687889,19.522647119405093],[-102.57518757999998,19.521886859405118],[-102.57634754999998,19.515888719405307],[-102.57186141999995,19.511191829405377],[-102.57527159999995,19.503675279405574],[-102.57378034,19.500126819405665],[-102.57594344999995,19.49806177940574],[-102.54908114999995,19.49242285940587],[-102.54270537999997,19.478033109406265],[-102.54324708999997,19.47540919940631],[-102.54676724999996,19.474169449406332],[-102.54831336999996,19.471427549406403],[-102.55475673999996,19.47093677940641],[-102.55576767999997,19.465147939406595],[-102.56329891999997,19.464926979406556],[-102.56858136999996,19.44547834940705],[-102.56673096999998,19.442644909407157],[-102.55870219999997,19.447003889407068],[-102.54769277999998,19.439487889407246],[-102.55798596999996,19.439580449407227],[-102.55924033999997,19.436880399407304],[-102.55249337999999,19.43347428940738],[-102.54659304999996,19.435098749407356],[-102.54391710899996,19.43225336940744],[-102.54371542999996,19.42958017040747],[-102.54843731899996,19.428722779407504],[-102.55104414899995,19.42537801940757],[-102.55563037899998,19.431536339407426],[-102.56508084999996,19.43515733940735],[-102.57072334999998,19.42672924940756],[-102.57678699999997,19.423908919407616],[-102.57666896899998,19.421972779407668],[-102.57305607899997,19.420082720407706],[-102.57201219999997,19.415279800407856],[-102.56880075,19.412625969407884],[-102.58255161999995,19.38966688040849],[-102.58795584999996,19.388678829408544],[-102.59457505899996,19.37560419940888],[-102.59473713899997,19.371185289408967],[-102.60105601999999,19.364486770409144],[-102.60146105899997,19.356873600409372],[-102.60549861899996,19.34932997040953],[-102.60505588999996,19.33845525940982],[-102.61007339999999,19.33089425941],[-102.608638569,19.32906182041006],[-102.61117762999999,19.32279624941024],[-102.62000153999999,19.315151249410423],[-102.62607404999994,19.31485173941044],[-102.62990814899996,19.30710514941062],[-102.63271591899996,19.306981950410645],[-102.63124273899996,19.304505280410698],[-102.63454913999999,19.301836690410774],[-102.63579562999996,19.297295089410863],[-102.63822382999997,19.295091279410958],[-102.63785754999998,19.291305450411013],[-102.63956424999998,19.290519369411026],[-102.64084042899998,19.28094882941132],[-102.64309565999997,19.278340400411363],[-102.63948314899996,19.276926029411385],[-102.64105724999996,19.274188230411465],[-102.63888291999996,19.273013140411486],[-102.63897270999996,19.269922910411587],[-102.64100450899997,19.26809117041162],[-102.64030694899998,19.266600980411695],[-102.64313153999997,19.266197920411706],[-102.63820988899995,19.262659540411782],[-102.64559407999998,19.259492780411865],[-102.64553226,19.25531171041196],[-102.648801549,19.253238949411998],[-102.64825928999994,19.249945089412098],[-102.65122733899995,19.249230289412143],[-102.64972041999994,19.24600877041221],[-102.65146773899995,19.24310747941228],[-102.65689705999995,19.24053683041233],[-102.651842119,19.23551851041249],[-102.65683607899996,19.232502309412542],[-102.65524102999996,19.22991969041265],[-102.65615879999996,19.228737449412638],[-102.66000275,19.22986891941263],[-102.66129768999997,19.22855617041264],[-102.66211027999998,19.2188113994129],[-102.66826439899995,19.220956020412864],[-102.66992268899997,19.212412059413094],[-102.67661522899999,19.218027460412955],[-102.69389893999994,19.22629734941271],[-102.70069156899996,19.22453662941275],[-102.70151759899994,19.226249309412736],[-102.69915677899998,19.23150728941255],[-102.696988859,19.231660820412575],[-102.69825996899999,19.232909600412572],[-102.69622519999996,19.235948949412435],[-102.69732310999996,19.23804936941242],[-102.69555344999998,19.238861980412423],[-102.69436834899996,19.237428370412452],[-102.69488993999994,19.247773860412146],[-102.69659327999995,19.248808860412126],[-102.69882601999996,19.24993136941212],[-102.70226127999997,19.246998149412153],[-102.70526219899995,19.24705310941215],[-102.70653353899996,19.243578090412292],[-102.70553374999999,19.241906599412317],[-102.708421919,19.24117697041236],[-102.70712977899996,19.238318310412414],[-102.71272214899996,19.235808060412484],[-102.72791045999998,19.242395230412292],[-102.73772085999998,19.2422024004123],[-102.74061921899994,19.248334460412167],[-102.745290889,19.24948074041214],[-102.74666207999996,19.252172540412044],[-102.75381591899998,19.25580506041196],[-102.76512027999996,19.248632149412128],[-102.77692668999998,19.243555679412268],[-102.78488804999995,19.24391791941227],[-102.78569386,19.24214936941231],[-102.79024319999996,19.24245799941231],[-102.78959947999999,19.239594719412388],[-102.79435542999994,19.23236673941254],[-102.79224543,19.228700769412654],[-102.79376413999995,19.225408079412716],[-102.79995282999994,19.223451569412802],[-102.80836145999996,19.223264119412804],[-102.81398294999998,19.218278599412947],[-102.81770624999996,19.20909539941313],[-102.82443339999998,19.205693229413264],[-102.83016785999997,19.209989119413134],[-102.82775970999995,19.211261089413103],[-102.83142105999997,19.214639829413027],[-102.84382419999999,19.20263219941332],[-102.84564030999998,19.199048029413387],[-102.85993404999999,19.20394964941327],[-102.86260196999997,19.20322962941333],[-102.86538370999995,19.205876179413266],[-102.86537705999996,19.21128542941308],[-102.88643279999998,19.204391379413295],[-102.91507262999994,19.179367109413917],[-102.92743762999999,19.177268489414],[-102.93513341999994,19.18203224941389],[-102.93615094999997,19.173624979414065],[-102.94201807999997,19.17713276941401],[-102.94749987999995,19.174877179414068],[-102.95101408999994,19.175046029414016],[-102.95229522999996,19.176561089414015],[-102.95548471999997,19.16961976941418],[-102.95782670999996,19.173550119414102],[-102.96009609,19.17405588941406],[-102.96234844999998,19.17201553941415],[-102.96288404999996,19.169571659414164],[-102.96116404999998,19.167493749414245],[-102.96268274999994,19.165769319414267],[-102.96602502999998,19.163954049414297],[-102.9743112,19.15374059941459],[-102.97935776999998,19.15241325941462],[-102.97669313999995,19.126368919415306],[-102.97762270999999,19.120060909415475],[-102.98337802999998,19.12139790941541],[-102.99966144999996,19.135301719415043],[-103.00445981999997,19.137571339414976],[-103.00828679999996,19.13775570941497],[-103.01972701999995,19.13237116941515],[-103.02054022,19.125048479415312],[-103.01613564999997,19.11707693941554],[-103.01627757999995,19.11311128941565],[-103.01435019999998,19.113000279415647],[-103.01202284999995,19.10919668941573],[-103.01271507999996,19.106829919415805],[-103.01838897999994,19.105839029415804],[-103.01945537999995,19.1038365094159],[-103.01600567999999,19.07918530941654],[-102.99877762999996,19.06150610941697],[-102.99241485999994,19.057777859417076],[-102.99083522999996,19.053378909417187],[-103.00533684999999,19.052039429417206],[-103.01564664999995,19.048888419417278],[-103.01887251999996,19.051982019417192],[-103.02521425999998,19.053103849417223],[-103.03043974999999,19.036056169417634],[-103.03307805999998,19.03424165941771],[-103.03324207999998,19.029117619417786],[-103.04792542999998,19.032237979417733],[-103.05056046,19.035599289417654],[-103.05485188999997,19.03394485941771],[-103.06007271999995,19.02813953941784],[-103.06323850999998,19.027854079417857],[-103.06669894999999,19.022268079418005],[-103.06377301999999,19.005673489418424],[-103.06207477999999,19.002157689418503],[-103.05512059999997,19.00073214941853],[-103.05249956999995,18.99812541941864],[-103.06163104999997,18.997016109418666],[-103.06221645999996,18.995373909418706],[-103.06622617999996,18.996263079418675],[-103.08810879999999,18.98410870941898],[-103.09802570999994,18.964747849419474],[-103.10518887999996,18.961291969419577],[-103.10774071999998,18.9566523994197],[-103.10823521999998,18.95168079941985],[-103.12362987999995,18.937613429420196],[-103.12501945999998,18.930144659420378],[-103.13445391999994,18.931063179420338],[-103.14963344999997,18.92593787942049],[-103.17336422999995,18.936263919420227],[-103.18859764999996,18.954903939419765],[-103.20044801999995,18.962660979419564],[-103.20447199999997,18.96761224941942],[-103.20321451999997,18.9784967394191],[-103.20690911999998,18.98166045941906],[-103.20835730999995,18.98986965941885],[-103.21139756999999,18.993002569418742],[-103.20934265999995,18.994694659418705],[-103.21055170999996,18.997074519418668],[-103.20892781999999,19.0000001694186],[-103.20951884999994,19.00298664941847],[-103.21739647999999,19.003532229418507],[-103.21790211999996,19.007015119418398],[-103.22290890999994,19.011674019418265],[-103.22474519999999,19.019274619418052],[-103.22387619999995,19.024100509417938],[-103.22539176999999,19.02412330941795],[-103.22949087999996,19.022714059417993],[-103.23109401999994,19.0182737494181],[-103.23466825999999,19.02005967941803],[-103.23596696999999,19.01702610941816],[-103.23935485999999,19.016003179418146],[-103.24051424999999,19.013980909418198],[-103.24642373999997,19.012097939418258],[-103.24844951999995,19.014542369418216],[-103.25252341999999,19.01071285941831],[-103.25791848999995,19.01174511941828],[-103.25975179999996,19.003696649418483],[-103.27183937999997,19.0017174794185],[-103.27337437999996,18.998679799418603],[-103.27765991999998,18.996933249418642],[-103.28218391999998,18.999702889418575],[-103.28453191999995,18.998376289418623],[-103.28782434999994,18.99183708941878],[-103.28961033999997,18.994469029418728],[-103.29182088999995,18.992962799418745],[-103.29557891999997,18.99421794941873],[-103.29939671999996,18.99290553941875],[-103.3048222,18.98579374941892],[-103.33248516999998,18.973251309419236],[-103.34449811999997,18.978150119419155],[-103.35227101999999,18.97775124941914],[-103.35531493999997,18.980225519419072],[-103.35829034999995,18.98001256941908],[-103.36317013999998,18.97662182941918],[-103.37308614999995,18.97685104941917],[-103.37724887999997,18.98017045941911],[-103.38419256999998,18.97778751941915],[-103.38610517999996,18.97256857941926],[-103.39158052,18.97073591941932],[-103.39442110999994,18.967414629419427],[-103.39970728999998,18.966359319419425],[-103.40717385999996,18.97152731941932],[-103.41143391999998,18.96765928941939],[-103.41382073999995,18.973053169419295],[-103.41663608999995,18.97481616941922],[-103.41503471999995,18.97843554941911],[-103.41811296999998,18.978158229419165],[-103.41945271999998,18.981250689419024],[-103.44186254999994,18.983531849419016],[-103.45035881999996,18.98164331941905],[-103.45450577999998,18.97850244941915],[-103.45782630999997,18.979296229419106],[-103.46029587999999,18.97711377941914],[-103.46312731999997,18.977020919419154],[-103.46839224999997,18.986932599418903],[-103.47309550999995,18.991066709418796],[-103.47404141999999,18.988973769418838],[-103.47153614999996,18.987911779418884],[-103.47214787999997,18.985084859418944],[-103.47779982999998,18.984102919418984],[-103.47911296999996,18.979348339419115],[-103.48372717999997,18.97978574941913],[-103.48139238,18.975419769419187],[-103.48190154999999,18.97037911941937],[-103.48748961999996,18.971622879419304],[-103.48655384999995,18.968162249419386],[-103.49120205999998,18.958355779419637],[-103.49417953999996,18.958121779419667],[-103.49771819999995,18.96065357941958],[-103.50860144999996,18.963671319419532],[-103.50773689,18.96001517941958],[-103.50291537999999,18.95778954941965],[-103.50636999999996,18.94822551941992],[-103.51015728,18.946262109419994],[-103.51303610999997,18.9495961094199],[-103.51946784999997,18.95022614941987],[-103.52231825999998,18.948515709419894],[-103.52010657999995,18.94306730942006],[-103.51458419999996,18.938593629420193],[-103.51411398,18.93493174942025],[-103.51922856999995,18.932909999420318],[-103.52354831999997,18.927198939420457],[-103.53362031999995,18.927036199420446],[-103.53369844999999,18.920845709420615],[-103.52841402999998,18.912316719420833],[-103.53204479999994,18.905434599421007],[-103.54148905999996,18.909665229420895],[-103.55239182999999,18.906153149420984],[-103.55807467999996,18.90658042942102],[-103.559625,18.895955689421285],[-103.56885328999999,18.892518799421378],[-103.56870333999997,18.884436749421603],[-103.57223007999995,18.880218739421668],[-103.57324414,18.8713278894219],[-103.57812405999994,18.87527241942181],[-103.58234402999994,18.87562485942184],[-103.58437688,18.86615624942208],[-103.58757568999994,18.86584694942206],[-103.58985396999998,18.87077971942192],[-103.58820781999998,18.8757506594218],[-103.59629008999997,18.883945369421586],[-103.60252659999998,18.881599259421634],[-103.60562505999998,18.883163799421588],[-103.60866902,18.88841194942146],[-103.61555610999996,18.89242087942135],[-103.62028188999996,18.893039019421366],[-103.62315668999999,18.889436489421442],[-103.62675391999996,18.888754819421447],[-103.63028008999999,18.885324849421572],[-103.63231330999997,18.87930437942173],[-103.64034310999996,18.86953724942198],[-103.64057236999999,18.867244489422056],[-103.63428924999994,18.859219799422256],[-103.62443925999999,18.85265804942241],[-103.61718726,18.84285133942265],[-103.61740759999999,18.839695399422727],[-103.62619965,18.83097436942296],[-103.62069141999997,18.82035181942324],[-103.62159791999994,18.810095949423523],[-103.62003101999996,18.801383199423718],[-103.62863341999997,18.79181628942399],[-103.63448317999998,18.788551749424087],[-103.63797821999998,18.783207539424204],[-103.64508564999996,18.78232708942422],[-103.65371133999999,18.776542419424402],[-103.65850745999995,18.77919833942432],[-103.66184322999999,18.7789521094243],[-103.66935671999995,18.77446699942446],[-103.679017,18.77321104942447],[-103.68302747999996,18.766903219424663],[-103.68543837999995,18.757292769424897],[-103.68954333999994,18.754531949424976],[-103.69757079999994,18.755922549424906],[-103.70030264999997,18.754355749424974],[-103.70316757999996,18.748494419425114],[-103.70364579999995,18.73895873942537],[-103.70858805999995,18.729881549425635],[-103.71271737999996,18.72635393942568],[-103.71893030999998,18.710431489426146],[-103.72568890999997,18.70767667942621],[-103.72875004999997,18.700138979426416],[-103.73798222999996,18.694074429426554],[-103.73652102999996,18.688308919426692],[-103.73790523299999,18.68402294142683],[-103.72392965999995,18.676701449426997],[-103.70988567999996,18.662960149427377],[-103.69532696999995,18.64516250942781],[-103.68620742999997,18.628638509428228],[-103.68675291499994,18.62207506742846],[-103.69002586299996,18.620992412428485],[-103.68877008,18.616288049428576],[-103.69028051999999,18.61243874942866],[-103.69665719299996,18.609956749428743],[-103.69940605999994,18.601745799428972],[-103.70578249,18.60229027942893],[-103.70645605999995,18.598452749429036],[-103.71188421999994,18.59700565942908],[-103.71003365999997,18.596604029429084],[-103.70593639999998,18.590281889429242],[-103.70329760499999,18.590351181429277],[-103.70091531999998,18.593252709429194],[-103.69485876999994,18.592016319429202],[-103.68490722999996,18.588130489429286],[-103.66989634999999,18.579254919429545],[-103.65779277999997,18.568446119429822],[-103.65713443499999,18.563601463429954],[-103.65338647999994,18.564191519429965],[-103.64567304699995,18.560142678430026],[-103.62327565699997,18.544735192430476],[-103.58309081999994,18.505906149431485],[-103.57614767999996,18.495649569431773],[-103.57615471499997,18.489189293431902],[-103.574010194,18.48811662943193],[-103.57368578599994,18.484590270432047],[-103.56117165999996,18.46663982943255],[-103.55992962999996,18.460863049432678],[-103.56114390999994,18.455395199432818],[-103.55256045999994,18.44730287943302],[-103.54130036999999,18.43131889743342],[-103.53840313799999,18.419336408433754],[-103.53406974999996,18.414493379433914],[-103.52941659399995,18.404954299434127],[-103.53029921599996,18.4017496414342],[-103.52767038699996,18.39255540343448],[-103.53006354199995,18.383293956434706],[-103.52697249099998,18.381267002434786],[-103.52524450999995,18.376457219434922],[-103.52097318399996,18.373576183434977],[-103.52202077999999,18.37075213943502],[-103.51758385199999,18.368895566435082],[-103.51802738399999,18.36680164043515],[-103.51612248999999,18.36668039443516],[-103.51362014599995,18.362559061435277],[-103.512687397,18.356947341435433],[-103.51475467299997,18.352342608435546],[-103.51172894999996,18.35144041143555],[-103.50960128999998,18.348433660435646],[-103.51227248999999,18.34637315043566],[-103.50991044899996,18.346384570435685],[-103.51080679999995,18.344286860435755],[-103.50769687999997,18.343941049435774],[-103.50825231999995,18.34231310943582],[-103.50540924999997,18.339932489435835],[-103.50230741999998,18.34040177943584],[-103.50187034999999,18.33852173943588],[-103.50038857999999,18.33946794943585],[-103.49454296999996,18.33633053943596],[-103.49189084999996,18.332281029436054],[-103.49336864799994,18.32863591643615],[-103.48471534199996,18.32782818443617],[-103.47846113399999,18.323495884436298],[-103.41473233999994,18.296902819437012],[-103.40990813999997,18.293667369437063],[-103.4089542,18.29071245943717],[-103.40753837999995,18.29202982943713],[-103.40410136999998,18.290576489437143],[-103.40296113999995,18.28829907943723],[-103.40434897999995,18.287075519437234],[-103.40378241999997,18.286382709437277],[-103.39743146899997,18.289300214437176],[-103.39630836299996,18.288080026437214],[-103.39688248999994,18.283248739437337],[-103.39468301299998,18.285130730437295],[-103.39300376799997,18.283840778437355],[-103.39001516499998,18.285142819437294],[-103.38830626,18.282170149437405],[-103.38916997999998,18.279689095437426],[-103.37655502999996,18.28106299543742],[-103.37413940099998,18.277863096437468],[-103.37156241599996,18.277246216437486],[-103.37352835599997,18.273840855437605],[-103.37217342999998,18.27046896943767],[-103.37107079999998,18.273366519437594],[-103.36807941999996,18.272337799437647],[-103.36791167999998,18.269005029437757],[-103.36449861899996,18.26948674343774],[-103.36139167699997,18.264551440437828],[-103.35954140799998,18.26418785843787],[-103.35907122599997,18.2658610954378],[-103.35771588499995,18.26439725143785],[-103.356138398,18.267446538437774],[-103.35359142299995,18.268055680437786],[-103.34955420699998,18.266048303437795],[-103.34549488599998,18.270585499437686],[-103.33960524499997,18.270764434437687],[-103.31987295999994,18.261919385437917],[-103.31311281399998,18.26104437243795],[-103.31181648299997,18.262125599437915],[-103.308126842,18.26068924143798],[-103.29716605699998,18.25482452243809],[-103.29587472899999,18.249488757438247],[-103.29305244999996,18.249207045438247],[-103.29183987699999,18.24712454143831],[-103.28835444199996,18.247347258438293],[-103.24855525999999,18.23443237743866],[-103.23719523799997,18.233458226438653],[-103.23511499399997,18.230569560438738],[-103.23469240199995,18.23180878343873],[-103.23178374799994,18.23103022443873],[-103.22939196299996,18.2333532254387],[-103.22805164299996,18.23174144443874],[-103.22805735399999,18.234042859438652],[-103.22646692199999,18.234395019438626],[-103.22331128099995,18.23206124443873],[-103.221006059,18.23392864543865],[-103.21232584099995,18.232035003438735],[-103.20617154699994,18.228511128438786],[-103.20632513599999,18.222299848438944],[-103.20403738099998,18.221780459438985],[-103.20318758399998,18.223862256438945],[-103.19696838699997,18.22446069043891],[-103.19218890299999,18.221833090438995],[-103.19074181399998,18.223004460438965],[-103.18628175199996,18.221822344439012],[-103.18492656999996,18.219132443439033],[-103.18195938199995,18.220101359439035],[-103.17975314499995,18.217365931439115],[-103.17304463599999,18.21613394143914],[-103.17178637699999,18.213561744439204],[-103.16969245099995,18.214047154439204],[-103.16938216899997,18.21124890843927],[-103.16721210099996,18.212286353439257],[-103.15895251599996,18.21041704843929],[-103.15032363899996,18.206286304439402],[-103.14705140399997,18.20398869643946],[-103.14814214899998,18.20182053143952],[-103.14660358899994,18.20034735943953],[-103.14491702699998,18.20166843643949],[-103.137537416,18.20108738843955],[-103.12922019899997,18.205092956439408],[-103.11758280799995,18.20270334243949],[-103.11419723399996,18.199165243439566],[-103.11623785999997,18.19624897643965],[-103.11470167999994,18.195116352439715],[-103.11579242499994,18.193222301439725],[-103.11271292599997,18.191090780439822],[-103.11000414799997,18.19215677943978],[-103.10952064099996,18.19020942843981],[-103.10818623999997,18.19212251543976],[-103.10198917099997,18.18913105643986],[-103.10038779399997,18.19169849543981],[-103.09671342999997,18.193110943439756],[-103.07505462399996,18.192067787439754],[-103.07215168199997,18.189419923439836],[-103.07120180099997,18.191795577439766],[-103.07008250299998,18.18895354843987],[-103.06688613499995,18.19010814443984],[-103.06678206399995,18.193098926439745],[-103.06518434499998,18.191670974439752],[-103.06293051899996,18.19413038543971],[-103.05745915199998,18.192452208439775],[-103.05680864199996,18.188351150439882],[-103.05416848699997,18.189953150439838],[-103.04445076899998,18.18675515543992],[-103.03446839199997,18.188495555439896],[-103.02836174299995,18.186746175439907],[-103.01807060699997,18.18186949944005],[-103.01332545299994,18.176758150440193],[-103.00595108899995,18.177123096440173],[-102.98558842499995,18.17101013344031],[-102.972728707,18.163906609440488],[-102.97236512599994,18.162170555440554],[-102.96812778199997,18.162444668440532],[-102.95485990699996,18.157250781440705],[-102.80556714999994,18.091109843442474],[-102.79326823899999,18.08761628244254],[-102.789674522,18.08286482044267],[-102.77263264899995,18.080604333442725],[-102.76338597699998,18.077773250442817],[-102.761401188,18.075942918442863],[-102.76204737999997,18.07381533944293],[-102.75956499999995,18.073563369442915],[-102.75913399999996,18.069875909443027],[-102.75573393999997,18.072906799442944],[-102.75287274,18.07091156944301],[-102.75123257999996,18.071877999442943],[-102.75205974199997,18.073764334442945],[-102.74811245999996,18.074939179442893],[-102.74396690199997,18.072576999442923],[-102.74573967199996,18.070134902443012],[-102.74303722999998,18.070342079443005],[-102.74484123499998,18.068431027443083],[-102.74426433399998,18.067042848443112],[-102.74166786699999,18.067484476443084],[-102.73845844999995,18.072454695442914],[-102.725165829,18.070322697443],[-102.71892426499994,18.066373696443137],[-102.71894758299999,18.061018006443227],[-102.71603131599994,18.062028801443223],[-102.71555923099999,18.059599847443312],[-102.710017942,18.059323829443283],[-102.70822097299998,18.057382075443368],[-102.70677997099995,18.059167737443293],[-102.70465792099999,18.05677237644339],[-102.70260925199995,18.058592859443305],[-102.70147472499997,18.056609340443394],[-102.69922280299994,18.056717844443355],[-102.69923993499998,18.055135978443417],[-102.69597531499994,18.055278746443403],[-102.69601338599995,18.05651606544335],[-102.69434191199998,18.054975351443414],[-102.69141341199997,18.055247337443436],[-102.68758533499994,18.05953607744331],[-102.68498125299999,18.058445332443334],[-102.68313859899996,18.059558920443312],[-102.67997736599996,18.058391438443323],[-102.67957761599997,18.056761983443362],[-102.67350350699996,18.059203310443287],[-102.65908797799995,18.0544567774434],[-102.65310950499999,18.05007705844353],[-102.65022180799997,18.051255037443486],[-102.64964218399997,18.049328562443595],[-102.64537847499997,18.052699296443482],[-102.64415752699995,18.050691993443504],[-102.64211665499995,18.05245777644346],[-102.63939384599996,18.052157741443516],[-102.63815461499996,18.05023892844354],[-102.63594409499996,18.049267632443573],[-102.63501134699999,18.050533506443553],[-102.63345182299997,18.048831879443544],[-102.631193264,18.05135489544353],[-102.62807141099995,18.049683562443537],[-102.62738422199999,18.051143599443513],[-102.61981721899997,18.049003988443555],[-102.61808189299997,18.046730479443653],[-102.61767171599998,18.047850814443613],[-102.61273784699995,18.04658074544366],[-102.61104938099999,18.04852619244357],[-102.56215391599996,18.033573620444017],[-102.54911446999995,18.031955586444003],[-102.53430946399999,18.028117515444144],[-102.53357183099997,18.026780258444195],[-102.52627164399998,18.02624963944419],[-102.52074653599999,18.02394632044423],[-102.51871001199999,18.0214584194443],[-102.51605860599994,18.02278636644425],[-102.51435916699995,18.021333498444285],[-102.50301782299994,18.020727158444327],[-102.50213111699999,18.019356067444356],[-102.50002559599996,18.021219458444328],[-102.49692337199997,18.021274186444337],[-102.48042075399998,18.017365886444406],[-102.38129492399997,17.98783042544522],[-102.30918270099995,17.96948637344569],[-102.25714345399996,17.949008785446225],[-102.21821822,17.92748373944683],[-102.19162828599997,17.915521836447105],[-102.19177510599997,17.91336837644718],[-102.19135226799995,17.915309054447114],[-102.18141563899998,17.915085384447146],[-102.16805663899999,17.921867811446987],[-102.16355029499994,17.921922048446955],[-102.16292279999999,17.925755519446856],[-102.16159331199998,17.925249574446884],[-102.16402331899997,17.926840679446833],[-102.16268462299998,17.928241097446804],[-102.14540021799996,17.93449670044663],[-102.13779546799998,17.93529380344658],[-102.13682793999999,17.94002981944649],[-102.13858670999998,17.941040369446462],[-102.13801283,17.94805421944629],[-102.13298927999996,17.950835779446177],[-102.13606807999997,17.955773909446073],[-102.13755173999999,17.969684109445698],[-102.14317219999998,17.97419630944554],[-102.15513681999994,17.97824867944545],[-102.17327502999996,17.98963681944515],[-102.18015955,17.998900909444888],[-102.18418162999996,18.02457245944424],[-102.18322451999995,18.032983629443994],[-102.17841097999997,18.037851679443897],[-102.18118677999996,18.052214629443466],[-102.18434531999998,18.05948716944331],[-102.17844465999998,18.073728459442897],[-102.17977757999995,18.088788949442506],[-102.17445088999995,18.114368259441836],[-102.17799934999994,18.117420219441744],[-102.17871054999995,18.120341429441677],[-102.17626496999998,18.127364049441482],[-102.16720822999997,18.13574167944123],[-102.16321051999995,18.144776879441025],[-102.16181817999995,18.164148249440508],[-102.15064102999999,18.169881289440355],[-102.14561364999997,18.183144379439998],[-102.14031433999999,18.188264879439906],[-102.13081053999998,18.18884517943985],[-102.12568230999995,18.18666491943992],[-102.11972976999999,18.18636494943992],[-102.11042745999998,18.19058141943982],[-102.09414550999998,18.194901309439686],[-102.07237513999996,18.19345182943976],[-102.05736845999996,18.195152549439683],[-102.04771614999999,18.200138289439547],[-102.04232905999999,18.206511629439362],[-102.03867716999997,18.208196309439355],[-102.03080076999998,18.208458819439315],[-102.01905527999998,18.202115719439508],[-102.01054709,18.204844309439434],[-101.99985033999997,18.202497539439474],[-101.97648444999999,18.208015179439375],[-101.97366156999999,18.21280634943922],[-101.97778610999997,18.227152649438843],[-101.97340884999996,18.232307089438713],[-101.96970388999995,18.233107289438703],[-101.95062705,18.227828599438844],[-101.93687557,18.232631719438682],[-101.92797262,18.2316106894387],[-101.92011593999996,18.24069273943848],[-101.91089207999995,18.242123479438433],[-101.90664739999994,18.244807849438352],[-101.90456399999994,18.247904939438317],[-101.90712261999995,18.261184749437927],[-101.89681947999998,18.27711521943751],[-101.88303876999998,18.262423879437883],[-101.87052887999995,18.259681709437984],[-101.86324930999997,18.261655139437956],[-101.86336301999995,18.26616288943779],[-101.87606293999994,18.270787249437703],[-101.88291574,18.27743713943754],[-101.88132544999998,18.280234019437405],[-101.87306205,18.282238909437382],[-101.86269467999995,18.28722847943727],[-101.86229284999996,18.290244479437188],[-101.86710125999997,18.295649139437],[-101.87019782,18.30832285943668],[-101.86792151999998,18.311175849436612],[-101.85725657999997,18.312332199436614],[-101.85571613999997,18.31427554943653],[-101.86106285999996,18.322501539436338],[-101.86726664999998,18.32608431943624],[-101.87080119999996,18.33176748943609],[-101.86242681999994,18.341011919435804],[-101.86156694999995,18.356467969435414],[-101.87405401999996,18.368346419435085],[-101.87475425999999,18.371059969435024],[-101.87125364999999,18.377133569434893],[-101.87303371999997,18.384297379434706],[-101.88490351999997,18.393899379434433],[-101.88931613999995,18.400473229434255],[-101.88697928,18.412098939433978],[-101.87819127999995,18.424626539433643],[-101.87375882999999,18.437485579433275],[-101.86044204999996,18.44618516943304],[-101.88489950999997,18.4749507394323],[-101.88792517999997,18.4814952494321],[-101.88895387999997,18.49901656943165],[-101.88225982999995,18.53422765943074],[-101.87950908999996,18.539251549430627],[-101.85928262,18.55289534943023],[-101.85398687999998,18.56325321942997],[-101.84384443,18.57439573942969],[-101.83119776999996,18.580521419429495],[-101.79361059999997,18.593365229429207],[-101.78270010999995,18.60024261942902],[-101.77179417999997,18.603721399428913],[-101.73285368999996,18.61147928942869],[-101.71735717999996,18.612010799428706],[-101.71345250999997,18.61022064942872],[-101.71048261999994,18.606262889428848],[-101.70782117999994,18.60137745942896],[-101.70568385999997,18.590774819429235],[-101.70117584999997,18.587893379429307],[-101.69014471999998,18.58935876942929],[-101.66727410999994,18.598074679429033],[-101.65230162999997,18.59716034942906],[-101.63899313999997,18.60253439942891],[-101.62449977999995,18.599153979429023],[-101.62015865999997,18.58636327942938],[-101.60746688999997,18.57793659942958],[-101.60508707999998,18.5745952494297],[-101.60296661999998,18.562121379430028],[-101.59799670999996,18.548887689430387],[-101.58947943,18.541633459430564],[-101.58831779999997,18.528131539430905],[-101.58356333999997,18.52099476943111],[-101.57352297999995,18.517546569431154],[-101.56424239999996,18.509870969431393],[-101.55035042999998,18.509701049431378],[-101.54697134999998,18.507442679431442],[-101.54400097999996,18.50057687943161],[-101.53842944999997,18.497756019431694],[-101.51805531999999,18.495979489431715],[-101.51094144999996,18.488552619431953],[-101.50648030999997,18.48669282943197],[-101.47994016999996,18.49060402943188],[-101.46802191999997,18.486935519431967],[-101.46433113999996,18.488904169431947],[-101.46064997999997,18.495377249431755],[-101.45742089,18.49735405943174],[-101.45465101999997,18.496830679431746],[-101.44639536999996,18.489318289431893],[-101.44194722999998,18.488993379431943],[-101.43861124999995,18.49084725943189],[-101.43215493999998,18.501676429431573],[-101.42761810999997,18.501175219431605],[-101.42299444999998,18.49683797943173],[-101.41758062999999,18.49754810943167],[-101.41292819999995,18.501925909431606],[-101.41074705999996,18.51104534943137],[-101.40688494999996,18.51251256943133],[-101.39879828999995,18.506969319431455],[-101.39492227999995,18.506126619431463],[-101.39014285999997,18.506625739431474],[-101.38497894999995,18.510663749431355],[-101.37858996999995,18.509846679431398],[-101.37476445999994,18.507620599431434],[-101.37085459999997,18.500464319431625],[-101.36560419999996,18.499882249431632],[-101.36242222999994,18.50322064943156],[-101.36410767999996,18.518061739431168],[-101.36187719999998,18.520217799431123],[-101.35758564999998,18.522355379431023],[-101.35004799999996,18.52226587943109],[-101.33450234999998,18.528433849430893],[-101.32686859999997,18.529424349430872],[-101.31899208999995,18.528291049430916],[-101.31319317999998,18.532905339430794],[-101.29896007999999,18.533126059430735],[-101.28756717,18.539430519430603],[-101.28207716999998,18.544734029430444],[-101.27654525999999,18.542193279430528],[-101.27434585999998,18.5403531194306],[-101.27340705999995,18.536032449430685],[-101.27001465999996,18.535158349430734],[-101.25932210999999,18.5395316894306],[-101.24939022999996,18.538171309430634],[-101.23807256999999,18.534155659430755],[-101.22521425999997,18.53420850943073],[-101.22018514999996,18.536129689430684],[-101.21190059999998,18.53641724943068],[-101.19628451999996,18.526380949430926],[-101.19366084999996,18.51886594943117],[-101.19156693999997,18.517827519431155],[-101.16821359999994,18.52102439943108],[-101.15733202999998,18.518138799431142],[-101.14726650999997,18.51108699943134],[-101.14278639999999,18.510532519431337],[-101.13956414999996,18.511733229431343],[-101.13459259999996,18.5170209394312],[-101.13151184999998,18.517493459431158],[-101.12026861999999,18.509256799431405],[-101.10201525999997,18.509302459431414],[-101.08866085999995,18.505907859431463],[-101.08365317999996,18.50717142943143],[-101.07553250999996,18.514976219431237],[-101.05449630999999,18.518446969431174],[-101.03796779999999,18.526206029430924],[-101.03244901999996,18.526719599430923],[-101.02092313999998,18.522946919431025],[-101.01200327999999,18.527543019430915],[-101.00937334999998,18.524784779430988],[-101.00720996999996,18.49725737943173],[-101.00487550999999,18.492224479431847],[-100.98977674999998,18.49127582943188],[-100.98466345999998,18.489089059431898],[-100.97516831999997,18.483407819432042],[-100.96389507999999,18.471826229432367],[-100.96098196999998,18.463628289432567],[-100.96655704999996,18.45367547943289],[-100.96677343,18.44992013943298],[-100.96311419999995,18.445729719433057],[-100.95358754999997,18.4450783394331],[-100.94562681999997,18.45389711943282],[-100.94275314,18.455077349432838],[-100.93377033999997,18.4513286194329],[-100.92665661999996,18.4439555194331],[-100.92299407999998,18.44416270943312],[-100.91847825999997,18.448140199433016],[-100.91693625999996,18.451661219432932],[-100.91492193999994,18.459307199432743],[-100.91725805999994,18.46674305943252],[-100.91451601999995,18.47175019943236],[-100.90816937999996,18.471392779432367],[-100.90022882999995,18.46395899943258],[-100.89436836999995,18.463138659432584],[-100.88760041999997,18.468132079432454],[-100.88052434999997,18.487479969431952],[-100.87397542999997,18.492008779431846],[-100.86927031,18.490322339431884],[-100.86327322999995,18.48126754943212],[-100.85917119999999,18.478387349432207],[-100.83848074999997,18.473069319432337],[-100.80910642999999,18.476515279432263],[-100.79817757999996,18.480541119432157],[-100.79314662999997,18.47709833943225],[-100.78573151999996,18.463511549432635],[-100.77983081999997,18.450883949432935],[-100.77764326,18.439543349433254],[-100.76012764999996,18.435203649433358],[-100.75562548,18.428603659433495],[-100.75135839999997,18.42577122943361],[-100.74098025999997,18.428217779433542],[-100.73736931999997,18.42730145943353],[-100.72773787999995,18.406150369434098],[-100.72273026,18.400449379434264],[-100.71876954999999,18.39921162943428],[-100.71634028999996,18.40087865943424],[-100.71412391999996,18.404254979434185],[-100.71215737999995,18.413895019433898],[-100.70703844999998,18.418999999433765],[-100.69829262999997,18.41892448943378],[-100.69105121999996,18.41415316943393],[-100.68777221999996,18.40864190943402],[-100.68987788999999,18.400014059434262],[-100.68932347999998,18.393939349434426],[-100.68473008999996,18.390085879434558],[-100.68366234999998,18.386860170434602],[-100.67868102999996,18.38634525943462],[-100.67495484999996,18.383624939434704],[-100.67704001999999,18.376906289434846],[-100.67669371899997,18.372559479435004],[-100.663597859,18.361382460435305],[-100.65707556999998,18.360467311435297],[-100.64754136999994,18.350113679435587],[-100.64586748,18.346149739435695],[-100.64299965,18.34615768943569],[-100.64202948999997,18.347760779435642],[-100.64073691999994,18.35248891943552],[-100.64153704999997,18.358462179435385],[-100.63967517999998,18.36391839943521],[-100.63110561999999,18.368498569435097],[-100.62693899999994,18.375651509434928],[-100.61060396999994,18.37705381943489],[-100.60874137999997,18.379189519434842],[-100.60966454,18.387239879434603],[-100.60177842999998,18.391025689434507],[-100.60146414999997,18.394345139434403],[-100.59614559999994,18.3994529394343],[-100.59916448999996,18.406440109434115],[-100.59594374999996,18.408288979434072],[-100.59140513999995,18.40740350943408],[-100.58863136999997,18.409235619434035],[-100.58822977999995,18.412145149433975],[-100.5906968,18.415460939433878],[-100.59442813999999,18.416087379433815],[-100.60772618,18.42540071943358],[-100.63149211999996,18.438469649433273],[-100.63190137999999,18.440973769433178],[-100.63528594999997,18.442984149433112],[-100.63724448,18.45774916943275],[-100.64797779999998,18.457411599432763],[-100.64951697999999,18.46214734943265],[-100.65246285999997,18.464788119432555],[-100.67596333999997,18.478383399432197],[-100.68782296999997,18.483229889432103],[-100.69779028999994,18.490641149431884],[-100.70115552,18.48506799943206],[-100.70461359899997,18.48331531043209],[-100.71504117999997,18.486397019431973],[-100.70747141999999,18.488234179431963],[-100.70954277,18.495977569431734],[-100.72267565999995,18.51376797943129],[-100.72999119999999,18.51972371943113],[-100.73407619999996,18.521194029431086],[-100.73829421999994,18.518590489431165],[-100.74422517999994,18.51807296943116],[-100.76489571999997,18.561211339430027],[-100.76352721999996,18.56331434942997],[-100.76419793999999,18.58174330942948],[-100.76069062999996,18.592402569429208],[-100.76160701999999,18.59443399942914],[-100.75844201999996,18.60964081942874],[-100.75219067999996,18.630203969428187],[-100.75121281999998,18.641666719427917],[-100.75790265999996,18.63924259942798],[-100.76010370999995,18.641630549427934],[-100.75881764999997,18.642877689427873],[-100.75944717999994,18.655671769427528],[-100.76551614999995,18.664163999427306],[-100.76123542,18.671671169427103],[-100.76128228999994,18.675988949427005],[-100.76365374999995,18.682942049426853],[-100.77023454,18.690480489426616],[-100.77028262,18.692710229426567],[-100.77275599999996,18.69062385942666],[-100.78034836999996,18.690120149426644],[-100.77982630999998,18.688417999426715],[-100.78352041999996,18.687027179426718],[-100.78540504999995,18.691480719426632],[-100.78089561999997,18.703500649426267],[-100.78002165999999,18.713014719426052],[-100.77386271999995,18.727498949425666],[-100.77542839999995,18.729814019425604],[-100.77293518,18.732567709425552],[-100.78016317999999,18.739847179425322],[-100.77886487999996,18.742553479425254],[-100.78178034999996,18.74510507942519],[-100.78406728999995,18.745177279425217],[-100.78845965999994,18.741205679425335],[-100.79691197999996,18.74627016942518],[-100.79542519999997,18.75482982942497],[-100.79311177999995,18.755659249424948],[-100.79371568999994,18.75785954942486],[-100.79175844999997,18.757813919424876],[-100.79015605999997,18.761444919424772],[-100.79270434999995,18.76246034942474],[-100.79197719999996,18.764593749424723],[-100.79422791999997,18.76479724942471],[-100.79452951999997,18.771473769424535],[-100.79896893999995,18.784535779424182],[-100.79545970999999,18.788886089424082],[-100.78505093999996,18.79650122942387],[-100.78251751999996,18.80165350942374],[-100.79159251999994,18.829269909423015],[-100.79177088999997,18.834168479422907],[-100.78795827999994,18.83702064942282],[-100.78807225999998,18.838767919422786],[-100.78040890999996,18.848359429422548],[-100.77942221999996,18.8514491694224],[-100.78211741999998,18.85425771942239],[-100.77692224999998,18.859752289422246],[-100.77331625999994,18.85878333942225],[-100.76911517999997,18.860229229422224],[-100.76787041999995,18.86399787942211],[-100.76640859999999,18.865555969422076],[-100.76518557999998,18.864429649422082],[-100.76393944999997,18.866872429422035],[-100.76010782999998,18.86580334942209],[-100.75567739999997,18.86774333942202],[-100.74840342,18.867932569422003],[-100.74828669,18.861327179422176],[-100.74620234999998,18.85797934942227],[-100.74111817999994,18.860415399422177],[-100.73683073999997,18.86050984942218],[-100.73636737,18.851313689422437],[-100.72400524999996,18.849235379422478],[-100.70956057999996,18.83584887942286],[-100.71217987999995,18.829953089423004],[-100.71196776999994,18.825909019423086],[-100.70275556999997,18.82375973942318],[-100.70552613999996,18.81371261942341],[-100.70583816999999,18.796406519423883],[-100.69606853999994,18.794125489423948],[-100.69203899999998,18.805606079423654],[-100.68992062999996,18.80249079942371],[-100.68767450999998,18.804492199423635],[-100.68469817999996,18.80316505942368],[-100.68331679999994,18.808567029423564],[-100.67992756999996,18.809555249423546],[-100.68000362999999,18.817225889423305],[-100.67620991999998,18.81676881942335],[-100.66685377999994,18.819379659423255],[-100.66804082999994,18.82150287942319],[-100.67144419999994,18.820657489423223],[-100.67293296999999,18.824804969423138],[-100.67164619999994,18.828154629423018],[-100.66843384999999,18.828966779422995],[-100.66608185999996,18.83425476942287],[-100.65933476999999,18.833968049422907],[-100.65635410999994,18.838355679422794],[-100.65069236999994,18.83994027942275],[-100.65351842999998,18.84387430942263],[-100.65170396999997,18.847945089422524],[-100.64341351999997,18.8488768194225],[-100.64278301999998,18.852148479422404],[-100.64520194999994,18.860317659422233],[-100.64035676999998,18.86217305942214],[-100.64083674999995,18.865906089422076],[-100.63752385,18.867632339422016],[-100.63456075,18.866609249422055],[-100.62937530999994,18.86792299942203],[-100.62541545999996,18.865856569422064],[-100.62224716999998,18.86683524942205],[-100.62342230999997,18.87134027942189],[-100.61961077999996,18.87453133942181],[-100.62036234999995,18.878503999421756],[-100.61566625999995,18.88002671942169],[-100.61344367999999,18.8832666294216],[-100.61354611999998,18.886371339421515],[-100.61080354999997,18.88916819942143],[-100.61086696999996,18.891971979421374],[-100.61289734999998,18.89345450942132],[-100.60867856999995,18.89477376942128],[-100.60600133999998,18.89293602942135],[-100.60048296999997,18.89285148942136],[-100.60123199999998,18.89699187942123],[-100.60410662999999,18.89938274942116],[-100.59942479999995,18.900306319421144],[-100.59399781999998,18.905914569421018],[-100.58938916999995,18.90811631942094],[-100.59323687999995,18.91527941942077],[-100.59035627999998,18.915570379420796],[-100.58540984999996,18.911309399420876],[-100.58037061999994,18.915718029420763],[-100.57815910999996,18.914111909420786],[-100.57423545999995,18.914533019420766],[-100.57401888999999,18.916996569420714],[-100.57800602999998,18.921066029420647],[-100.57594761999997,18.92287353942059],[-100.56519567999999,18.91768984942071],[-100.56878230999997,18.921684689420626],[-100.56385642999999,18.923763199420556],[-100.56497510999998,18.928568859420423],[-100.56217279999998,18.92862133942044],[-100.56316561999996,18.931263379420376],[-100.56199351999999,18.932814709420327],[-100.55817187999997,18.93509794942026],[-100.54684471999997,18.932745429420347],[-100.54378585999996,18.934703709420276],[-100.54356562999999,18.940407679420154],[-100.54691676999995,18.941424629420066],[-100.54971088999997,18.946420169419987],[-100.54608404999999,18.950149969419858],[-100.54759565999997,18.952107819419798],[-100.54667083,18.964194569419526],[-100.54476765999999,18.96594447941948],[-100.54010887999999,18.96268799941956],[-100.53339671999998,18.964396979419504],[-100.53321909,18.966394709419426],[-100.53731350999999,18.972344149419268],[-100.53376251999998,18.978628349419143],[-100.53772053999995,18.984185119418996],[-100.53523171999996,18.98772896941887],[-100.53237285999995,18.98570041941895],[-100.53022250999999,18.987028199418916],[-100.53239488999998,18.991243909418777],[-100.53016411999995,18.994152289418714],[-100.52482004999996,18.992673289418736],[-100.52324039999998,18.99363388941876],[-100.52474262,19.000110749418553],[-100.53078107999995,19.006898219418375],[-100.52985277999994,19.009331219418318],[-100.51937215,19.01208444941824],[-100.51415950999997,19.008354509418364],[-100.51275174999996,19.012430629418244],[-100.50894088999996,19.01030025941832],[-100.50643371999996,19.013323229418194],[-100.50273325999997,19.013289429418215],[-100.50170607999996,19.016640029418173],[-100.49596977999995,19.0181579494181],[-100.49528097999996,19.022015249417986],[-100.49209850999995,19.020085889418077],[-100.48881868999997,19.023207119417975],[-100.48433579999994,19.021025419418038],[-100.48327249,19.024143919417916],[-100.48514625999998,19.02772405941782],[-100.47913911999996,19.02615285941787],[-100.47936125999998,19.031092449417788],[-100.47711394,19.0341474894177],[-100.46867419999997,19.029085309417802],[-100.46557610999997,19.031692879417736],[-100.46129085999998,19.031475569417754],[-100.45903571999997,19.03302677941772],[-100.45790570999999,19.040980089417523],[-100.45363905999994,19.042444049417444],[-100.45115771999998,19.047768689417342],[-100.44559307999998,19.045435179417368],[-100.44839697999998,19.048956029417315],[-100.44712634999998,19.05202316941721],[-100.43955913999999,19.05429213941715],[-100.43618889,19.057886019417097],[-100.43144648999998,19.05492056941714],[-100.43173824999997,19.060726979416977],[-100.42046965999998,19.060961969416994],[-100.41976854999996,19.065943619416856],[-100.41082722999994,19.063595079416903],[-100.41046021999995,19.065212539416894],[-100.41261934999994,19.06665807941681],[-100.41162361999994,19.072819979416707],[-100.40747937999998,19.075580769416614],[-100.40893347999997,19.07893584941652],[-100.40679861999996,19.080506089416463],[-100.41067570999996,19.084017549416405],[-100.40475554999996,19.093271939416127],[-100.40657801999998,19.096110169416065],[-100.40386105999994,19.09789390941603],[-100.40294796999996,19.103800599415887],[-100.40549337999994,19.104065519415887],[-100.40665778,19.105893949415833],[-100.40387685999997,19.107724509415753],[-100.40437841999994,19.109457289415708],[-100.39908904999999,19.110500519415723],[-100.39756130999996,19.11620737941556],[-100.39515830999996,19.117905779415523],[-100.39464461999995,19.121676199415386],[-100.39629742999995,19.123403349415366],[-100.39214294999994,19.124618339415335],[-100.39393107999996,19.127561479415274],[-100.39149724999999,19.128411379415233],[-100.38816394999999,19.136778339415013],[-100.38948228999999,19.142912859414846],[-100.38652777,19.14505411941482],[-100.38611203,19.147505779414775],[-100.38285211999994,19.14761254941477],[-100.37970784999999,19.15146307941464],[-100.37604093999994,19.151520029414627],[-100.37311787999995,19.148563429414697],[-100.36923111999995,19.15054130941468],[-100.36665257999994,19.14970808941469],[-100.36637391999994,19.15338870941461],[-100.36365362,19.152111059414622],[-100.36159113999997,19.154706827414547],[-100.37819147999994,19.17110004741412],[-100.37110593999995,19.177496687413996],[-100.37308511999998,19.194171967413524],[-100.37006090999995,19.194371689413515],[-100.36255454999998,19.20294030741332],[-100.35922308999996,19.202996717413324],[-100.36033622999999,19.20508774741326],[-100.33364590999997,19.230918829412612],[-100.33125507999995,19.230464939412606],[-100.32249742999996,19.25069233941209],[-100.31988333999999,19.252991539412015],[-100.32173477999999,19.25634733941194],[-100.31973156999999,19.261792169411788],[-100.32106848999996,19.267135629411655],[-100.32048584999997,19.28029311941134],[-100.31530953999999,19.287416649411156],[-100.32014568999996,19.288899249411088],[-100.32006527999994,19.290933399411024],[-100.31309785999998,19.29725853941087],[-100.32066167999994,19.306829139410628],[-100.32326505999998,19.306803249410613],[-100.31995929,19.316230219410368],[-100.31627754999995,19.319410459410296],[-100.30682136999997,19.32282396941024],[-100.30693544999997,19.33824294940983],[-100.30073062999999,19.342744279409693],[-100.31111185999998,19.35322421940947],[-100.31237445999994,19.362361119409222],[-100.30213551999998,19.36999830940899],[-100.29957370999995,19.376581119408826],[-100.29437442999996,19.380928569408724],[-100.29309411999999,19.395128859408377],[-100.27303924999995,19.39894499940825],[-100.26767324999999,19.40257281940817],[-100.23742516999994,19.403512259408174],[-100.21594202999995,19.413421199407924],[-100.20207738,19.4320195194074],[-100.19733526,19.43346724940738],[-100.18987261999996,19.439704049407233],[-100.19887113999995,19.452413599406906],[-100.20249202999997,19.454932909406807],[-100.20608791999996,19.45446617940684],[-100.20573191999995,19.45816710940673],[-100.20673873999999,19.457885549406786],[-100.20745737999994,19.461129279406652],[-100.20643777999999,19.47037022940646],[-100.20186499999994,19.475510249406327],[-100.20414453999996,19.479691509406223],[-100.20087068999999,19.482552464406098],[-100.20097975,19.492791709405875],[-100.17982090999999,19.488314769405974],[-100.17671497999999,19.489678049405963],[-100.17864955,19.49068844940592],[-100.17769417999995,19.492624749405877],[-100.18488364999997,19.4988351494057],[-100.19328722999995,19.499202909405717],[-100.19338421999998,19.497383369405718],[-100.19579062999998,19.499239519405705],[-100.19651382999996,19.498233109405735],[-100.20193951999995,19.499528259405672],[-100.20057431999999,19.51874156940518],[-100.20185051999994,19.522931849405115],[-100.19642667999995,19.53173310940488],[-100.21048939999997,19.54205287940459],[-100.21469630999997,19.552765399404333],[-100.22514968999998,19.557930879404218],[-100.23747632,19.5572187994042],[-100.23795364999995,19.566681979403974],[-100.24230304999998,19.569717419403915],[-100.24428387999995,19.573680579403785],[-100.24360067999999,19.58562087940346],[-100.25213924999998,19.617497949402654],[-100.25225344999996,19.623486020402545],[-100.24961633899994,19.627268980402423],[-100.25166285899996,19.627279750402437],[-100.24751921999996,19.63451277040226],[-100.26174745999998,19.65802717940162],[-100.27398971999997,19.672251279401305],[-100.26751688999997,19.67723341940116],[-100.26386947999998,19.695790449400697],[-100.25814894999996,19.69487941940072],[-100.25851571,19.700195680400547],[-100.25257641999997,19.70394099940047],[-100.24369665999996,19.704793219400447],[-100.2406812,19.70862731940036],[-100.24297701999997,19.70853919940038],[-100.24028919999995,19.712881919400225],[-100.23868070999998,19.71138530940027],[-100.23710730999994,19.712482999400287],[-100.23605339999995,19.716146659400156],[-100.23710417999996,19.718633339400107],[-100.23413636999999,19.72003622940008],[-100.23224279999995,19.720504259400045],[-100.23137127999996,19.71759022940012],[-100.22969291999999,19.72006341940004],[-100.22580267999996,19.717158049400116],[-100.22878399999996,19.71509370940022],[-100.22611835,19.714869569400232],[-100.22732165999999,19.71334247940024],[-100.22952737999998,19.714077999400192],[-100.23176948999998,19.710550169400296],[-100.23118176999998,19.708623019400363],[-100.22959325999994,19.708532119400346],[-100.23082130999997,19.707264849400396],[-100.22948997999998,19.70220574940054],[-100.22098496999996,19.70280168940051],[-100.21759421999997,19.705155289400444],[-100.21587356999999,19.703385659400478],[-100.20414999999997,19.704623349400485],[-100.19707205999998,19.70069407940057],[-100.19678617999996,19.70225396940054],[-100.19223505999999,19.701637739400514],[-100.19211205999996,19.697137779400638],[-100.19025002999997,19.698189419400627],[-100.18600621999998,19.712972249400256],[-100.17005345999998,19.712947089400245],[-100.17084507999999,19.711177309400277],[-100.16933971999998,19.707739109400368],[-100.15562257999996,19.721954999400005],[-100.15940810999996,19.72400233939994],[-100.15976457999994,19.726050539399942],[-100.15748759999997,19.72728894939989],[-100.1557858,19.72520885939995],[-100.14818575,19.72821519939983],[-100.14644585999999,19.73235934939973],[-100.14712654999994,19.741843939399487],[-100.14340777999998,19.74953931939933],[-100.14532281899994,19.757177969399116],[-100.14475605899997,19.764313909398947],[-100.14932848999997,19.766785219398862],[-100.14511365199996,19.771117689398753],[-100.14605434899994,19.77858913939859],[-100.14186484999999,19.787388319398353],[-100.14694077999997,19.79796464939808],[-100.14288528999998,19.803523849397937],[-100.14669650999998,19.812848109397727],[-100.14331388999994,19.818925349397528],[-100.14433948999995,19.823771649397415],[-100.14260847999999,19.82878721939729],[-100.13148713999999,19.852013859396713],[-100.12711839999997,19.85398461939668],[-100.12603906,19.856321079396604],[-100.12290985999995,19.8569035193966],[-100.10204782999995,19.853992579396678],[-100.09485362999999,19.860426980396497],[-100.08748121999999,19.860416999396495],[-100.06706024999995,19.855082849396624],[-100.06335633999998,19.854553079396684],[-100.06303281899996,19.855808629396638],[-100.06427233999996,19.85619347939662],[-100.06318391999999,19.860016289396498],[-100.06470499899996,19.862823119396417],[-100.06697307999997,19.86328081939644],[-100.06720305999994,19.86173551939644],[-100.07104497999997,19.86307051939646],[-100.10241977,19.879710179396042],[-100.11423059999998,19.901431519395484],[-100.11747477999995,19.904014819395393],[-100.11916874999997,19.912100219395217],[-100.13012248999996,19.9161930493951],[-100.13139411999998,19.9820018593934],[-100.12444045999997,19.99684590939304],[-100.11602354999997,20.006129709392802],[-100.12316982999994,20.00769573939277],[-100.12524019999996,20.0121751493927],[-100.13063294999995,20.009651319392727],[-100.13773150999998,20.010753999392723],[-100.14448741999996,20.00520488939286],[-100.15376954999995,20.006389819392798],[-100.15507771999995,20.00744062939281],[-100.15507902999997,20.013471659392636],[-100.15769502999996,20.017914859392537],[-100.15587665999999,20.02450984939237],[-100.15865697999999,20.035769879392063],[-100.15454245999997,20.0350876893921],[-100.15332016899998,20.05367405939161],[-100.14691107899995,20.055171020391576],[-100.14636337999997,20.052242400391656],[-100.14177508999997,20.04787941939179],[-100.13935061999996,20.042970509391868],[-100.13793736999999,20.04431153939184],[-100.13807879999996,20.04756442939174],[-100.14333307999999,20.05079039939168],[-100.14710050999999,20.05766970939149],[-100.15215602999997,20.05727951939154],[-100.16264041999996,20.063045999391367],[-100.15883710599996,20.06568188939134],[-100.16211913999997,20.067529969391284],[-100.15720681999996,20.07068113939118],[-100.15809931999996,20.07472031939108],[-100.16350527999998,20.076272739391026],[-100.16446219999995,20.078346519390973],[-100.16684099999999,20.074835279391095],[-100.17170319999997,20.078224149390987],[-100.17282104999998,20.07332405939113],[-100.17673559999997,20.0709094793912],[-100.18308722999996,20.073855429391102],[-100.1788992,20.081267919390942],[-100.17982648999998,20.08300216939088],[-100.18349399999994,20.08273917939087],[-100.18500081999998,20.080284569390958],[-100.18790878,20.079895219390938],[-100.18929868999999,20.076396859391043],[-100.19321579999996,20.07483044939106],[-100.19747439999999,20.07710834939103],[-100.20294108999997,20.076649369391024],[-100.20154810999999,20.077663509391005],[-100.19739282999996,20.12988845938973],[-100.23560354999996,20.14345857938938],[-100.22939430999998,20.14694548938929],[-100.22749321999999,20.14998879938922],[-100.22192264999997,20.15062742938918],[-100.21332076999995,20.156833689389014],[-100.20943582999996,20.16131081938891],[-100.20956673999996,20.163453769388852],[-100.20377951999997,20.16702028938876],[-100.20333108999995,20.171784909388652],[-100.19186384899996,20.17600007938854],[-100.18841276999996,20.194224939388064],[-100.18534341999998,20.194273369388114],[-100.18419347999998,20.189423079388195],[-100.18114401999998,20.208800539387695],[-100.18388073999995,20.209015399387724],[-100.18453664999998,20.21164933938767],[-100.19645484999995,20.222276939387363],[-100.20715261999999,20.229421519387238],[-100.22162485799998,20.23457831238706],[-100.22430009,20.237877139386963],[-100.24512633999997,20.25036442938667],[-100.26045664999998,20.267509939386223],[-100.30929561999996,20.2823596793859],[-100.30750577999999,20.2855750793858],[-100.34583310999994,20.298000219385496],[-100.35065647999994,20.288413089385738],[-100.34585810999995,20.284442909385824],[-100.34741570999996,20.280471859385912],[-100.34408771999995,20.272944262386126],[-100.34190867999996,20.273620889386127],[-100.33910845999998,20.271844719386138],[-100.33423185999999,20.2653741793863],[-100.33106781999999,20.26676282938628],[-100.32937807999997,20.26304957938634],[-100.32576305999999,20.261020379386412],[-100.32729997999998,20.257728449386505],[-100.32355836999996,20.251934019386674],[-100.33281062999998,20.242648999386855],[-100.34149856999994,20.239113179386973],[-100.34184853999994,20.232149249387167],[-100.34351801999998,20.22896371938718],[-100.34614202999995,20.22770365938722],[-100.34746768999997,20.224694399387303],[-100.34995889,20.22424728938733],[-100.35022113999999,20.2214124293874],[-100.35523671,20.21901834938748],[-100.35388010999999,20.21324505938764],[-100.35529081999995,20.211130059387692],[-100.35263193999998,20.20632750938778],[-100.35234250999999,20.200460879387926],[-100.35023728999995,20.199069149387988],[-100.34596964999997,20.20097990938793],[-100.34542091999998,20.19654942938804],[-100.34233364999994,20.195488999388072],[-100.34030844999997,20.18973691938818],[-100.35583669,20.182385939388414],[-100.35388716999995,20.179523419388474],[-100.36112757999996,20.17256062938866],[-100.36124116999997,20.16949559938872],[-100.35892493999995,20.167221599388775],[-100.36987894999999,20.146666969389308],[-100.37088694,20.136185419389562],[-100.38360804999998,20.12914634938971],[-100.39151167999995,20.12103317938992],[-100.38529153999997,20.104505579390317],[-100.39725667999994,20.096952749390546],[-100.38975110999998,20.080822939390963],[-100.36725011999994,20.067487509391253],[-100.35826367999994,20.064916459391355],[-100.36063936999994,20.054276849391613],[-100.36204081999995,20.05343662939165],[-100.35870610999997,20.047739749391788],[-100.35438439999996,20.027790619392295],[-100.35496965999994,20.01011957939271],[-100.35927413999997,20.00974230939272],[-100.36050504999999,20.02396068939234],[-100.36470827999995,20.019708229392478],[-100.37040326,20.021265579392416],[-100.36293111999998,19.98986107939321],[-100.38682934999997,19.988906779393243],[-100.40501887999994,19.98383184939339],[-100.40977859999998,19.987525249393265],[-100.41400134999998,19.98572504939332],[-100.42478010999997,19.98408248939337],[-100.43123564999996,19.98517499939332],[-100.44358387999996,19.982284999393425],[-100.44967156999996,19.982677599393394],[-100.46271150999996,19.988497479393246],[-100.46582434999999,19.98739802939331],[-100.46202993999998,19.983485599393394],[-100.46245566,19.979268289393495],[-100.47017019999998,19.9799835093935],[-100.46998219999995,19.97556228939356],[-100.47359704999997,19.972334249393693],[-100.48899577999998,19.966208229393835],[-100.49818422999999,19.958043199394062],[-100.50558285999996,19.95794339939402],[-100.50895825999999,19.959416019394002],[-100.51168708999997,19.958216089394043],[-100.51031328999996,19.953360749394164],[-100.51183759999998,19.942221079394407],[-100.51570408999999,19.9404542493945],[-100.51600457999997,19.93660642939456],[-100.51746008999999,19.9365758793946],[-100.52171347999997,19.92772767939478],[-100.51994644999998,19.91882004939499],[-100.52929585,19.920220829395003],[-100.53600850999999,19.923006599394927],[-100.53408277999995,19.93238427939469],[-100.53472996999996,19.936285919394585],[-100.52932647999995,19.940979999394443],[-100.52927856999999,19.95172085939416],[-100.52677939999995,19.96576044939385],[-100.52820130999999,19.97425730939361],[-100.53182333999996,19.9763944893936],[-100.53568003,19.974360219393635],[-100.54063117999999,19.97492928939358],[-100.54242836999998,19.972831219393655],[-100.53504084999997,19.971974429393676],[-100.53393422999996,19.969214819393752],[-100.54124945999997,19.964585199393863],[-100.54347265999996,19.961253599393974],[-100.55071702,19.95796596939401],[-100.56011241999994,19.959103629394022],[-100.56548167999995,19.966139319393804],[-100.57162881999996,19.96473733939387],[-100.57996514999998,19.95751497939404],[-100.58413905999998,19.959023689394],[-100.58946757999996,19.95668096939405],[-100.59307573999996,19.958280369394053],[-100.59385607999998,19.963930889393858],[-100.58759407999997,19.971390339393675],[-100.58062042999995,19.975040979393633],[-100.56569885999996,19.97453119939362],[-100.56229448,19.980321379393498],[-100.55858971999999,19.982875029393412],[-100.55897816999999,19.984569169393353],[-100.55678185999994,19.98529836939336],[-100.55789488999994,19.991715549393177],[-100.57671013999999,19.99306077939316],[-100.59560330999994,19.991662019393164],[-100.59433488999997,19.989817049393235],[-100.59852287999996,19.988300569393253],[-100.60612431,19.982179259393444],[-100.61757337999995,19.95769254939403],[-100.64886899999999,19.958001219394014],[-100.66038133999996,19.964548339393836],[-100.67181848999996,19.958524019393998],[-100.68064848999995,19.950463150394224],[-100.69496006099996,19.947670829394294],[-100.70429358099994,19.94276732039444],[-100.71881735099998,19.940519369394483],[-100.73280713999998,19.93061930839474],[-100.74371276999995,19.916744708395083],[-100.74875278099996,19.91275018039516],[-100.75350435099995,19.917124489395064],[-100.76516890999996,19.915838029395086],[-100.77199730999996,19.917924569395026],[-100.77420996999996,19.915400769395127],[-100.77881361899995,19.915149689395143],[-100.78113090999994,19.91889990839504],[-100.78086950999996,19.923989569394905],[-100.78368455099996,19.936078950394606],[-100.79066794,19.945431829394366],[-100.79206393899996,19.955574799394064],[-100.80220934,19.95834004839405],[-100.81238510999998,19.971388029393715],[-100.82430144899996,19.978329089393505],[-100.83286911999996,19.97239531939365],[-100.82996959999997,19.959722719394],[-100.83022681999995,19.954134289394144],[-100.83397494999997,19.947163569394302],[-100.83576182999997,19.934596429394627],[-100.85452399999997,19.934914139394614],[-100.85470803,19.939346419394514],[-100.85301287999994,19.94165093939444],[-100.85623224999995,19.942311979394436],[-100.85721297999999,19.94661576939432],[-100.86028595,19.94894296939429],[-100.86389023,19.94872771939424],[-100.86420101999994,19.94646601939434],[-100.87270385999994,19.944046509394415],[-100.88261279999995,19.9439262593944],[-100.90158590999994,19.959505829394015],[-100.90601107999998,19.961582679393942],[-100.91109822,19.961714479393958],[-100.91592281999999,19.957924549394022],[-100.92365157999997,19.958245309394027],[-100.92979127899997,19.95643152039409],[-100.93258188899996,19.953490850394125],[-100.93562837999998,19.957191569394084],[-100.94753937999998,19.96254522939391],[-100.94787934999994,19.933563059394643],[-100.96441001999995,19.92827470939477],[-100.97184010999996,19.929976719394762],[-100.97661633999996,19.93533874939458],[-100.97936816999999,19.952911629394187],[-100.98190114999994,19.95301673939417],[-100.98079122999997,19.955221079394104],[-100.98198468,19.95605811939405],[-100.99807097999998,19.954588769394107],[-101.00088608999994,19.952332689394172],[-101.00344269,19.953556259394116],[-101.00221848999996,19.962495969393945],[-101.00256610999998,19.965194059393838],[-101.00458281999994,19.9665898293938],[-100.98784348999999,19.978978979393474],[-100.97670924999994,19.98273844939341],[-100.97743824999998,19.985255349393345],[-100.98052470999995,19.98721639939326],[-100.97926925999997,19.993802889393127],[-100.98339967999999,19.996542049393085],[-100.98270077999996,20.00263064939293],[-100.97277971999995,20.002088949392896],[-100.96814685999999,20.00696857939278],[-100.96733467999998,20.00991433939269],[-100.96806464999997,20.011965229392665],[-100.97817625999994,20.016729179392524],[-100.98081905,20.023449969392384],[-100.98785364999998,20.026917859392263],[-100.99340134,20.02728301939225],[-100.99758727999995,20.0255877793923],[-101.00279137999996,20.02838045939225],[-101.00808917999996,20.028093179392258],[-101.00436654999999,20.03032017939221],[-101.00513614999994,20.03492701939209],[-101.00356661999997,20.037963999392012],[-101.01270153999997,20.037758119392006],[-101.01229761999998,20.039556429391986],[-101.01421074999996,20.040345679391937],[-101.01398657,20.045711289391807],[-101.00016697999997,20.060156229391485],[-100.99271514999998,20.064489659391352],[-101.00916602999996,20.079534049390983],[-101.01727794,20.085695229390815],[-101.02135265999999,20.086944749390774],[-101.03525956999994,20.087335979390758],[-101.04008652,20.088978119390717],[-101.04290108999999,20.09195416939068],[-101.04883424999997,20.08960836939073],[-101.05104296999997,20.09113079939066],[-101.07485961999998,20.08838817939073],[-101.07996785899996,20.082816050390903],[-101.09427717999995,20.0820388293909],[-101.11054361999999,20.076043579391037],[-101.11392207999997,20.077233289391017],[-101.11496562999997,20.0750446793911],[-101.11757530999995,20.07491184939107],[-101.11751881899995,20.073272819391132],[-101.11968904999998,20.073528579391137],[-101.11948141999994,20.071021739391185],[-101.12605371999996,20.06435044939136],[-101.13314707999996,20.059984659391468],[-101.15437108999998,20.08502965939081],[-101.15660741899995,20.083810019390846],[-101.15854885999994,20.086880660390797],[-101.16519110999997,20.08716296939079],[-101.16640590999998,20.091235879390688],[-101.17111710999995,20.093979569390598],[-101.17355601999998,20.097811089390508],[-101.17523716999996,20.097116309390533],[-101.17263376999995,20.084940059390846],[-101.17051471999997,20.084617909390857],[-101.16966007999997,20.082308139390914],[-101.17362836999997,20.07624362939102],[-101.17088625999999,20.075695419391064],[-101.17161976999995,20.073451719391116],[-101.17401437999996,20.07210484939118],[-101.17668294999999,20.06450830939137],[-101.17908464999995,20.062433849391404],[-101.19631845999999,20.05718854939152],[-101.18137016999998,20.05337193939162],[-101.17168913999997,20.04750614939179],[-101.16664039999996,20.042465679391928],[-101.16711050999999,20.045383689391837],[-101.16390082999999,20.04591799939179],[-101.15995033999997,20.04193061939193],[-101.16035150999996,20.040200149391932],[-101.18229476999994,20.026861079392308],[-101.19131284999997,20.027283179392274],[-101.19628173999996,20.024861489392336],[-101.20153181999997,20.0257385493923],[-101.20305550999996,20.007224149392812],[-101.21347622999998,20.010808509392707],[-101.22072632,20.011436279392694],[-101.22998833999998,20.022936429392423],[-101.23035702999995,20.027266029392322],[-101.23834596999995,20.032118549392177],[-101.24723381999996,20.027738249392247],[-101.24725687999995,20.025830569392305],[-101.25076554999998,20.023264029392408],[-101.24996607999998,20.028419849392236],[-101.25303053999994,20.03549607939206],[-101.28097217999999,20.027544059392255],[-101.28316977999998,20.030713049392173],[-101.29645952,20.038644779391973],[-101.30682774999998,20.03772510939202],[-101.30875625999994,20.03624827939206],[-101.31647507999998,20.03742437939204],[-101.32137182999998,20.03316647939212],[-101.33403924999999,20.031522749392153],[-101.33726384999994,20.032779979392135],[-101.34820737999998,20.03211117939219],[-101.35407202999994,20.038398459392003],[-101.36991137999996,20.036448539392044],[-101.37494653999995,20.04042885939199],[-101.38171241999999,20.033518339392128],[-101.38813621999998,20.030409879392185],[-101.39199422999997,20.033840909392108],[-101.39764117999994,20.0341389993921],[-101.39971944999996,20.03631944939207],[-101.40168027999994,20.035009049392084],[-101.40260804999997,20.047030459391767],[-101.39427778,20.052911819391664],[-101.39621747999996,20.064937479391318],[-101.39544667999996,20.069959819391226],[-101.39389844999994,20.07501316939107],[-101.38894584999997,20.07849221939099],[-101.38751314999996,20.08296124939087],[-101.39231461999998,20.083307579390876],[-101.40469588999999,20.080195179390934],[-101.40552221899998,20.097619919390525],[-101.40324917999999,20.100156319390454],[-101.40834194999996,20.102632649390372],[-101.40738027999998,20.105706379390334],[-101.40432631999995,20.106790919390274],[-101.40868904999996,20.123133829389847],[-101.40282697999999,20.127295059389773],[-101.39560716999996,20.12841888938972],[-101.39100771999995,20.127120719389765],[-101.38918491999999,20.130347979389708],[-101.38937599999997,20.13486376938956],[-101.39226494999997,20.139429519389484],[-101.39123262999999,20.139739749389456],[-101.39237494999999,20.14402891938934],[-101.40028573999996,20.141435319389387],[-101.40360374999995,20.142116489389373],[-101.40634581999996,20.144321119389318],[-101.40906147999999,20.152287719389147],[-101.41443259999994,20.156132689389047],[-101.41647059999998,20.161675779388908],[-101.42249824999999,20.163226319388855],[-101.42368902999999,20.169890689388694],[-101.41989112,20.201590579387922],[-101.40560171999995,20.20332297938786],[-101.38798805999994,20.20132822938792],[-101.36319816999998,20.19579441938802],[-101.35261808999996,20.23493219938708],[-101.36105127999998,20.246308229386802],[-101.36051947999994,20.24905573938674],[-101.39532437999998,20.248549339386745],[-101.40647731999996,20.263630749386355],[-101.41559130999997,20.264758739386313],[-101.42056247999994,20.275203919386037],[-101.43548210999995,20.277380829385976],[-101.43685730999994,20.263785319386365],[-101.44610617999996,20.263912379386312],[-101.45593046,20.26716967938626],[-101.45896853999994,20.27019790938617],[-101.45657407999995,20.27117273938616],[-101.45625733999998,20.273924889386098],[-101.45381161999997,20.2739737793861],[-101.45837179999997,20.27602088938603],[-101.45717071999997,20.285142089385776],[-101.44925417999997,20.287482169385733],[-101.44826441999999,20.28958148938569],[-101.44498464999998,20.289725429385676],[-101.44455368999996,20.29510174938559],[-101.44972297,20.29822891938547],[-101.44039337999999,20.30352633938537],[-101.44019704999995,20.30519281938531],[-101.45669661999995,20.304370479385323],[-101.45492453999998,20.31785071938497],[-101.45154301999997,20.317838919384975],[-101.45094221999994,20.31949831938493],[-101.45682304999997,20.319265089384945],[-101.45881712,20.323284919384857],[-101.46491004999996,20.329010829384735],[-101.47259914999997,20.33124796938466],[-101.48022727999997,20.330174479384674],[-101.49141911999999,20.318186479384998],[-101.49324157999997,20.31400554938508],[-101.50106823,20.311672539385167],[-101.50450344999997,20.31895030938496],[-101.50143485999996,20.320906049384938],[-101.50288231999997,20.324876599384798],[-101.50697642999995,20.324457109384802],[-101.50989530999999,20.31934005938495],[-101.51417553999994,20.317911769384953],[-101.52415645999999,20.321230829384902],[-101.52178250999998,20.328070279384765],[-101.52293608999999,20.33234694938463],[-101.52939167999996,20.33258736938463],[-101.53781033999996,20.32437524938484],[-101.54195359999996,20.32946594938469],[-101.55326570999995,20.33251579938465],[-101.56329097999998,20.32135010938488],[-101.56143493999998,20.316588539385034],[-101.56578213999997,20.315740949385066],[-101.57079824999994,20.315937799385026],[-101.57213933999998,20.3212108293849],[-101.57574327999998,20.321324399384885],[-101.57783314999995,20.326384419384787],[-101.58309771999996,20.327359819384725],[-101.58444241499996,20.316721739385013],[-101.58881094899999,20.313345449385093],[-101.58924477999996,20.309601820385204],[-101.59600754999997,20.311845280385135],[-101.60093284899996,20.31005274038518],[-101.59910651899997,20.306559620385297],[-101.60107413999998,20.298018540385474],[-101.60399559899997,20.2980350493855],[-101.60567907999997,20.29977068938544],[-101.60468499999996,20.30942439938523],[-101.60852344999995,20.309746889385192],[-101.61127087999995,20.31272450938514],[-101.61777549,20.312403219385157],[-101.61992744999998,20.31550330938506],[-101.62465427999996,20.31458037938507],[-101.62754599999994,20.309558909385228],[-101.62579230999997,20.305605219385324],[-101.62922382999996,20.298683949385474],[-101.62842844999994,20.295923679385535],[-101.63492082999996,20.288967449385694],[-101.63230613999997,20.28397477938583],[-101.62396914,20.276108349386064],[-101.62553399999997,20.26699768938625],[-101.62839767999999,20.2647729093863],[-101.63203415,20.264788659386294],[-101.63235328999997,20.269504349386185],[-101.63436808999995,20.271181799386138],[-101.63703064999999,20.269830679386185],[-101.63883771999998,20.26581577938627],[-101.64252064999995,20.26764637938622],[-101.64356296999996,20.261898479386407],[-101.64677249,20.26006334938645],[-101.65092645999994,20.253484019386583],[-101.64401682,20.247165709386756],[-101.64625231999997,20.238668049386984],[-101.65244301999998,20.23958664938694],[-101.65457717,20.243496459386876],[-101.66330801999999,20.237579979387032],[-101.66364424999995,20.231737219387163],[-101.66773254999998,20.227179859387242],[-101.66734856999994,20.22186859938739],[-101.66925956999995,20.219415599387453],[-101.66558985999997,20.215854149387535],[-101.66847436999996,20.213135139387642],[-101.67311881999996,20.212555309387607],[-101.67514450999994,20.217358089387506],[-101.67812337999999,20.21888182738748],[-101.68691674999997,20.217221049387497],[-101.68945610999998,20.21346770938758],[-101.68871127999996,20.2106443793877],[-101.69269394999998,20.20727908938776],[-101.68981799999995,20.200873659387934],[-101.69039407999998,20.19681697938802],[-101.69380001999997,20.191957379388175],[-101.69793488999994,20.18967436938819],[-101.70387078,20.190439599388174],[-101.70602824999999,20.200594319387918],[-101.71062161999998,20.205305979387806],[-101.71586907999996,20.20435770938785],[-101.72594033999997,20.2056179693878],[-101.72723705999995,20.211450029387645],[-101.73119899999995,20.214802309387547],[-101.73222342999998,20.211100519387674],[-101.74276359999999,20.2067791193878],[-101.74351491999994,20.20391237938787],[-101.75716027999994,20.204651169387812],[-101.75939176999998,20.20173190938788],[-101.76443954999998,20.204539689387836],[-101.76791270999998,20.20461362938781],[-101.77684396999996,20.211493799387622],[-101.78230884999999,20.2107514293877],[-101.78464671999996,20.21445570938757],[-101.78401842999995,20.217871419387496],[-101.78661567999995,20.21931844938746],[-101.79406882999996,20.21593774938751],[-101.79933425999997,20.21091465938769],[-101.80383459999996,20.214342489387572],[-101.80911682,20.20438019938784],[-101.81681926,20.201803429387887],[-101.82486071999995,20.201837599387872],[-101.82473085999999,20.203877969387847],[-101.82021571999998,20.205606449387815],[-101.81964610999995,20.208665519387747],[-101.82844391999998,20.214930539387584],[-101.82990379999995,20.21962985938745],[-101.82892667999994,20.221558249387403],[-101.83386617999999,20.224790399387345],[-101.84954129,20.217652369387505],[-101.85605297999997,20.21190059938763],[-101.87159810999998,20.210988849387654],[-101.87202985,20.204429829387816],[-101.87476796999995,20.201991659387872],[-101.87966205,20.20177787938791],[-101.88142862999997,20.199997539387912],[-101.87833606,20.191435949388133],[-101.87919444999994,20.189181509388188],[-101.88161567999998,20.187984149388228],[-101.88419139999998,20.190146779388222],[-101.88811399999999,20.188393339388252],[-101.88876747999996,20.189981779388184],[-101.88619676999998,20.195527419388085],[-101.88836962999996,20.200120479387955],[-101.89302197999996,20.203777229387864],[-101.89851001999996,20.20400921938783],[-101.90143485999994,20.201849119387916],[-101.90470736999998,20.203007689387864],[-101.90796754999997,20.200046059387926],[-101.90999099999999,20.193831459388115],[-101.91789727999999,20.195077319388055],[-101.91937877,20.198002479388013],[-101.91806828999995,20.202950459387896],[-101.91551870999997,20.204033739387853],[-101.91566333999998,20.206699719387792],[-101.90933799999999,20.20340457938785],[-101.90718602999999,20.209932919387672],[-101.90793881999998,20.215152949387573],[-101.91778048999998,20.219331399387453],[-101.92642556999999,20.212259599387625],[-101.92874717999996,20.208352549387712],[-101.93060279999997,20.208121259387738],[-101.93148145999999,20.209483599387706],[-101.92939188999998,20.21378479938759],[-101.93058264999996,20.216399879387524],[-101.92825161999997,20.217277619387513],[-101.93234657,20.225889079387294],[-101.93715384999996,20.225532249387314],[-101.93987262999998,20.227081749387228],[-101.93900987999996,20.23265894938711],[-101.93619871999994,20.237345709387007],[-101.93812931999999,20.241382919386883],[-101.93217165,20.243737909386848],[-101.93437865999995,20.24927002938672],[-101.94494488999999,20.255077419386588],[-101.94648034999994,20.25979308938647],[-101.94359444999998,20.267771539386267],[-101.95118427999996,20.271582569386165],[-101.94580094999999,20.27674931938599],[-101.93686167999999,20.281461079385885],[-101.93772491999994,20.285088539385818],[-101.94531753999996,20.284003319385857],[-101.94714256999998,20.28636157938579],[-101.94021967999998,20.29397596938561],[-101.93531768999998,20.294790079385546],[-101.93454739999999,20.297691460385504],[-101.94358068999998,20.300778149385412],[-101.94954067999998,20.298422599385464],[-101.95232690999997,20.301415909385412],[-101.95991888999998,20.30513593938533],[-101.95905311999996,20.307493369385227],[-101.95568851999998,20.308761919385223],[-101.95626388999996,20.31293334938509],[-101.95001641999994,20.31148054938516],[-101.94895770999995,20.315107399385052],[-101.95953002999994,20.319825949384942],[-101.96347162999996,20.318557419384973],[-101.95568267999994,20.3266259093848],[-101.94731739999999,20.330975939384636],[-101.94404588999998,20.33795722938447],[-101.94471716999999,20.342128849384387],[-101.95135031999996,20.344307489384345],[-101.96233719999998,20.34468945938431],[-101.96899068999994,20.360259749383957],[-101.97622559999998,20.35799764938401],[-101.98706696999994,20.360361909383922],[-101.98970121999997,20.359613879383936],[-101.98994408999994,20.360789429383942],[-101.99639002999999,20.35964321938396],[-101.99694744999994,20.35735396938403],[-101.99891930999996,20.356754769384047],[-102.00003917,20.358122569383973],[-101.99940127999997,20.354717479384053],[-102.00988674999996,20.35333151938409],[-102.01370246,20.350632079384145],[-102.00953282799998,20.338228719384503],[-102.00493190999998,20.332447249384604],[-102.00771521999998,20.326586089384755],[-102.01579711999995,20.329300059384682],[-102.01489068999997,20.332154509384644],[-102.01720376999998,20.336084820384528],[-102.01730596999995,20.341766599384357],[-102.02332021999997,20.343935029384358],[-102.02523490999994,20.347981599384205],[-102.021826649,20.36298369138386],[-102.01006405,20.38185631738342],[-102.01016277999997,20.385332909383298],[-102.01371645999996,20.38881294938321],[-102.01341432,20.393703488383128]]]}}]}
