{"type":"FeatureCollection","features":[{"type":"Feature","properties":{"cve_ent":"17","cvegeo":"17","nombre_inegi":"Morelos","nombre_catalogo":"Morelos"},"geometry":{"type":"Polygon","coordinates":[[[-99.05980023199999,19.04823666241734],[-99.13537901799998,19.089296070416246],[-99.22677777999996,19.096060003416067],[-99.27869521899999,19.131701722415155],[-99.29507790999997,19.122931509415395],[-99.31374411899998,19.098218879416024],[-99.31831897899998,19.087416829416295],[-99.317189059,19.081867199416433],[-99.31909128899999,19.060644879416994],[-99.31616944899997,19.048787219417324],[-99.30857024899996,19.040301349417526],[-99.31749171899997,19.04012584941752],[-99.318906369,19.031068709417784],[-99.31175781999998,19.024650079417956],[-99.31857234899996,19.020305460418072],[-99.31967044899996,19.011271689418287],[-99.31406991899998,19.000554570418565],[-99.30846782899994,18.994005490418736],[-99.31105382899996,18.991653690418804],[-99.30998316799997,18.962414617419523],[-99.30871639899999,18.95879774041966],[-99.31059777199994,18.956853510419716],[-99.31303622899998,18.948117350419942],[-99.31702533899994,18.94311459942006],[-99.31716279899996,18.94000013942013],[-99.32099576899999,18.943224719420048],[-99.32156954899996,18.940289779420134],[-99.32461984899999,18.937406369420227],[-99.33009884899998,18.936696629420204],[-99.33790484899998,18.93239908942032],[-99.33914533899998,18.926532510420497],[-99.34201176999996,18.922517849420608],[-99.34275179899998,18.92392272042055],[-99.34420110899998,18.91866742042071],[-99.34890662899994,18.91645058042074],[-99.35840154899995,18.906476020421014],[-99.36703682999996,18.893998779421338],[-99.373128319,18.898629800421187],[-99.40665362899996,18.89518775042129],[-99.41095701899997,18.878183860421707],[-99.41604397899994,18.87796163042176],[-99.42052364899996,18.87982524942172],[-99.42935451999996,18.877569289421768],[-99.43099890999999,18.86574712042204],[-99.42617867999998,18.864285749422073],[-99.42443410999994,18.860279980422234],[-99.43225919899999,18.857813690422265],[-99.43219570999997,18.85351797942238],[-99.43010702,18.832612460422936],[-99.42588876999999,18.826432970423067],[-99.45097173899995,18.772519949424503],[-99.45588282999995,18.771709449424517],[-99.45569765999994,18.769841919424543],[-99.45899756999997,18.769974637424582],[-99.463318739,18.76718653942465],[-99.46619916999998,18.760980889424786],[-99.46552757999996,18.759090520424863],[-99.46497077999999,18.7601362904248],[-99.4672442,18.751892879425053],[-99.48419944999996,18.732555219425546],[-99.48825945999995,18.7311338794256],[-99.48782548999999,18.728068879425628],[-99.49441414999995,18.720544799425824],[-99.48453594999995,18.69944016942641],[-99.48556288999998,18.695033679426523],[-99.48348956999996,18.69502702942654],[-99.48316988,18.693605019426574],[-99.48127608999994,18.696149309426513],[-99.48016711999999,18.694813399426522],[-99.48291342999995,18.692655019426603],[-99.47757604999998,18.67356525942707],[-99.46441588999994,18.64366999942786],[-99.45809725999999,18.63406139942813],[-99.45388631999998,18.609902319428766],[-99.44609748999996,18.614492689428666],[-99.44120145999996,18.61257399942868],[-99.4399534,18.610980479428697],[-99.44272504999999,18.60316076942892],[-99.44049499999996,18.597464399429064],[-99.43517941999994,18.598067939429093],[-99.43564333999996,18.592761379429227],[-99.42938101999994,18.588920909429323],[-99.42339554999995,18.591277149429242],[-99.42193761999994,18.58891039942928],[-99.41970445,18.59033665942926],[-99.42022330999998,18.58622979942939],[-99.42529444999997,18.579127549429582],[-99.42288217999999,18.56206787942999],[-99.40780442999996,18.556066369430166],[-99.40072002999995,18.542894849430496],[-99.40080559999996,18.539535379430625],[-99.39923129,18.54040679943056],[-99.39027117999997,18.52568282943096],[-99.38529848999997,18.52628301943095],[-99.38387731999995,18.52115205943111],[-99.37921611999997,18.520530689431094],[-99.3723854,18.507890539431443],[-99.36295191999994,18.499026719431683],[-99.36418270999998,18.49770822943171],[-99.36423968999998,18.485144179432055],[-99.35505336999995,18.476737819432245],[-99.35740425999995,18.467669169432458],[-99.34344565999999,18.467127859432516],[-99.35070674999999,18.478970509432205],[-99.35267525999996,18.485980829432037],[-99.34605636999999,18.48394801943208],[-99.34555553999996,18.482296539432095],[-99.33560613999998,18.483866909432088],[-99.32826428,18.488831539431914],[-99.32983599999994,18.465229339432568],[-99.32836782,18.45954024943268],[-99.31215225999996,18.454787319432818],[-99.31068819999996,18.457018999432783],[-99.30423664999995,18.459473379432726],[-99.28776167999996,18.457276079432756],[-99.28741399999997,18.458769449432708],[-99.28407731,18.456418579432782],[-99.28192122999997,18.457532579432783],[-99.28014514999995,18.454576489432803],[-99.24760733999994,18.450999249432932],[-99.24618587999998,18.45171188943292],[-99.24600705999995,18.45643336943281],[-99.20542162999999,18.456588799432804],[-99.20442934999994,18.455281949432795],[-99.20667402999999,18.447434429433013],[-99.18881625999997,18.435206349433336],[-99.17790536999996,18.424745249433624],[-99.18233913999995,18.436130229433328],[-99.18131507999999,18.448417749432977],[-99.17047968999998,18.455223619432793],[-99.16394094999998,18.462629229432636],[-99.16031536999998,18.464334489432584],[-99.15846090999997,18.46361927943259],[-99.15612756999998,18.46634842943251],[-99.14912030999994,18.467436949432482],[-99.14679816999995,18.464881339432544],[-99.14484242999998,18.466910349432492],[-99.14241122,18.465285339432544],[-99.14270977999996,18.467843819432474],[-99.14116444999996,18.46908381943244],[-99.14455173999994,18.472718719432354],[-99.14487745999998,18.47554937943231],[-99.14062334999994,18.4749730894323],[-99.14057282,18.470668249432432],[-99.13788767999996,18.46956890943246],[-99.13943402999998,18.46405147943256],[-99.13401057999995,18.45796281943273],[-99.13609828999995,18.449186949432995],[-99.13267408999997,18.446402849433017],[-99.13239697999995,18.443663769433137],[-99.12984297999998,18.440927569433185],[-99.12520024999998,18.442451679433137],[-99.12439524999998,18.441239649433196],[-99.12495879999994,18.436275889433325],[-99.13011862999998,18.432216879433433],[-99.12831485999999,18.427308979433576],[-99.11393568999995,18.418819279433762],[-99.11065777,18.419074579433754],[-99.10849227999995,18.416333849433848],[-99.10772811,18.409912539434007],[-99.10051832,18.401188999434236],[-99.09560871999997,18.40187005943419],[-99.08954688999995,18.3999857194343],[-99.08415253999999,18.39136799943451],[-99.07853644999994,18.387065969434605],[-99.08125645999996,18.37311470943496],[-99.07921544999999,18.372688519435002],[-99.07283925999997,18.377312459434865],[-99.07120205999996,18.37039630943505],[-99.06629571999997,18.3677801994351],[-99.06620194999995,18.35938856943537],[-99.07117850999998,18.359480219435323],[-99.06985461999994,18.350423449435585],[-99.07598710999997,18.342841889435775],[-99.07282217999995,18.33632454943593],[-99.06547819999999,18.33237628943607],[-99.06234333999998,18.333297289436054],[-99.05768917999995,18.338457689435895],[-99.05877251999999,18.348855519435602],[-99.04852624999995,18.351241769435575],[-99.04695004999998,18.355133429435423],[-99.04342514999996,18.355838029435418],[-99.04353957999996,18.359448709435334],[-99.03836782999997,18.35878571943538],[-99.03521690999997,18.362894799435246],[-99.03562542999998,18.3654796594352],[-99.03144068999995,18.364941689435177],[-99.03146314999998,18.367430919435144],[-99.02613287999998,18.372248569435023],[-99.02361013999997,18.37245387943497],[-99.02437714999996,18.37563416943493],[-99.01990239999999,18.378194709434858],[-99.01817508,18.387784369434623],[-99.01555408999997,18.386308379434645],[-99.01309719999995,18.388641659434597],[-99.01312654999998,18.386405709434648],[-99.00976007999999,18.385970979434617],[-99.00536487999995,18.389910219434537],[-99.00093491999996,18.3882571494346],[-98.99818544999995,18.389718879434533],[-98.99917429,18.39223516943448],[-98.99699219999997,18.393962949434435],[-98.99266450999994,18.395846829434376],[-98.99063162999994,18.394760179434417],[-98.99072434,18.39737404943435],[-98.98793867999996,18.397063769434347],[-98.98902457999999,18.398691949434316],[-98.98706367999995,18.400233149434285],[-98.98659166,18.404816619434165],[-98.98350854999995,18.405421659434136],[-98.98687248999994,18.40948282943403],[-98.98590107999996,18.411116169434],[-98.98769482999997,18.41185062943396],[-98.98609448999999,18.413801179433925],[-98.98398009,18.413755349433895],[-98.98629854999997,18.416382949433864],[-98.98323670999999,18.41840704943378],[-98.98537244999994,18.42115397943371],[-98.98170922999998,18.42359222943365],[-98.97898231,18.422471939433663],[-98.97798897999996,18.42398862943364],[-98.97397036999996,18.417139049433825],[-98.97034593999996,18.41889165943376],[-98.96170933999997,18.4184027794338],[-98.95918404999998,18.420329199433713],[-98.95599764999997,18.419730619433754],[-98.95520877999996,18.417736829433778],[-98.95143381999998,18.41763341943383],[-98.94957317999996,18.419274659433757],[-98.94940314999997,18.42260864943366],[-98.94439894999994,18.42044571943371],[-98.94063674999997,18.42341284943364],[-98.93952282999999,18.421950519433693],[-98.93515194999998,18.422903849433695],[-98.92953711999996,18.427484879433553],[-98.92455496999997,18.42930236943352],[-98.92244087999995,18.428277079433517],[-98.91931731999995,18.43196484943342],[-98.92033251999999,18.44229913943315],[-98.91495374999994,18.441424569433178],[-98.91451437999997,18.44354908943311],[-98.91517228999999,18.457821249432747],[-98.91326099999999,18.459465949432698],[-98.90540576999996,18.459739709432714],[-98.91163481999996,18.460249719432674],[-98.91222061999997,18.462121629432648],[-98.89690087999999,18.46593567943252],[-98.89350521999995,18.46905810943245],[-98.87994494999998,18.473566919432333],[-98.87057954999995,18.479202319432204],[-98.86428171999995,18.47962874943219],[-98.86101673999997,18.477124059432246],[-98.8504086,18.478034659432222],[-98.84582199999994,18.481897879432147],[-98.84608524999999,18.483201049432076],[-98.84450821999997,18.483235519432082],[-98.84436013999999,18.490260889431898],[-98.83645027999995,18.49457590943177],[-98.83950687999999,18.50382759943151],[-98.84341379999996,18.505884279431466],[-98.84184825999996,18.507264059431467],[-98.83850781999996,18.50690948943146],[-98.84034405999995,18.512771619431266],[-98.83454597999997,18.52116951043107],[-98.82818017999996,18.521894579431052],[-98.82684331999997,18.522585219431043],[-98.82776625899999,18.523885542431028],[-98.82062611999999,18.519455089431137],[-98.81774771999994,18.520928739431085],[-98.81640861999995,18.518178079431152],[-98.81243359999996,18.52033701943111],[-98.81055893999996,18.51931282943112],[-98.81128577,18.51532787943122],[-98.80938322999998,18.515885059431252],[-98.80866324999994,18.5138925994313],[-98.81050211999997,18.512029549431297],[-98.80747167999999,18.510463749431356],[-98.80676944999999,18.50747408943146],[-98.80270569,18.505326859431477],[-98.80381514999999,18.50243197943156],[-98.79982599999994,18.50276201943156],[-98.79895422,18.498089369431693],[-98.79345694999995,18.497208139431713],[-98.79340554999999,18.494454369431764],[-98.78910370999996,18.490962919431908],[-98.78708050999997,18.492665739431843],[-98.78631497999999,18.48932054943192],[-98.78336130999998,18.48780248943194],[-98.78677324999995,18.484627179432067],[-98.77963559999996,18.480386619432142],[-98.77476027999997,18.48218144943209],[-98.77120917999999,18.477399569432237],[-98.76100082999994,18.47544562943226],[-98.76070791999996,18.472207819432374],[-98.75826953999996,18.472479919432384],[-98.75775181999995,18.46290934943264],[-98.75401747999996,18.461944999432664],[-98.75601939999997,18.45779199943274],[-98.75349390999999,18.45720794943277],[-98.75219134999998,18.45392419943287],[-98.74922876899996,18.453587982432843],[-98.74759354999998,18.4514343194329],[-98.74496028999994,18.45458007943281],[-98.73808317999999,18.45573791943281],[-98.73462481999996,18.443974949433105],[-98.72695276999998,18.43953311943326],[-98.71347916999997,18.445563399433038],[-98.70669911999994,18.44511223043308],[-98.70669782,18.448320770433],[-98.71162368899996,18.452161569432903],[-98.70587105999994,18.45590020043283],[-98.71028305899995,18.45742088043279],[-98.70813017999997,18.458145149432752],[-98.71025176899998,18.463015420432583],[-98.70604442899997,18.463936450432588],[-98.70991061999996,18.464894829432566],[-98.71041556899998,18.468066819432483],[-98.70446204999996,18.471827860432395],[-98.70755731999999,18.472738540432378],[-98.70534717899994,18.475692830432276],[-98.70766556899997,18.47874111043218],[-98.70386114999997,18.47852280043221],[-98.70246279899999,18.479924939432173],[-98.70294539999999,18.486033910432006],[-98.69953264899999,18.4896755794319],[-98.69897387999998,18.494980490431754],[-98.70180621999998,18.496986089431733],[-98.707330089,18.492850850431847],[-98.70818897999999,18.495123259431786],[-98.70651354899998,18.49703176943169],[-98.70835179999996,18.497917800431676],[-98.704310939,18.504077940431532],[-98.70667227899997,18.511367880431354],[-98.70193993999999,18.51218594943133],[-98.70934965,18.51357506043128],[-98.71336157999997,18.52056473943111],[-98.71090524899995,18.520814940431066],[-98.70930957999997,18.524963850430986],[-98.70698599899998,18.524467720431],[-98.70648064899996,18.531316489430814],[-98.70332585999995,18.532519680430788],[-98.70275108,18.53878697943063],[-98.70688973999995,18.5437775504305],[-98.70750228999998,18.547385400430382],[-98.70529130899996,18.551779829430277],[-98.71228756899997,18.557328600430136],[-98.70970759999994,18.558266710430104],[-98.71008350899997,18.55943742943008],[-98.71448254899997,18.55971690943009],[-98.71667356999995,18.565919979429903],[-98.71377301899997,18.56541594942991],[-98.714357319,18.567702169429886],[-98.711814749,18.56998873942979],[-98.71580674899998,18.568482250429827],[-98.71461530899995,18.571432510429783],[-98.71676899999994,18.573112679429727],[-98.71584147899995,18.574250879429666],[-98.71295385899998,18.57283374042974],[-98.71171748999997,18.5736793094297],[-98.71437659999998,18.57793221942957],[-98.71256629,18.587957599429313],[-98.71568313999995,18.59496325942914],[-98.71751507999994,18.595535119429105],[-98.71725765999999,18.599019999429036],[-98.71983996999995,18.600708999429003],[-98.71776571999999,18.602890459428913],[-98.71926882999999,18.604985029428853],[-98.71675567999995,18.604429079428893],[-98.71354904999998,18.60630976942884],[-98.71402250999996,18.61328879942869],[-98.71142630999998,18.616454749428584],[-98.71249216999998,18.62130864942846],[-98.71690036999996,18.625750579428335],[-98.71610767999995,18.629196509428233],[-98.71773082999994,18.630219279428232],[-98.71748637999997,18.633706459428115],[-98.71919222999999,18.636627949428046],[-98.71779699999996,18.63833171942801],[-98.72086934999999,18.63890316942799],[-98.71876422999998,18.639714889427967],[-98.71847428999996,18.647866279427774],[-98.72099861999999,18.650761489427666],[-98.71936387999995,18.65288191942761],[-98.71989607999996,18.655953369427568],[-98.72452204999996,18.658762539427475],[-98.72735157999995,18.66442281942729],[-98.72751193999994,18.67005516942719],[-98.72945561999997,18.66940808942719],[-98.72879672,18.670680779427162],[-98.73271733999998,18.67377221942707],[-98.73346796999999,18.676120679427015],[-98.73220859999999,18.677508169426996],[-98.73673446,18.684648079426793],[-98.73913945999999,18.69261391942658],[-98.73847177999994,18.696128619426464],[-98.73978472,18.69605394942652],[-98.73913517999995,18.697522349426446],[-98.74188227999997,18.702177169426307],[-98.74122348999998,18.705433859426233],[-98.73905819999999,18.707107569426217],[-98.74130647999999,18.707861119426205],[-98.73599516999998,18.709602619426146],[-98.73533807999996,18.712469449426088],[-98.73372014999995,18.7113157794261],[-98.72964269,18.713417799426047],[-98.72398545999994,18.71906741942589],[-98.72345902999997,18.72487704942573],[-98.72011134999998,18.72789568942563],[-98.71855810999995,18.736563459425454],[-98.71590708999997,18.739189509425387],[-98.72893936999999,18.745236459425215],[-98.73866953999999,18.737165369425444],[-98.75349392,18.742969379425254],[-98.74670885999996,18.75035833942507],[-98.74891977,18.751635599425036],[-98.74782885999997,18.754158149424946],[-98.74883012,18.755429229424948],[-98.74642431999996,18.757406059424888],[-98.74739761999996,18.75855079942484],[-98.73971715,18.766882459424625],[-98.73761159999998,18.773157909424494],[-98.73385822999997,18.778082859424345],[-98.73434384999996,18.783240739424222],[-98.73145239999997,18.785433479424153],[-98.72968961999999,18.791405179423972],[-98.73203845999996,18.795746519423858],[-98.72779824999999,18.80016411942375],[-98.72794570999997,18.80550899942361],[-98.72358659999998,18.806952019423584],[-98.72407004999997,18.811147599423457],[-98.72156250999996,18.813396089423406],[-98.71891522,18.81376464942342],[-98.71766114999998,18.81041784942348],[-98.71725579999998,18.811697749423487],[-98.71627862999999,18.81093057942349],[-98.71446542999996,18.814772149423415],[-98.70714624999994,18.821800969423187],[-98.70843385999997,18.823254229423153],[-98.70620385999997,18.82468942942312],[-98.70676210999996,18.827321379423072],[-98.70453791999995,18.82821353942302],[-98.70539537999997,18.832421849422946],[-98.70346939999997,18.833773029422876],[-98.70498467999994,18.8344160494229],[-98.70293437999999,18.83614501942284],[-98.70271027999996,18.839452479422736],[-98.69986810999995,18.84158042942267],[-98.70082382999999,18.842172429422696],[-98.69734062999999,18.843542489422653],[-98.69737981999998,18.84495625942261],[-98.69506302999997,18.8450727494226],[-98.69491111999997,18.851224109422418],[-98.69148087999997,18.85253596942243],[-98.69012268999997,18.857690419422255],[-98.68852097999996,18.858769949422264],[-98.68715667999999,18.857679319422274],[-98.68407897999998,18.862962599422143],[-98.67921197,18.876074219421817],[-98.68197717,18.875961369421777],[-98.67902632,18.878062029421713],[-98.67401081999998,18.878130449421757],[-98.67210228999994,18.879448399421715],[-98.67233154999998,18.88452241942158],[-98.66872187999996,18.88484296942154],[-98.66486030999994,18.88766542942147],[-98.66729227999997,18.889376969421455],[-98.66417188999998,18.893182819421344],[-98.66421564999996,18.89575964942129],[-98.66131525999998,18.89780901942125],[-98.66471131999998,18.899632979421177],[-98.66592890999999,18.906039719420992],[-98.67291474999996,18.909440859420958],[-98.68141454999996,18.907167319420974],[-98.68796225999995,18.8984599694212],[-98.69458261999996,18.89468768942132],[-98.70031365999995,18.893795709421344],[-98.70282468999994,18.8904531394214],[-98.70218553999996,18.881912780421633],[-98.69775994999998,18.876952519421753],[-98.70180291999998,18.87578814942181],[-98.70446894899999,18.872429630421887],[-98.70791602999999,18.872398849421856],[-98.71107833899998,18.86805391942197],[-98.71347150999998,18.86724361942204],[-98.71396545999994,18.868386719421988],[-98.71379690999999,18.876824549421755],[-98.71107544999995,18.87876387942173],[-98.70568061999997,18.890789619421444],[-98.70756394999997,18.89580596942126],[-98.70734323,18.9028555094211],[-98.70115745999999,18.905129309421046],[-98.69680653999995,18.912574279420852],[-98.69374948999996,18.913365799420838],[-98.69373644999996,18.91463228942079],[-98.68715368999995,18.915407479420775],[-98.67809190999999,18.92371747942056],[-98.67537305999997,18.940301919420108],[-98.67629899999997,18.944661049420006],[-98.67362937999997,18.951665169419844],[-98.66332077999999,18.962512479419537],[-98.66162050999998,18.969684139419325],[-98.65981194999996,18.97078754941935],[-98.65552705,18.98266894941904],[-98.65125307999996,18.988416999418853],[-98.64961170999999,18.999577399418616],[-98.63855367999997,19.007684919418356],[-98.63294664999997,19.015549519418155],[-98.65220273999995,19.00599079941842],[-98.66447447999997,19.00355685941848],[-98.69093074999995,18.96757311941942],[-98.69020971999998,18.96658831941942],[-98.69635176999998,18.964206909419488],[-98.70056096999997,18.95927062941963],[-98.70145337999999,18.954803739419734],[-98.70777950999998,18.950644259419864],[-98.71403711,18.94303233942006],[-98.73335187999999,18.945712119419987],[-98.73710122999995,18.943933649420053],[-98.74749956999995,18.944337049420028],[-98.75304255099998,18.942257648420078],[-98.75555217899996,18.942828418420024],[-98.75642594899995,18.940923779420114],[-98.76305969099997,18.940397819420113],[-98.76685482999994,18.94272617942003],[-98.77277643099997,18.94190410842009],[-98.77498450699994,18.943537690420065],[-98.78089230799999,18.939842045420107],[-98.78530959999995,18.9411593094201],[-98.78611494999996,18.94290094942004],[-98.79208027999994,18.935339879420276],[-98.79501625899996,18.93845441942015],[-98.80317537999998,18.94156530942008],[-98.81685267999997,18.943262539420036],[-98.82077353999995,18.947236169419938],[-98.82145542999997,18.952800749419797],[-98.82645054999995,18.956690879419707],[-98.83055073999998,18.955255369419717],[-98.83589087999997,18.950151769419875],[-98.84071910999995,18.95566624941971],[-98.84516701999996,18.955143369419723],[-98.85947964999998,18.964777939419466],[-98.86000328999995,18.968168539419377],[-98.85793508999996,18.970404339419364],[-98.85733334999998,18.97459190941925],[-98.87000551999996,18.990510399418827],[-98.86809853999995,19.00246888941849],[-98.86889164999997,19.00570473941843],[-98.87405916999995,19.010403849418303],[-98.87102642999999,19.025393149417933],[-98.87895562999995,19.028108339417866],[-98.88816679999998,19.0369198894176],[-98.90338977999994,19.038482889417597],[-98.91706059999996,19.059424949417032],[-98.91519408999994,19.060263939416984],[-98.91559816999995,19.064057279416907],[-98.94434754999997,19.069734419416744],[-98.95777854999994,19.060294489417],[-98.96922514,19.06590377941686],[-98.98359448599997,19.07876325041653],[-99.02899368199998,19.085368791416347],[-99.04320886399996,19.07575546041658],[-99.05980023199999,19.04823666241734]]]}}]}
