{"type":"FeatureCollection","features":[{"type":"Feature","properties":{"cve_ent":"18","cvegeo":"18","nombre_inegi":"Nayarit","nombre_catalogo":"Nayarit"},"geometry":{"type":"MultiPolygon","coordinates":[[[[-105.38356733999997,23.081741579318866],[-105.38471202999996,23.084480079318826],[-105.38568536999998,23.081387479318888],[-105.39224537999996,23.084081979318846],[-105.41299648999995,23.074099199319047],[-105.41310822999998,23.064293399319293],[-105.41040250999998,23.0600957493194],[-105.41204911999995,23.04827084931965],[-105.40985959999995,23.044358089319747],[-105.41156782999997,23.041163919319793],[-105.41012517999997,23.039082259319862],[-105.41316181999998,23.0370547493199],[-105.40895033999999,23.023640819320185],[-105.43259456999999,23.023968799320183],[-105.45331134999999,22.977401799321274],[-105.50126391999999,22.958560049321726],[-105.49610424999997,22.93422182932227],[-105.49865357999994,22.933561149322273],[-105.47121990999995,22.883285949323458],[-105.47533285999998,22.880624429323504],[-105.48420128999999,22.85870296932397],[-105.47458862999997,22.85141601932417],[-105.47692193999997,22.849963229324214],[-105.47917782999998,22.841991969324365],[-105.48196285999997,22.842088829324357],[-105.48719730999994,22.839111169324422],[-105.48569527999996,22.835262689324516],[-105.48825224999997,22.83234256932459],[-105.48770824999997,22.830951749324647],[-105.48658753999996,22.831628149324604],[-105.48878301999997,22.829607969324652],[-105.48774812,22.82601233932473],[-105.49019239999997,22.82444242932476],[-105.49340671999994,22.82615528932471],[-105.49285176999996,22.821357279324832],[-105.49586477999998,22.817364279324938],[-105.49336731999995,22.815225709324984],[-105.49648075,22.814041059324996],[-105.49490224999995,22.81298422932504],[-105.49496885999999,22.810518889325085],[-105.49890641999997,22.811142799325065],[-105.50048756999996,22.809417379325147],[-105.50240927999995,22.809776779325126],[-105.50278633999994,22.80631547932518],[-105.50495344999997,22.8065127193252],[-105.50619036999997,22.804615779325257],[-105.50521034999997,22.803083219325295],[-105.50645730999999,22.797749539325384],[-105.51118202999999,22.79691048932544],[-105.51130530999995,22.794043649325477],[-105.50897807999998,22.794399139325478],[-105.50916488999998,22.7922305193255],[-105.51144467999995,22.790909979325548],[-105.51158874999999,22.789061059325597],[-105.51499416999997,22.787875749325636],[-105.51494959999998,22.785724549325682],[-105.51912129,22.7838904893257],[-105.51651202000001,22.780557829325822],[-105.51990557999994,22.77277399932595],[-105.52258137999996,22.775566259325927],[-105.52477222999995,22.774769889325952],[-105.51936819999997,22.759002259326277],[-105.51408222999999,22.759328449326276],[-105.51526283,22.73946988932676],[-105.52289345999999,22.7243347993271],[-105.51151230999994,22.685249309328015],[-105.49806384999994,22.651390749328804],[-105.46396310999995,22.659238309328575],[-105.46039093999997,22.647549939328854],[-105.46485551999996,22.64610882932891],[-105.47021319999999,22.640141769329052],[-105.47419888999998,22.63281073932918],[-105.47268061999995,22.627184999329334],[-105.4687196,22.6250783093294],[-105.45103121899996,22.62703935032936],[-105.44957210999996,22.62459653932937],[-105.45016448999998,22.62013079932948],[-105.44811137999996,22.61012281932976],[-105.45442683,22.60521124932981],[-105.45598639999999,22.59873908932999],[-105.43906019999999,22.587885309330247],[-105.43693046,22.58190739933037],[-105.43872757999999,22.565236259330796],[-105.43527990999998,22.559699999330935],[-105.43765133999996,22.555739629331008],[-105.43462553999996,22.54998419933112],[-105.43661617999999,22.537523369331403],[-105.44007828999997,22.53171430933154],[-105.44422542999996,22.52942602933158],[-105.44172468999996,22.524268430331727],[-105.44491887899994,22.521579060331806],[-105.45448356899999,22.518762660331852],[-105.46083679999998,22.508568110332092],[-105.46321234999999,22.510606629332038],[-105.46644831999998,22.505387878332183],[-105.47105288999997,22.505564319332198],[-105.47406028799998,22.502900429332236],[-105.47485262,22.50545824933218],[-105.47834811999996,22.50497714933219],[-105.47933074999997,22.507843249332133],[-105.48159593999999,22.508768259332108],[-105.48066135,22.513929979331973],[-105.48379648999997,22.51771281933188],[-105.49201565999999,22.519448379331823],[-105.49319802999997,22.52342244933176],[-105.50205648999997,22.525142109331693],[-105.50317934999998,22.527681859331633],[-105.50956657999997,22.51696270933188],[-105.51317435,22.517022089331917],[-105.51342231999996,22.51848497933185],[-105.51582462999995,22.518026279331895],[-105.51729476999998,22.520183079331805],[-105.52193805999998,22.520995279331782],[-105.52936951999999,22.518907979331843],[-105.52958424999997,22.51595879933195],[-105.53359631999996,22.515031229331925],[-105.53837496999996,22.53040156933158],[-105.54003834999999,22.531326549331588],[-105.53993476999995,22.535593339331463],[-105.54167593999995,22.53653687933143],[-105.55251691999996,22.539126769331382],[-105.56038174999999,22.537298229331416],[-105.57364433999999,22.53925116933138],[-105.57619050999996,22.538021489331427],[-105.57595113999997,22.535149749331502],[-105.58389316999997,22.533484229331517],[-105.59734514999997,22.53630459933144],[-105.60165613999999,22.542193579331315],[-105.59990948999996,22.544404519331263],[-105.60047657999996,22.558887799330908],[-105.60535076999999,22.56116617933086],[-105.60630065999999,22.56400641933081],[-105.61211262999996,22.568158969330728],[-105.61766897999996,22.5682382593307],[-105.62203645999995,22.57142551933063],[-105.63140862999997,22.58875376933022],[-105.63094951999994,22.592980149330156],[-105.64215842,22.59388864933011],[-105.64270157,22.58555116933028],[-105.63921297999998,22.576984579330503],[-105.65401971999997,22.58075313933043],[-105.65488430999994,22.583545689330343],[-105.65732384999995,22.583533849330347],[-105.66056202999995,22.58636297933028],[-105.66428312,22.58482853933032],[-105.66678702999997,22.57956259933042],[-105.67104793999995,22.57634476933051],[-105.67639990999999,22.57678536933049],[-105.68174547999996,22.57218910933063],[-105.68748216999997,22.571890549330607],[-105.69004982999996,22.56838913933068],[-105.69882836999994,22.56787756933073],[-105.70013368999999,22.55703476933094],[-105.67715424999994,22.51292759933201],[-105.67110577999996,22.481562419332718],[-105.67264930999995,22.474094979332918],[-105.67703579999994,22.468135109333026],[-105.69247681999997,22.46717693933306],[-105.70118724999998,22.46769017933303],[-105.71411625999997,22.474946059332858],[-105.72701967999997,22.49101774933247],[-105.73977982999997,22.520154749331848],[-105.75021207999998,22.539336079331388],[-105.75293862999996,22.540859999331364],[-105.7560878,22.537849149331418],[-105.75961972399996,22.537573645331424],[-105.75649390099994,22.527149367331653],[-105.71132586399995,22.439572441333688],[-105.68541668599994,22.374677589335196],[-105.66316957,22.29459381933709],[-105.65222005299995,22.23794881233843],[-105.649816403,22.21714965833889],[-105.64653469999998,22.21306745233903],[-105.64575216299994,22.19695711433937],[-105.64220384599997,22.191845535339525],[-105.63877551399997,22.18986998133957],[-105.63651379099998,22.181474897339733],[-105.64655273599999,22.181251526339736],[-105.64919377499997,22.17429624733994],[-105.64993616699996,22.167229248340085],[-105.64775182099999,22.137890494340756],[-105.65429169999999,22.042856008343016],[-105.65215359399998,22.022918337343516],[-105.64694907599994,22.000634053344015],[-105.63150915199998,21.96310934434494],[-105.59424924999996,21.900745489346416],[-105.54899395499996,21.83415565434799],[-105.53831626099998,21.81587510534844],[-105.53371624399995,21.81225965434849],[-105.53438542499998,21.8092810673486],[-105.50659000699996,21.758862484349784],[-105.50525182499997,21.751828743349908],[-105.502473539,21.74922566735002],[-105.501971342,21.743539328350128],[-105.48443956799998,21.70922490835096],[-105.48268110999999,21.708098762350996],[-105.48327163999994,21.706645284351005],[-105.47932606999997,21.697902771351256],[-105.46807121999996,21.67667797935171],[-105.45002052899997,21.649866411352384],[-105.44881488299995,21.643029232352543],[-105.44482140699995,21.63745752235265],[-105.44658857799999,21.636728407352713],[-105.44610631599996,21.634423709352784],[-105.44129980499999,21.62785639735291],[-105.411354288,21.602098731353525],[-105.37905310499998,21.581813826354043],[-105.34126797999996,21.561010479354504],[-105.30174175199994,21.534952110355132],[-105.29059754599996,21.525581792355382],[-105.28791758799997,21.528388410355284],[-105.28429967799997,21.52768829935528],[-105.26773527999995,21.515331115355583],[-105.26549955699994,21.511851796355717],[-105.257123854,21.515573273355635],[-105.25019486299999,21.511766136355703],[-105.24817232199996,21.512418108355696],[-105.24685885899999,21.515520925355567],[-105.24889402699996,21.518545868355517],[-105.24817959599994,21.523520087355415],[-105.24303268599999,21.526594937355355],[-105.23549455299997,21.526514035355326],[-105.22887965199999,21.523592057355437],[-105.212942022,21.50870139035576],[-105.198281024,21.491653779356167],[-105.19752826399998,21.488553588356254],[-105.20189304599995,21.48128289935643],[-105.19068048499999,21.465909750356776],[-105.18786033999999,21.458295769357],[-105.18894520899994,21.44436437135732],[-105.19449241599995,21.43650691335752],[-105.20336047799998,21.435782858357495],[-105.20419293999998,21.43035788935764],[-105.20606882999999,21.4291868003577],[-105.20514451099997,21.425307868357784],[-105.20840387499999,21.418514944357913],[-105.21368428299996,21.415385619358016],[-105.22012694799997,21.40470211935825],[-105.21830775799998,21.39618504535846],[-105.220387406,21.38749525335868],[-105.22327179999996,21.384927309358723],[-105.23069661999996,21.386409949358693],[-105.22902425499997,21.382446397358834],[-105.23037909899996,21.374714122359],[-105.23246685099997,21.372021075359086],[-105.236939469,21.373000574359043],[-105.23880650499996,21.371402916359095],[-105.23751892999998,21.370639511359077],[-105.23717628799994,21.365414215359195],[-105.23953195399999,21.361978273359274],[-105.238513545,21.360274579359363],[-105.23966533699998,21.35306370635953],[-105.24223978099997,21.351551475359564],[-105.24386319999998,21.353037739359518],[-105.24818854999995,21.34729137935967],[-105.24467127999998,21.346990709359677],[-105.22945481799997,21.299853640360787],[-105.21993697399996,21.24649184736212],[-105.21638228999997,21.2050071493631],[-105.21795921999995,21.19952542936325],[-105.22390591499999,21.196366121363305],[-105.22777037099998,21.18770871136357],[-105.23121477999996,21.186488969363552],[-105.23325342,21.18068307936371],[-105.23284792899996,21.177278085363803],[-105.22852116999996,21.17205889736391],[-105.22982527999996,21.170076149363968],[-105.232195957,21.171334192363943],[-105.23236727799997,21.164942959364122],[-105.22620887999996,21.164797392364118],[-105.22401656399995,21.159432143364228],[-105.22754745799995,21.15164602636439],[-105.23165487999995,21.149817769364432],[-105.23274337599997,21.145806932364586],[-105.23593179999996,21.14516573936457],[-105.23480148999995,21.14378502936462],[-105.236097526,21.140016988364714],[-105.23459445399999,21.140781912364705],[-105.23148211899998,21.138687987364747],[-105.23898256999998,21.132292119364887],[-105.23771630699997,21.121641528365146],[-105.23335713399996,21.120994315365177],[-105.23099670899997,21.118862318365235],[-105.22866771300001,21.106172048365533],[-105.23049513899997,21.08382891036609],[-105.23814748499997,21.058102177366724],[-105.24429040599996,21.04791322136693],[-105.25519088999995,21.03866447936715],[-105.25668904999999,21.03892324936716],[-105.26761940999997,21.027167221367467],[-105.27319448699996,21.023498092367547],[-105.277982029,21.024243572367507],[-105.27772735999999,21.027754948367427],[-105.28201990799994,21.028430715367428],[-105.28826361399996,21.025665781367472],[-105.29538576999994,21.025850019367503],[-105.29866226099996,21.031951414367317],[-105.30313804999999,21.0335581793673],[-105.30350168199999,21.035497714367274],[-105.30756307399999,21.03683763236723],[-105.31350493599996,21.035150313367293],[-105.315595623,21.01688972436771],[-105.31872699399997,21.00530650836797],[-105.32135434999998,21.000676339368088],[-105.32677076099999,20.996770191368185],[-105.33188005899996,20.985671855368494],[-105.34091557999994,20.978633619368633],[-105.34511624599998,20.97933607836863],[-105.35970041999997,20.954888109369247],[-105.36210591599998,20.95403450236925],[-105.36714575299999,20.95546274836921],[-105.37066277999999,20.953427279369237],[-105.37678970899998,20.945415474369465],[-105.38350854999999,20.944225679369477],[-105.38787879299997,20.937092280369658],[-105.390477558,20.937363378369632],[-105.39322940499994,20.934111845369745],[-105.40175572899994,20.931617432369787],[-105.41835521399999,20.89808389037062],[-105.42123067999995,20.897948739370634],[-105.42422236299996,20.889928505370808],[-105.43291572599999,20.87712958637115],[-105.43703997799997,20.873022476371254],[-105.442769394,20.8704265753713],[-105.44486743,20.87097942037131],[-105.44524490099998,20.87285884737126],[-105.44872843199994,20.87276604837125],[-105.45110437799997,20.87637316537116],[-105.45290969599996,20.87439070137118],[-105.45614954599995,20.86051777237152],[-105.46268086299996,20.851566686371765],[-105.46548393999996,20.836618278372125],[-105.46970574599999,20.831215128372246],[-105.469524644,20.829459248372284],[-105.47208964399994,20.82835151437235],[-105.47112351599999,20.827499029372383],[-105.47377794299997,20.822278621372487],[-105.47724345599994,20.819912069372524],[-105.47752846199995,20.814527581372655],[-105.48784580799997,20.796418518373113],[-105.49501343399999,20.78909866537327],[-105.50724991799996,20.782623114373436],[-105.51183516099996,20.783274035373417],[-105.51323794299998,20.785879226373385],[-105.51834483999994,20.788875747373314],[-105.51948022999994,20.7922131193732],[-105.52703005999997,20.789230303373305],[-105.53185862599999,20.78153780437346],[-105.53113808299999,20.779691506373535],[-105.53372663299996,20.776647707373595],[-105.53579536999996,20.777359876373584],[-105.53468769099999,20.77541767337362],[-105.53957483299997,20.770694062373764],[-105.53762457299996,20.765654887373845],[-105.53831303199998,20.76222986337397],[-105.53489655699998,20.757511807374083],[-105.53310801799996,20.757422536374055],[-105.52992700599998,20.763095564373963],[-105.52834329399997,20.761824080373966],[-105.52976811699995,20.76324285537391],[-105.52873428799995,20.76452891637392],[-105.52001550199999,20.770902716373765],[-105.51650650199998,20.76994430137377],[-105.51637942699995,20.77138266637375],[-105.51598897399998,20.769901941373757],[-105.51511056599998,20.77151371337372],[-105.51061396299997,20.771816891373717],[-105.50358275999997,20.768974481373778],[-105.50169184999999,20.76673507937384],[-105.49925870299997,20.76720564937383],[-105.48395241599998,20.757538879374046],[-105.48176197799997,20.754601933374143],[-105.47773157299997,20.75452891337414],[-105.47589595299996,20.752187590374206],[-105.47181099999996,20.755060429374158],[-105.46885434399998,20.753974296374185],[-105.46835856699994,20.755595571374123],[-105.46644144599999,20.755697251374134],[-105.45968876399998,20.751359399374245],[-105.45705747199997,20.752722086374195],[-105.44465058299996,20.74792650837428],[-105.44024931799999,20.74892749237428],[-105.43342242499995,20.747451080374343],[-105.41206710399997,20.73506760137465],[-105.40575979199997,20.736866392374605],[-105.39897733999999,20.734645319374614],[-105.394230301,20.73885240637451],[-105.38831559999994,20.74038642037448],[-105.38686363099998,20.744013131374423],[-105.376719951,20.747592038374307],[-105.376368809,20.749336779374296],[-105.37715018499996,20.7476304973743],[-105.37902506399998,20.74734623037434],[-105.37741010699995,20.748509502374283],[-105.37943688599995,20.748808369374313],[-105.37732941299998,20.749241593374297],[-105.37951477499996,20.749166752374286],[-105.37932563999999,20.748000328374296],[-105.38079825199998,20.746979001374328],[-105.38034873999999,20.749905870374278],[-105.37544356299998,20.751382971374216],[-105.37298982599998,20.75056047837426],[-105.36945810299994,20.751854672374193],[-105.37074128399998,20.752714096374167],[-105.36938706999997,20.75336709937418],[-105.37058037499997,20.753744891374154],[-105.36983067199998,20.756215477374113],[-105.36625227399998,20.757624366374085],[-105.36373730999998,20.762159060373943],[-105.35850693799995,20.76254317937393],[-105.34767852,20.759691299374015],[-105.32816968299996,20.745490475374368],[-105.31301900399997,20.728552761374782],[-105.30535263299998,20.714835499375127],[-105.29555507199996,20.689429054375765],[-105.29649848299995,20.688104688375795],[-105.29507922899995,20.68908165437577],[-105.29408822499995,20.688023604375804],[-105.29577475499998,20.687385686375826],[-105.29384579599999,20.687608619375798],[-105.28897026199998,20.678782228376004],[-105.288276667,20.673365279376142],[-105.28615384699998,20.67471247637613],[-105.28392189,20.67197601937618],[-105.28100002999997,20.671965769376172],[-105.28053414999995,20.673252749376186],[-105.27633493999997,20.671994739376192],[-105.27424279999997,20.675406319376087],[-105.27839441999998,20.675875599376074],[-105.27840508999998,20.681981719375955],[-105.27242322999997,20.683840179375906],[-105.26573116999998,20.678857739376042],[-105.26125228999996,20.679816179375983],[-105.26026541999994,20.685628419375863],[-105.26268387999994,20.689191769375746],[-105.26060721999994,20.692415749375698],[-105.25654667999999,20.69456348937565],[-105.25594701999995,20.702766199375418],[-105.25189316999997,20.70503405937537],[-105.24257265999995,20.704241539375396],[-105.24217853999995,20.707775909375318],[-105.24619902999997,20.71294081937516],[-105.24369650999995,20.71974111937499],[-105.24564546,20.724115979374872],[-105.24467713999998,20.72659294937484],[-105.23913979999999,20.725938349374843],[-105.23693801999997,20.727534489374804],[-105.23991577999999,20.747351279374314],[-105.23415859999994,20.747551419374307],[-105.22285421999999,20.75616487937408],[-105.22033597999997,20.761194779373966],[-105.21140612,20.76592350937387],[-105.20943762999997,20.766534779373814],[-105.20582548999995,20.764144849373896],[-105.20189424999995,20.767217779373855],[-105.20101637999996,20.772624539373687],[-105.19696113999998,20.77717102937357],[-105.17339654999996,20.767711379373807],[-105.16227567999994,20.79251927937318],[-105.17097434999994,20.79610861937311],[-105.16755650999994,20.803743709372934],[-105.17276148999997,20.80603830937291],[-105.17105453999994,20.811212339372748],[-105.17407733999994,20.813344749372707],[-105.17118633999996,20.816802139372616],[-105.17134104999997,20.82108431937252],[-105.16572307999998,20.82054996937253],[-105.16514267999997,20.828901549372336],[-105.16163601999995,20.831140139372273],[-105.16384962999996,20.83431454937218],[-105.16122591999999,20.839987739372024],[-105.16278779999999,20.848689999371825],[-105.15779031999996,20.850107679371813],[-105.15540536999998,20.853064709371743],[-105.16056331,20.85741522937164],[-105.15274984999996,20.861892769371508],[-105.15391382999998,20.867001149371397],[-105.15296565999995,20.86893991937134],[-105.14819062999999,20.868669449371318],[-105.14119404999997,20.87560581937115],[-105.13914629,20.881939489370996],[-105.14254831999995,20.88377161937097],[-105.14185661999994,20.8871672493709],[-105.12810950999994,20.889241779370863],[-105.11712664999999,20.89697239937063],[-105.11722119999997,20.900812579370537],[-105.11195707999997,20.900430319370567],[-105.11218151999998,20.90478288937043],[-105.10447579999999,20.9078460793704],[-105.10449268999997,20.91232193937025],[-105.09738896999994,20.915859309370163],[-105.09935074999999,20.918080109370145],[-105.09864147999998,20.9194341093701],[-105.09454417999997,20.9195172493701],[-105.08553264999996,20.92388100036998],[-105.08070121999998,20.931380179369828],[-105.07280197999997,20.927994999369897],[-105.06819814999996,20.931757649369814],[-105.06521865999999,20.931321419369826],[-105.06053831999999,20.933478379369756],[-105.05814341999996,20.93093125936978],[-105.05443973999998,20.932848819369774],[-105.05020624999999,20.931704000369812],[-105.04743996999997,20.934385800369746],[-105.04463124999997,20.93144107936981],[-105.03967006,20.930244620369823],[-105.03634305999998,20.924887260369953],[-105.03893165999995,20.918543449370144],[-105.03907273999994,20.913114819370232],[-105.03161333999999,20.909171230370372],[-105.02931574999998,20.909299510370325],[-105.02759722999998,20.91142421937031],[-105.02124685999996,20.911457079370283],[-105.02018213999997,20.918097149370123],[-105.01205487999994,20.918615050370136],[-105.00633224999996,20.922536370369997],[-105.00215785999995,20.915919249370187],[-105.00339408999997,20.91085753937031],[-105.00024967999997,20.911706260370302],[-104.99740128999997,20.919546449370092],[-104.99037368999996,20.921562849370034],[-104.98719994,20.920377689370095],[-104.98187544999998,20.914735520370233],[-104.96983042999996,20.909106580370363],[-104.96724404999999,20.909508090370366],[-104.96389433999997,20.91912620037008],[-104.96054965999997,20.919876949370085],[-104.95847779999998,20.92472587936995],[-104.95316389,20.930134340369822],[-104.94313756999999,20.932699420369772],[-104.94124236999996,20.93510734036971],[-104.93429931999998,20.934489450369718],[-104.92833979999995,20.93951556936958],[-104.91336939999997,20.944176580369458],[-104.90647293999996,20.94217941936954],[-104.90468728999997,20.945352199369474],[-104.90052601999999,20.94634065936941],[-104.89860510999995,20.952440219369265],[-104.90226097,20.956068179369186],[-104.90062747999998,20.962747200369044],[-104.89344808999999,20.967056879368897],[-104.88954150999997,20.97375874936877],[-104.88274948999998,20.973658350368755],[-104.88095377999997,20.976010909368725],[-104.88232888999995,20.978908029368654],[-104.88081245999996,20.980910420368563],[-104.87350479999998,20.98235832036855],[-104.86686894999997,20.995201369368253],[-104.86335222999998,20.99594883036824],[-104.85793747999999,20.99435653936828],[-104.85129657999994,21.000161109368083],[-104.85365599999994,21.004957689367973],[-104.84119047999997,21.006723450367925],[-104.83737457999996,21.01565868936775],[-104.83809890999999,21.02000858036765],[-104.83538897999996,21.01939317936765],[-104.83248667999999,21.014116739367807],[-104.82772499999999,21.01806848936771],[-104.82101904999996,21.014823720367726],[-104.81496922999999,21.01534302036773],[-104.81018159999996,21.01201283036782],[-104.80319422999997,21.01651328936769],[-104.79544859999999,21.014129369367755],[-104.79018830999998,21.015021319367776],[-104.78360753999999,21.020242369367633],[-104.78246214999997,21.023359060367554],[-104.77939073999994,21.0211819203676],[-104.77781394999995,21.017518540367707],[-104.77507916999997,21.01753125036768],[-104.77171234999997,21.008601080367903],[-104.76692974999999,21.01062413936786],[-104.76257521999997,21.00889231036791],[-104.76028824999997,21.011913059367814],[-104.75249910999997,21.0122797193678],[-104.74990202999999,21.009040109367902],[-104.73924107999994,21.006142369368003],[-104.73419048999996,21.007976650367908],[-104.73137096999994,21.01247709036781],[-104.72847336999996,21.011404860367865],[-104.72822791,21.007459459367947],[-104.72531425999995,21.00555299936801],[-104.72701305999999,21.002921940368054],[-104.72514802999996,20.99940031936814],[-104.72798151999997,20.995049999368227],[-104.72616956999997,20.991449659368335],[-104.72936276999998,20.98315414036853],[-104.72160633999994,20.98265727936856],[-104.71582894999996,20.980469199368624],[-104.71417482,20.977769749368658],[-104.71615773999997,20.974928429368717],[-104.71343153999999,20.973339519368746],[-104.70889034,20.974416519368727],[-104.70710251999998,20.972402280368765],[-104.70829801999997,20.969596779368878],[-104.70571098,20.966851600368905],[-104.69765008999998,20.965365890368947],[-104.69261968999997,20.96167359936905],[-104.68105791999994,20.96066668936907],[-104.67866679999999,20.9546975193692],[-104.68265834899995,20.949159309369342],[-104.68099996999996,20.943840620369492],[-104.66914052,20.94130826036958],[-104.66144133999995,20.943977319369484],[-104.66213968999995,20.938738799369634],[-104.65637539999994,20.932391050369745],[-104.64959422,20.933078369369746],[-104.64701522999998,20.93541061936968],[-104.63809374,20.934125140369712],[-104.63457659999995,20.931852150369778],[-104.63330799999994,20.92805740036988],[-104.62853271999997,20.923865689370004],[-104.62266104999998,20.926335139369918],[-104.61903942,20.923793889370007],[-104.61356956999998,20.92303730936998],[-104.60098528999998,20.931437709369813],[-104.59174255,20.93143841936981],[-104.59073625999997,20.934619279369713],[-104.58348159999997,20.93443776936972],[-104.57816631999998,20.933951169369745],[-104.57418993999995,20.92996714936983],[-104.56931104999997,20.9308934493698],[-104.56452637999996,20.92627084936991],[-104.56020821999999,20.926150489369935],[-104.55692168999997,20.924152379369996],[-104.55752364999996,20.920811619370056],[-104.55571139999995,20.91811534937013],[-104.55114042999998,20.917076969370143],[-104.54285227999998,20.911939569370297],[-104.54474064999995,20.901140169370567],[-104.54329606,20.897566279370626],[-104.53571917999994,20.895857629370642],[-104.53602551999995,20.893891949370737],[-104.53328850999998,20.88966221937082],[-104.53494968999996,20.887752969370894],[-104.53462454,20.884035619370987],[-104.53106456999996,20.88266139937102],[-104.52902836999999,20.885634399370947],[-104.52444202999999,20.8857618893709],[-104.52319515,20.882949319370958],[-104.52476301999997,20.88049928937104],[-104.52256442,20.879707849371062],[-104.51949161999994,20.869151199371316],[-104.51399982999999,20.86650196937141],[-104.51060614999994,20.859656799371553],[-104.50639434999994,20.860844939371532],[-104.50425893999994,20.846833659371896],[-104.50158219999999,20.84535894937191],[-104.50321744999997,20.841816379372023],[-104.49993813999998,20.838186459372064],[-104.49320988999996,20.838760379372076],[-104.49013814999995,20.83501913937216],[-104.48528810999996,20.833276399372206],[-104.48356037999997,20.82737290937238],[-104.48024411999997,20.825037549372414],[-104.48031948999996,20.823255889372447],[-104.47553367999996,20.82266510937248],[-104.47693148999998,20.819647939372533],[-104.47424721999994,20.819907019372568],[-104.46430630999998,20.813990649372673],[-104.46002453999996,20.8131026893727],[-104.46296337999996,20.81082682937276],[-104.45840376999996,20.808985419372817],[-104.45840885999996,20.806515579372864],[-104.45547870999997,20.80677853937285],[-104.44934976999997,20.80353527837296],[-104.44095447999996,20.807650619372843],[-104.43861279999999,20.805292399372888],[-104.43573585999997,20.805764829372883],[-104.43434030999998,20.80040184937303],[-104.42931482999995,20.796787819373133],[-104.42905691999994,20.792415829373198],[-104.42726030999995,20.791021619373232],[-104.42337048999997,20.791286739373223],[-104.41914968999998,20.796222319373094],[-104.41412461999994,20.79377024937315],[-104.41252421999997,20.78995171937326],[-104.40364824799998,20.786061061373374],[-104.40184410999996,20.78324453937345],[-104.39662237999994,20.780836779373516],[-104.39501313999995,20.774425289373674],[-104.39140331999994,20.772560679373676],[-104.38867737999999,20.76800371937379],[-104.38420893999997,20.76647861937385],[-104.38598173999998,20.76321222937391],[-104.37894310999997,20.755192369374118],[-104.37653134,20.747574339374292],[-104.37754870999999,20.74237341937444],[-104.37229888999997,20.741314419374465],[-104.36714169,20.744736739374414],[-104.36371959999997,20.7444109093744],[-104.35899582999997,20.73714471937459],[-104.35336125999999,20.735949769374614],[-104.35079807999996,20.72533968937487],[-104.33589351999996,20.72145511937494],[-104.33193968999996,20.716748649375077],[-104.32411511999999,20.71754351937506],[-104.32289941999994,20.714025779375145],[-104.31850983,20.713485089375176],[-104.31638931999998,20.70696074937534],[-104.30903902999997,20.703658029375394],[-104.30715699999998,20.699819769375484],[-104.30800501999995,20.696840619375564],[-104.30564550999998,20.69416956937563],[-104.29791768999996,20.69158153937572],[-104.29492797999997,20.692510689375695],[-104.28848659999996,20.68915661937577],[-104.28698393999997,20.686525849375844],[-104.28908407999997,20.682873059375932],[-104.28842868999999,20.675400059376123],[-104.28456022999995,20.670619139376214],[-104.28642613999995,20.66832910937628],[-104.28795613999995,20.660407599376473],[-104.28696342999996,20.658612889376503],[-104.28339106,20.657640889376527],[-104.28476930999996,20.652887169376662],[-104.28057744999995,20.64635687937681],[-104.28263873999998,20.6426756293769],[-104.28147828999995,20.641238219376945],[-104.28279916999999,20.63622787937706],[-104.28080604999997,20.63538333937707],[-104.28201094999997,20.628993349377232],[-104.28010419999998,20.62817302937726],[-104.27879428999996,20.623837109377398],[-104.27499368999999,20.622165369377434],[-104.27445796999996,20.616602949377583],[-104.26699788999997,20.614182279377598],[-104.25870970999995,20.604287449377885],[-104.25363982999994,20.603418709377863],[-104.25290901999996,20.60759571937779],[-104.25150494999998,20.608283149377755],[-104.25544113999996,20.610804319377706],[-104.25531394999996,20.612528399377634],[-104.25193021999996,20.6144882793776],[-104.25304708999995,20.618233349377498],[-104.25474773999997,20.618380029377494],[-104.25376714,20.630608349377216],[-104.24802254999997,20.629363719377274],[-104.24692381999996,20.631492399377212],[-104.26024188999999,20.641327879376963],[-104.26038953999995,20.64283554937688],[-104.25712874999999,20.64591377937684],[-104.25530707999997,20.653282999376643],[-104.23869577999994,20.660334579376475],[-104.23646073999998,20.662897199376395],[-104.23698187999997,20.665088879376356],[-104.24690237999994,20.670907539376188],[-104.24578899999995,20.673813859376132],[-104.25315979999999,20.68229637937591],[-104.24789633999995,20.686463579375847],[-104.24799011999995,20.689682379375718],[-104.24329761999996,20.69174568937571],[-104.24278014999999,20.694288719375624],[-104.24814937999997,20.6996282593755],[-104.24737834999996,20.70557408937533],[-104.24142891999998,20.70998477937527],[-104.24181568999997,20.713433519375133],[-104.24657562999994,20.718277549375028],[-104.24763265999997,20.72633671937486],[-104.25986113999994,20.735331169374636],[-104.27447496999999,20.769987049373785],[-104.28001997999998,20.768928399373795],[-104.28285624999995,20.783480579373443],[-104.28991053999995,20.78134094937351],[-104.29218807999996,20.777135049373562],[-104.29019873999995,20.773011319373666],[-104.29154731999995,20.770634799373745],[-104.2976174,20.77079519937375],[-104.32832232,20.79809767937309],[-104.33579477999996,20.789884199373304],[-104.34529345999994,20.790750549373243],[-104.34635404999995,20.793207689373187],[-104.35824937999996,20.79053259937328],[-104.36143994999998,20.785413379373367],[-104.36644917999996,20.78306813937346],[-104.37522036999997,20.775439449373657],[-104.37589214999997,20.784072969373433],[-104.35040233999997,20.811643969372724],[-104.36405937999996,20.81393297937269],[-104.36026936999998,20.819844689372506],[-104.35710474999996,20.81987385937252],[-104.35890931999995,20.82401427937241],[-104.35835647999994,20.83433699937218],[-104.36173887999998,20.838457019372118],[-104.36176848999997,20.840931019372],[-104.35928990999999,20.840083859372037],[-104.35999045999996,20.84192582937197],[-104.35631021999995,20.843707999371947],[-104.35356759999998,20.842786879371985],[-104.34999424999995,20.845698309371905],[-104.34734807999996,20.844773859371916],[-104.34524133999997,20.84639402937189],[-104.34194536999996,20.84416421937193],[-104.33425758,20.84666228937187],[-104.33168739999996,20.842742829372],[-104.32252122999996,20.84129184937203],[-104.31841736999996,20.83857264937209],[-104.31569691999994,20.840741259372056],[-104.31261739999997,20.84041597937203],[-104.31267291999995,20.842967219371968],[-104.30881539999996,20.846807309371854],[-104.30208891999996,20.845719319371902],[-104.29823088999997,20.847436369371835],[-104.29541588999996,20.84549605937193],[-104.29511862,20.847881829371858],[-104.29020882999998,20.849015219371843],[-104.29069296999995,20.862340629371516],[-104.27911079999996,20.864518659371427],[-104.28544390999998,20.874985479371208],[-104.28840771999997,20.885342259370958],[-104.29091611999996,20.887795739370876],[-104.26787954999999,20.887461079370862],[-104.25620776999995,20.89689259937066],[-104.24888582999995,20.905777879370447],[-104.24708588999995,20.909882799370322],[-104.24645165,20.921245059370047],[-104.23651956999998,20.926194049369926],[-104.23008542999999,20.9319773393698],[-104.22875341999999,20.93558174936968],[-104.221072,20.94152565936953],[-104.20658777999995,20.93637334936968],[-104.20797391999999,20.95105534936931],[-104.20461641999998,20.951965459369298],[-104.20452617999996,20.954932249369243],[-104.20105925999998,20.95732014936915],[-104.20130634999998,20.959242179369106],[-104.21855890999997,20.960279649369117],[-104.22714246,20.964984309368955],[-104.22788662999994,20.967168819368904],[-104.23312944999999,20.968743369368863],[-104.23653811999998,20.97730982936865],[-104.23596436999998,20.980685199368576],[-104.23810051,20.984177059368502],[-104.23666387999998,20.990295229368375],[-104.23847424999998,20.99215081936832],[-104.23552862999999,20.99420853936826],[-104.23387136999999,20.99833147936816],[-104.22497548999996,20.99611502936822],[-104.22319570999998,21.0012636593681],[-104.22526805999998,21.00569764936798],[-104.22427241999999,21.007558309367916],[-104.22959317999995,21.0162696493677],[-104.23707553999998,21.02145274936757],[-104.24073011999997,21.021720399367588],[-104.24271290999998,21.027331629367442],[-104.24184002999999,21.028598459367434],[-104.23969667999997,21.027858629367415],[-104.23595496999997,21.031549369367344],[-104.23464519999999,21.035032059367257],[-104.23579768999997,21.040120219367147],[-104.22655007999998,21.04429616936704],[-104.22736528999997,21.045735949367],[-104.22516399999995,21.050526919366867],[-104.23077613999999,21.051029459366873],[-104.23105344999999,21.049189739366895],[-104.23161925999995,21.050554739366888],[-104.23839482999995,21.052273139366857],[-104.23781359999998,21.056081279366754],[-104.23923553999998,21.05707157936674],[-104.23479339999996,21.067681479366446],[-104.22912759999997,21.066152979366475],[-104.22181044999996,21.07002461936638],[-104.22260454999997,21.07347956936634],[-104.21871705999996,21.078595079366224],[-104.21985196999998,21.08011802936616],[-104.21671856999995,21.08579119936605],[-104.21829908999996,21.087845249365973],[-104.21806197999996,21.092871309365872],[-104.22142250999997,21.09789337936575],[-104.22084307999995,21.101363379365655],[-104.21459199999998,21.10771391936548],[-104.21546716999997,21.114017059365313],[-104.21214433999995,21.114528679365304],[-104.21476236999996,21.116791019365266],[-104.21086031999994,21.11860141936524],[-104.21270930999998,21.12043350936518],[-104.21111074,21.12106896936517],[-104.21233392,21.124550289365086],[-104.21059871999996,21.130927689364956],[-104.21268803,21.133974649364824],[-104.21496221999998,21.134007649364854],[-104.21513816999999,21.139107629364737],[-104.21900341999998,21.137639279364738],[-104.21912334999998,21.140896689364656],[-104.22148730999999,21.140722659364677],[-104.22117834999996,21.14444367936459],[-104.22283828999997,21.145175659364583],[-104.22210606,21.14667697936454],[-104.22517054999999,21.151208749364404],[-104.22204947999995,21.153292889364366],[-104.22486650999998,21.157703829364284],[-104.22174174999998,21.158956629364226],[-104.22423361999995,21.160471679364207],[-104.22147461999998,21.165761769364096],[-104.22357781999995,21.16918810936398],[-104.22047013999997,21.169812549363996],[-104.22051361999996,21.173258059363864],[-104.21787797999998,21.17265205936393],[-104.21872021999998,21.17429268936389],[-104.21734096999995,21.174690179363825],[-104.21939797999994,21.176610579363803],[-104.21418730999996,21.179561679363747],[-104.20870227999995,21.18928167936348],[-104.20279365999994,21.192832429363428],[-104.19636725,21.19355299936341],[-104.17715262999997,21.188162379363522],[-104.16581424999998,21.188880599363515],[-104.15951350999997,21.1845602893636],[-104.14727222999994,21.191619509363463],[-104.13867417999995,21.18866628936354],[-104.12855585999995,21.190968259363434],[-104.12404577999996,21.196267369363316],[-104.11084484999998,21.188595709363533],[-104.10905193999997,21.19012322936347],[-104.10876281999998,21.195566599363353],[-104.10003708999994,21.200867449363198],[-104.09417959999998,21.195826909363337],[-104.08879968999997,21.19612914936333],[-104.08845591999994,21.20361416936314],[-104.08565925999994,21.20536110936313],[-104.08235753999998,21.204306249363142],[-104.08091017999999,21.20176414936317],[-104.08097787999998,21.18969113936348],[-104.07276774999997,21.19022787936349],[-104.06858639999997,21.186773279363575],[-104.06609501999998,21.189723289363517],[-104.06941568999997,21.19445811936336],[-104.06788754999998,21.198199799363287],[-104.06189417999997,21.200082459363212],[-104.05945971999995,21.193926179363398],[-104.05627539999995,21.194139939363392],[-104.05479257999997,21.196513819363325],[-104.05503913999996,21.204609199363123],[-104.05283851999997,21.205413109363107],[-104.04517856999996,21.199199309363244],[-104.03842370999996,21.204442219363106],[-104.03572819999995,21.201205219363242],[-104.03529682,21.195952999363314],[-104.02796881999996,21.194672489363388],[-104.02639850999999,21.200475599363227],[-104.03287131999997,21.202686659363167],[-104.02941036999994,21.208664199363014],[-104.02498130999999,21.21293770936294],[-104.02233245999997,21.210788379362985],[-104.02232001999994,21.205107079363124],[-104.01863883,21.205122369363092],[-104.01601599999998,21.207458419363032],[-104.01718656999998,21.211912379362964],[-104.01513922999999,21.2138255193629],[-104.01682433999999,21.218582419362804],[-104.01464111999998,21.22068085936276],[-104.01748884999995,21.227201849362558],[-104.00608791999997,21.228043549362564],[-104.00356759999995,21.236462679362347],[-103.98785725,21.244306139362163],[-103.98531048999997,21.24920801936203],[-103.97448234999996,21.25180110936196],[-103.97345402999997,21.25632827936187],[-103.96925447999996,21.25687453936187],[-103.96927430999995,21.255690179361874],[-103.96352114999996,21.25408859936192],[-103.96056664999998,21.251182889362003],[-103.95838770999995,21.252754509361957],[-103.95226516999999,21.2477775993621],[-103.95170542999995,21.244592599362125],[-103.94586722999999,21.23801784936233],[-103.93655822999995,21.238531649362283],[-103.93039991999996,21.23534347936237],[-103.92401997999998,21.234571739362377],[-103.92863505999998,21.249760219362024],[-103.93546184999998,21.25417617936193],[-103.93379842999997,21.260873909361752],[-103.93105688999998,21.262547119361688],[-103.91857836999998,21.24562693936209],[-103.91757044999997,21.24126551936225],[-103.91969573999995,21.234191379362372],[-103.91789870999997,21.23102776936246],[-103.90306294999999,21.233419149362412],[-103.89836275,21.22649001936257],[-103.89688697999998,21.226846819362578],[-103.89230551999998,21.238426659362318],[-103.88685730999998,21.23920631936229],[-103.88260913999994,21.241910319362216],[-103.87524868999999,21.238643059362328],[-103.87414251999998,21.242266569362194],[-103.86389665999998,21.246316579362098],[-103.86188953999999,21.248868369362032],[-103.85298976999997,21.24613601936212],[-103.84500408999997,21.24029673936229],[-103.84001942999998,21.239820459362253],[-103.81939110999997,21.248435029362064],[-103.81724899999995,21.251090349361967],[-103.81701227999999,21.256136029361873],[-103.82098419999996,21.261710649361746],[-103.82114253999998,21.266466689361643],[-103.82499597999998,21.271264949361502],[-103.82009079999995,21.276523289361382],[-103.82034562999996,21.281041379361252],[-103.81467151,21.287118199361153],[-103.81212523,21.28663745936115],[-103.80784710999995,21.288919599361073],[-103.80357293999998,21.300311949360786],[-103.79905137999998,21.303261019360708],[-103.79196168999995,21.305579369360654],[-103.78548321999995,21.30573857936065],[-103.78483085,21.307295289360653],[-103.78063627999995,21.30851302936059],[-103.77767701999994,21.31153491936052],[-103.77612294999994,21.321669859360277],[-103.77253434,21.320330229360284],[-103.76828581999997,21.322418549360286],[-103.76682862999996,21.326503749360157],[-103.76416184999994,21.328469319360135],[-103.75739911999995,21.329791319360062],[-103.75742999999996,21.335484709359967],[-103.75561073999995,21.337694509359906],[-103.75309708999998,21.335836599359943],[-103.74935181999997,21.336708479359913],[-103.74963764999997,21.341452859359812],[-103.75238888999996,21.34109922935982],[-103.75227194999997,21.343274079359784],[-103.74831701999994,21.34514793935973],[-103.74431974,21.352276739359525],[-103.74707719999998,21.359832199359342],[-103.74133250999995,21.374055109359],[-103.74976193999998,21.38208779935879],[-103.76541870999995,21.38602105935876],[-103.76733319999994,21.388432999358695],[-103.76612561999997,21.39335491935853],[-103.75957034,21.399441969358406],[-103.75690311999995,21.399864649358378],[-103.76440153999994,21.407949089358198],[-103.7644034,21.410304169358167],[-103.75644821999998,21.41005982935812],[-103.75478679999998,21.41567573935801],[-103.75130707999996,21.417510719357967],[-103.73127204999997,21.415899799357987],[-103.72763770999997,21.421034939357856],[-103.72340037999999,21.421215489357888],[-103.72101537999998,21.425970019357734],[-103.72837522999998,21.435676569357533],[-103.73374117999998,21.436930719357523],[-103.73945233999996,21.441713819357407],[-103.74203064999996,21.441557829357368],[-103.74533665999998,21.451661449357175],[-103.74453307999994,21.45413011935709],[-103.74835505,21.462341829356905],[-103.75293654999996,21.466087689356797],[-103.74822177999995,21.47087004935666],[-103.74936457999996,21.474488229356627],[-103.76134251999997,21.481742349356413],[-103.76912850999999,21.483024919356385],[-103.77028054999994,21.48839724935626],[-103.77819191999998,21.492082119356198],[-103.77770291999998,21.494918569356095],[-103.77387948999996,21.49619539935604],[-103.77412947999994,21.49838070935601],[-103.77859668999997,21.498330739356],[-103.77750762999996,21.498992309356005],[-103.78007134999996,21.49998176935596],[-103.78339854999996,21.497338289356065],[-103.78482301999998,21.498492509356026],[-103.78991619999994,21.496803059356047],[-103.79107508999999,21.49774793935605],[-103.79268391999994,21.492733739356165],[-103.79119219999997,21.4917709793562],[-103.79298873999994,21.488691379356236],[-103.80157627999996,21.48981681935622],[-103.80042096999995,21.48718839935628],[-103.81401324999997,21.494483969356097],[-103.82371281999998,21.493047369356155],[-103.82815919999996,21.498174049356027],[-103.82792114999995,21.505262509355816],[-103.83200891999996,21.509512109355757],[-103.83212693999997,21.513397059355654],[-103.83660757999998,21.512662719355657],[-103.84929451999994,21.51453085935562],[-103.85992490999996,21.524749509355388],[-103.85801262999996,21.5313057093552],[-103.85400864999997,21.533227509355203],[-103.85588561999998,21.53869042935502],[-103.8533776,21.54196913935497],[-103.85509521999997,21.542917689354926],[-103.85402682999995,21.543529649354912],[-103.85578662999997,21.545993089354848],[-103.85452395,21.546998919354873],[-103.85627171999995,21.55236541935473],[-103.85938304999998,21.550291219354797],[-103.86874442999999,21.550268689354766],[-103.87075134999998,21.54873674935479],[-103.88164607999994,21.552142279354726],[-103.88102787999998,21.553060449354685],[-103.88708961999998,21.555436309354647],[-103.88605547999998,21.556410219354603],[-103.89183756999995,21.562479709354474],[-103.89107213999995,21.563769849354422],[-103.89273599999997,21.566024139354365],[-103.89022531999997,21.571614339354262],[-103.89257817,21.574143029354214],[-103.89593802999997,21.57534407935415],[-103.90298131999998,21.574412709354185],[-103.90403984999996,21.57754725935414],[-103.91736941999994,21.579813629354057],[-103.91923454999994,21.581985879354008],[-103.91973291999996,21.585821689353907],[-103.92319074999996,21.590568909353806],[-103.91715293999995,21.59792757935361],[-103.91654091,21.602517219353505],[-103.91236545999999,21.608049089353397],[-103.91479482999995,21.611416509353273],[-103.91879830999994,21.613425939353274],[-103.91908428999996,21.61624970935317],[-103.91651090999996,21.618306149353113],[-103.91475110999994,21.616075369353165],[-103.90982053999996,21.614836849353246],[-103.90769894,21.618676309353148],[-103.91183478,21.629826229352854],[-103.93024944999998,21.64191442935256],[-103.92133757,21.668374249351942],[-103.91526752,21.670817369351905],[-103.91240082999997,21.66897059935189],[-103.90883963,21.673785709351826],[-103.90616151999996,21.682366579351612],[-103.90264964999996,21.682922079351563],[-103.90330211999999,21.685827949351495],[-103.89862068999997,21.687411539351462],[-103.89403177999999,21.693796629351336],[-103.88772496999997,21.69781822935124],[-103.89044016999998,21.69944042935117],[-103.89139614999999,21.70572256935103],[-103.89657056999994,21.71273961935086],[-103.89591345999999,21.727743779350487],[-103.89876124999996,21.72770404935052],[-103.90073053999998,21.71908285935075],[-103.90279061999998,21.716257999350784],[-103.90422877999998,21.7184821793507],[-103.90745431999996,21.71837857935072],[-103.91077273999998,21.725402829350582],[-103.91760044999995,21.729362399350496],[-103.92131859999995,21.734599629350353],[-103.92771647899997,21.736992890350294],[-103.93182785999994,21.743380509350146],[-103.93364759999999,21.74842624934999],[-103.93170234999997,21.75131999934998],[-103.92011854999998,21.750855349349962],[-103.91612930999999,21.755768709349837],[-103.91955936999994,21.759297709349763],[-103.91864437,21.76617419934957],[-103.92348190999996,21.77180231934948],[-103.92746387999996,21.77433937934942],[-103.93143334999996,21.773638679349414],[-103.93449617,21.775904819349368],[-103.94079833999997,21.77542770934936],[-103.94451145999994,21.776819459349355],[-103.95113124999995,21.773928799349438],[-103.95285787999995,21.776042719349384],[-103.95364494999997,21.773703489349415],[-103.95744157999997,21.7734881193494],[-103.95808106,21.772027599349475],[-103.96101444999994,21.772924219349427],[-103.97395997999996,21.770823059349496],[-103.97534474999998,21.772468199349444],[-103.97775748999999,21.771332429349457],[-103.98092611999999,21.774328829349407],[-103.98464534999994,21.77269590934942],[-103.98493541999994,21.775218349349377],[-103.98914914999995,21.779859489349263],[-103.99706884999995,21.779274689349254],[-104.00262588,21.782951429349172],[-104.01073922999996,21.781947449349246],[-104.02092276999998,21.787109139349084],[-104.02796428999994,21.78763114934907],[-104.03373602999996,21.79073551934902],[-104.03921268999996,21.789125179349046],[-104.05225379999996,21.794760949348937],[-104.05661073999994,21.792322579348994],[-104.06528701999997,21.794190449348914],[-104.06624787999999,21.789816749349047],[-104.07623785999999,21.789717399349012],[-104.07717590999994,21.7870940493491],[-104.07997847999997,21.78556288934913],[-104.07985618,21.7824051493492],[-104.08398017999998,21.785760849349106],[-104.09331879999998,21.784562819349176],[-104.09325119999994,21.791244709349],[-104.09843656999999,21.792816889348952],[-104.10167693999996,21.79027985934903],[-104.10659024999997,21.790874379349006],[-104.10945508999998,21.78732753934908],[-104.12149596999996,21.790500319349],[-104.13038159999998,21.790451319349014],[-104.13458394999998,21.793742399348933],[-104.13877819999999,21.8003011693488],[-104.14380387999996,21.802265349348712],[-104.14653108999994,21.80643013934861],[-104.15405507999999,21.807604279348627],[-104.15617901999997,21.810787449348556],[-104.16174844999995,21.80984133934855],[-104.16200061999997,21.81251565934847],[-104.16377662999999,21.812332709348524],[-104.16461983,21.815965459348398],[-104.17003939999996,21.820458629348323],[-104.17661314999998,21.832237319348025],[-104.18072108999996,21.834157059347987],[-104.18212307999994,21.837138229347904],[-104.18719404999996,21.837881279347876],[-104.19071262999995,21.851063689347566],[-104.19496088999996,21.85040574134762],[-104.19664037999996,21.85053241934758],[-104.19700017999999,21.850772249347557],[-104.17958504999996,21.860088849347378],[-104.17776565999999,21.865138519347248],[-104.17223325999998,21.87131890934711],[-104.17555633999997,21.871911879347053],[-104.17880301999999,21.867630179347174],[-104.18638511999995,21.868011749347172],[-104.19089239999995,21.877200539346948],[-104.19603901999994,21.879494569346928],[-104.19868693999997,21.88899841934669],[-104.20104071999998,21.891478379346587],[-104.20024410999999,21.909465829346193],[-104.18880205999996,21.91899765934597],[-104.18843224999996,21.928211599345744],[-104.17871808999998,21.939015339345463],[-104.17941376999995,21.94556493934533],[-104.17691585999995,21.948862849345264],[-104.17644270999995,21.957052939345036],[-104.17369921999995,21.963392849344903],[-104.17365548,21.97088288934472],[-104.17973445999996,21.977051649344602],[-104.19331945,21.985420119344397],[-104.19725424999996,21.98591431934438],[-104.20265651999996,21.982772399344434],[-104.21274271,21.982881319344436],[-104.23390164999995,21.969194139344776],[-104.24129728999998,21.96999830934475],[-104.24600514999999,21.96693797934483],[-104.25850351999998,21.972239939344707],[-104.26202137999996,21.976859169344603],[-104.26598217999998,21.97691016934459],[-104.27544693999994,21.980623489344477],[-104.27775596999999,21.983610539344408],[-104.27617984999995,21.9876573693443],[-104.28138222999996,21.999658819344038],[-104.28561519999995,22.00001065934403],[-104.28937714999996,21.998410799344068],[-104.29173547999994,22.00201694934397],[-104.29407685999996,22.002760949343962],[-104.30229524999999,21.998182489344064],[-104.30813848999999,21.988618969344305],[-104.31505633999996,21.990803599344257],[-104.31978648999996,21.984197749344442],[-104.32490533999999,21.98413405934439],[-104.32509208999994,21.977631179344577],[-104.32686313999994,21.9753693193446],[-104.33592433999996,21.979820619344522],[-104.34087079999995,21.977757579344562],[-104.34357702999995,21.97465701934464],[-104.35714867999997,21.972105519344723],[-104.36512585999999,21.97436765934463],[-104.36709094999998,21.9727638293447],[-104.36986348,21.974784259344624],[-104.37107511999996,21.97999014934451],[-104.36939836999996,21.982041379344455],[-104.37008597999996,21.98380007934441],[-104.36700533999999,21.986798969344346],[-104.36870791999998,21.9927953393442],[-104.36758956999996,21.997422549344112],[-104.36247679999998,22.00616861934388],[-104.36216496999998,22.009666169343827],[-104.36002945999998,22.01042411934379],[-104.36003861999995,22.015056829343678],[-104.36131277999999,22.019431629343554],[-104.36656839999996,22.01998793934359],[-104.36797688999998,22.021386459343514],[-104.36725328999997,22.02398588934347],[-104.36903730999997,22.02456416934348],[-104.36786188999999,22.02558482934344],[-104.36890622999994,22.028643579343356],[-104.36601044999998,22.029603569343344],[-104.36662634999999,22.0344193093432],[-104.36503011999999,22.036276819343193],[-104.36775881999996,22.045196229342967],[-104.36154013999999,22.052853449342773],[-104.36348751999998,22.060015939342595],[-104.36347728999999,22.07413736934231],[-104.36822804999997,22.082955019342062],[-104.36664827999999,22.087534089341993],[-104.36923534999994,22.096478519341755],[-104.37319150999998,22.10256382934163],[-104.36981799999995,22.108074849341456],[-104.36470718,22.112439519341397],[-104.36386067999997,22.122143169341165],[-104.36114488,22.127921719341035],[-104.36155822999996,22.136699089340794],[-104.35455887999996,22.151209829340438],[-104.35408037999998,22.15668713934031],[-104.35627165999996,22.165434679340112],[-104.34942277999994,22.16977553934002],[-104.35056884999995,22.175893199339907],[-104.34833288999994,22.176336259339845],[-104.34614925999996,22.180254419339768],[-104.33655061999998,22.186721939339616],[-104.33608210999995,22.19421277933945],[-104.33183626,22.19978985933934],[-104.34029367999995,22.20589424933915],[-104.34135932,22.209563199339083],[-104.33980310999999,22.213231149339023],[-104.33390742999997,22.21582185933895],[-104.33201376999995,22.228353279338677],[-104.32589756999994,22.231792199338546],[-104.32849677999997,22.238634819338433],[-104.32867941999996,22.245358709338266],[-104.32379516999998,22.250259689338147],[-104.32239328999998,22.25382776933804],[-104.31906101999999,22.25655241933798],[-104.31550059999995,22.25672547933799],[-104.31079777999999,22.263305689337813],[-104.30672603000001,22.264953799337796],[-104.30283876999994,22.271726829337613],[-104.30028903,22.27291724933758],[-104.30011576999999,22.275871319337558],[-104.29563950999994,22.276908459337527],[-104.29244765999995,22.285031999337317],[-104.28875847999996,22.285640029337277],[-104.29026061999997,22.28682213933725],[-104.28978188999997,22.2935605993371],[-104.28486590999997,22.29709351933702],[-104.28483581999997,22.302652049336913],[-104.28925419999996,22.306991829336816],[-104.29264562999998,22.30739030933681],[-104.29464169,22.31413350933662],[-104.29273736999994,22.32003345933649],[-104.29777716999996,22.32335365933644],[-104.29952567999999,22.327088489336333],[-104.29717322999996,22.328767569336264],[-104.29455285999995,22.3283249793363],[-104.29302302999999,22.33073250933627],[-104.29837861999994,22.347811419335816],[-104.295258,22.34754642933583],[-104.29273991999997,22.343973089335964],[-104.28896239999995,22.348845749335837],[-104.28927664999999,22.35214659933572],[-104.28574027999997,22.356366139335623],[-104.28999082999997,22.358098719335597],[-104.29312754999997,22.365131149335415],[-104.32531585,22.380749399335098],[-104.35004091999998,22.386405419334963],[-104.35353304999997,22.401315249334587],[-104.35177101999996,22.40775833933444],[-104.34884291999998,22.409716649334406],[-104.37151221999994,22.421658649334105],[-104.45924499999995,22.38684317933491],[-104.49538985,22.37632413933519],[-104.4948012,22.37195350933526],[-104.49112307999997,22.372335179335266],[-104.48786036999996,22.36890507933534],[-104.48891879999998,22.365379689335434],[-104.49480057999996,22.362710599335518],[-104.49499027999997,22.360532089335543],[-104.49250182999998,22.360807489335564],[-104.48733261999998,22.35318887933573],[-104.48120593999994,22.352728309335713],[-104.48120967999996,22.35161691933573],[-104.48460643,22.349259659335797],[-104.48757816999995,22.351438919335784],[-104.49385614,22.35117044933576],[-104.49962695,22.34618405933588],[-104.50651324999997,22.345163399335906],[-104.51865865999997,22.36060393933552],[-104.52718362999997,22.36144321933555],[-104.53051819999996,22.363915349335493],[-104.53591084999994,22.36480279933546],[-104.53989384999994,22.37173301933525],[-104.54786084999996,22.37648547933516],[-104.55125296999995,22.388866599334865],[-104.55738336999998,22.385753349334987],[-104.55863488999995,22.39332857933479],[-104.56087913999994,22.39477856933472],[-104.57480430999999,22.394866309334752],[-104.58207428999998,22.40044767933464],[-104.58377685999994,22.406073059334485],[-104.58681482999998,22.40648247933444],[-104.58846968999995,22.412654399334347],[-104.59308485999998,22.411954829334366],[-104.59409567999995,22.414972279334254],[-104.59309744999996,22.419983799334187],[-104.59458156999995,22.42297965933411],[-104.59347048999997,22.42560604933404],[-104.59876585999997,22.431722909333914],[-104.59717621999995,22.436755339333768],[-104.60150910999995,22.43916836933373],[-104.60543834999999,22.445457889333564],[-104.60212651999996,22.455437079333308],[-104.60256059999995,22.46050807933323],[-104.63835965999999,22.463419399333176],[-104.65529172,22.46215465933319],[-104.65368016999997,22.524241769331738],[-104.65565254999997,22.526500539331664],[-104.65679125999998,22.5332182793315],[-104.65561033999995,22.53418927933153],[-104.65714681999998,22.535754549331443],[-104.65575493999995,22.540069709331377],[-104.65900207999995,22.542271109331317],[-104.65923173999994,22.546038979331225],[-104.66306765999998,22.547708059331182],[-104.66372450999997,22.549269379331147],[-104.66234982999998,22.550675079331143],[-104.66618013999995,22.555375979331018],[-104.66762196999997,22.562545199330835],[-104.66999831999999,22.565261739330772],[-104.68095799999999,22.5590962493309],[-104.70873707999999,22.554624319331054],[-104.71105185999994,22.556585849330958],[-104.71516436999998,22.555948799331013],[-104.71979677999998,22.56904521933072],[-104.72323010999997,22.56697254933075],[-104.72523034999996,22.56152096933087],[-104.72818857,22.55893719933093],[-104.73705299999995,22.558095659330938],[-104.74573088999996,22.563480459330822],[-104.75981216999999,22.568718369330696],[-104.76756270999999,22.581389829330384],[-104.77537522999997,22.58420171933035],[-104.77257267999994,22.59189759933015],[-104.77538291999997,22.593485199330107],[-104.77595810999998,22.59762179933004],[-104.77848522999994,22.599458679329985],[-104.77773345999998,22.60153341932996],[-104.77980548,22.60334850932989],[-104.7761832,22.610200229329717],[-104.77558114999994,22.617222019329557],[-104.77711090999998,22.624996179329376],[-104.77614433999997,22.630475339329244],[-104.77409431999997,22.6325497793292],[-104.77879199999997,22.636861919329128],[-104.77764216999998,22.640285979329025],[-104.77940465999995,22.643177229328966],[-104.78891885999997,22.64797361932887],[-104.80425594999998,22.64874385932881],[-104.80513147999994,22.64584397932891],[-104.80274505999995,22.642818649328973],[-104.80402068999996,22.64034124932904],[-104.80778448999996,22.63982736932903],[-104.81107190999997,22.637853249329076],[-104.81130876999998,22.634765459329156],[-104.81467750999998,22.63424917932917],[-104.81647231999996,22.63609065932912],[-104.81522939999996,22.637209309329116],[-104.81669197999999,22.639682649329057],[-104.82943256999995,22.640226459329053],[-104.83717456999995,22.646030519328917],[-104.84002562999997,22.64586122932889],[-104.84112671999999,22.64939459932883],[-104.84011642999998,22.651138569328793],[-104.85839705999996,22.648326709328845],[-104.86249311999995,22.607070489329825],[-104.96052517,22.505311449332133],[-104.98791253999997,22.49872657933232],[-105.00755273999995,22.585671969330328],[-105.07236893999999,22.65649908932868],[-105.06842250999995,22.67841414932814],[-105.05730268999997,22.688093999327915],[-104.89272044999997,22.737409249326774],[-104.91295887999996,22.74556901932661],[-104.91563664999997,22.748537969326517],[-104.91431530999995,22.760264889326248],[-104.91151257999996,22.76916776932603],[-104.91341707999999,22.775293879325915],[-104.90972191999998,22.784431399325733],[-104.91337534999997,22.790485969325587],[-104.91039707999995,22.79519433932543],[-104.90659770999999,22.79623701932542],[-104.90557631999997,22.799577519325375],[-104.91102101999998,22.801331969325293],[-104.91127787999994,22.803415089325267],[-104.90839071999994,22.8053535093252],[-104.90825679999995,22.80760057932516],[-104.91146596999994,22.80933439932515],[-104.91195144999995,22.81220925932505],[-104.91838919999998,22.819780749324906],[-104.92975444999996,22.82642865932473],[-104.93422627999996,22.827310889324693],[-104.93602404999997,22.826504369324756],[-104.94050485999998,22.816163279324982],[-104.95172074999999,22.82182973932485],[-104.95498801999999,22.816249599324976],[-104.95896730999999,22.813604599325053],[-104.96503269,22.81559971932496],[-104.96740593999999,22.819308419324873],[-104.97114779999998,22.820585769324854],[-104.97169171999997,22.82466164932478],[-104.97827637999995,22.826201339324758],[-104.98151257999996,22.832446489324603],[-104.98840522999996,22.836049319324502],[-104.98963956999997,22.839645979324434],[-104.98746424999996,22.846184379324306],[-104.99061411999999,22.852144999324167],[-104.98786996999996,22.85551522932406],[-104.98849884999998,22.875040349323637],[-104.98973830999996,22.87614793932361],[-104.98700787999998,22.880807349323494],[-104.98779562999994,22.88825201932331],[-104.98956953999999,22.891429649323268],[-104.99429684999997,22.892310819323203],[-105.00035004999995,22.900297319323037],[-105.00506913999999,22.903552059322955],[-105.00548847999994,22.90707727932289],[-105.00143411,22.9059799793229],[-105.00005416999996,22.908897169322838],[-105.01003911999999,22.92236273932253],[-105.00994114999999,22.926542089322442],[-105.00419202999996,22.932013029322327],[-105.00396294999996,22.94065427932211],[-104.99689313999995,22.952001599321868],[-104.99802085999995,22.957173459321712],[-105.00320625999996,22.960102169321633],[-105.00834104999997,22.968458689321448],[-105.00822174999996,22.97149617932139],[-105.00313941999997,22.97698267932127],[-105.01382461999998,22.977672829321293],[-105.07601577999998,22.959638829321694],[-105.16357408999994,22.953871919321802],[-105.25408570999997,22.956271619321754],[-105.29769905999996,22.954162109321782],[-105.32356989,22.941330169322118],[-105.32834204999996,22.942988279322076],[-105.32842142999999,22.94701976932197],[-105.33037777,22.947688769321967],[-105.32821096999999,22.95264045932184],[-105.33202493999994,22.951706319321847],[-105.33414165999994,22.953408919321838],[-105.33084948999999,22.96317317932162],[-105.33567968999995,22.96259970932163],[-105.33730407999998,22.96413667932154],[-105.33711874999996,22.967688749321482],[-105.33901924999998,22.96643451932153],[-105.34304925999999,22.968159289321502],[-105.34250613999995,22.97041597932142],[-105.33837853999995,22.969699449321475],[-105.33683233999996,22.971199419321426],[-105.33947084999994,22.976085509321326],[-105.33626802999999,22.980473629321203],[-105.34011485999997,22.98250393932118],[-105.33671854999996,22.984740339321085],[-105.33505693999997,22.988760109321003],[-105.33896794999998,22.992865059320902],[-105.33370490999994,22.994682089320847],[-105.33859393999997,22.999640549320752],[-105.34102569,23.008369799320537],[-105.34410141999996,23.00779396932055],[-105.34496496999998,23.009945769320538],[-105.34314959999995,23.012342479320456],[-105.34974085999994,23.015124289320433],[-105.34950625999994,23.017179939320375],[-105.35385650999997,23.01978479932028],[-105.35247919999995,23.024763969320176],[-105.35332031999998,23.02854177932012],[-105.35079625999998,23.03563445931994],[-105.35517505999998,23.038451199319887],[-105.35608219999995,23.04417370931975],[-105.35877917999994,23.04625756931967],[-105.35510164999995,23.047113709319703],[-105.35401667999997,23.050272999319613],[-105.35087357999998,23.050938549319607],[-105.35285970999996,23.05529279931951],[-105.35047117999994,23.06057533931939],[-105.35794028,23.063195309319276],[-105.35612467999994,23.0651371793193],[-105.35896790999999,23.06707530931923],[-105.35734796999999,23.07190267931911],[-105.35831630999996,23.07392336931906],[-105.36130825999999,23.073397249319058],[-105.36448474999997,23.075244249319006],[-105.36788781999996,23.074050579319074],[-105.37544959999998,23.07903524931897],[-105.37792701999996,23.07776253931897],[-105.38037584999996,23.07891334931896],[-105.38081858,23.082035879318862],[-105.38356733999997,23.081741579318866]]],[[[-105.27134391999999,21.0492487193669],[-105.27544874999995,21.049384939366895],[-105.27474442,21.047304379366988],[-105.27182753999995,21.046382739367],[-105.27134391999999,21.0492487193669]]],[[[-106.22326651299994,21.329566123360095],[-106.23198305599999,21.335811835359962],[-106.23180464499995,21.333316573359987],[-106.23661945799996,21.331383101360075],[-106.23972026699994,21.333108368360016],[-106.25208055099995,21.33287164136001],[-106.25825650399997,21.334791589359988],[-106.26384587999998,21.32918524636012],[-106.26618340699999,21.328711566360095],[-106.26977628299996,21.323653617360225],[-106.27343929099999,21.322514605360258],[-106.27553646899999,21.317568195360355],[-106.27912678999998,21.31460994636048],[-106.27754528499999,21.31398962836047],[-106.274323402,21.306511931360635],[-106.26871092399995,21.30095018036081],[-106.25950140599997,21.29753377936086],[-106.25668351899999,21.292918742360953],[-106.25170017799996,21.291555775361022],[-106.24198963999999,21.292822126360957],[-106.23966832699995,21.297967563360842],[-106.23720567099997,21.29974249836081],[-106.23379393099998,21.29919148536082],[-106.23298536399994,21.295142271360962],[-106.229787048,21.291858175361018],[-106.228689413,21.296901507360914],[-106.22982739099996,21.3005866783608],[-106.22617871199999,21.306454014360643],[-106.22766888299999,21.30929338336059],[-106.22757453599998,21.31833344436038],[-106.22611309499996,21.31909009536032],[-106.22714231199996,21.321993969360275],[-106.22543291899997,21.323124228360236],[-106.22221149299999,21.32143198036029],[-106.22655871799999,21.32463191836024],[-106.22326651299994,21.329566123360095]]],[[[-106.43360893999994,21.49245814935616],[-106.43808082999999,21.49766471935602],[-106.44502887999994,21.493815109356156],[-106.46053711999997,21.49455194935614],[-106.47234285999997,21.483978679356383],[-106.48176647999999,21.479218829356462],[-106.48375962999997,21.480109319356462],[-106.48766270999995,21.472901149356623],[-106.49195939999998,21.46990151935672],[-106.49400833999995,21.466203229356818],[-106.49024607999996,21.465659849356822],[-106.48908451999996,21.46167165935689],[-106.48516277999995,21.460125019356973],[-106.48417170999994,21.45586305935706],[-106.48262191999999,21.45502408935706],[-106.48353136999998,21.45263407935713],[-106.48075722999995,21.45387381935711],[-106.47961108999999,21.452108689357125],[-106.48030854999996,21.449614139357198],[-106.47791754999999,21.45146454935713],[-106.46875996999997,21.45128441935714],[-106.46200936999999,21.448675709357204],[-106.45994865999995,21.445792199357275],[-106.45606727999996,21.445202429357312],[-106.45601470999998,21.443268249357367],[-106.45211745999997,21.443980829357322],[-106.45077641999995,21.44220211935737],[-106.44974893999996,21.443065459357374],[-106.44672176999995,21.441559059357374],[-106.44492779999996,21.43878110935743],[-106.44530901999997,21.43562133935755],[-106.44199588999999,21.43745253935747],[-106.43608574999998,21.437232539357467],[-106.42510596999996,21.43275181935763],[-106.42208910999994,21.432867109357627],[-106.41811579999997,21.430468659357633],[-106.41811442999996,21.42715659935774],[-106.41431657999999,21.427285199357716],[-106.41481796999994,21.42566553935779],[-106.41258027999999,21.42284194935786],[-106.40879928,21.424779419357797],[-106.39673971999997,21.419893849357912],[-106.39461214999994,21.421397599357856],[-106.39207358,21.4196754893579],[-106.38637484999998,21.419754419357915],[-106.3851686,21.42126704935787],[-106.38831728999999,21.424213799357826],[-106.38538365999995,21.428177369357726],[-106.38648601999995,21.43149601935764],[-106.38307059999995,21.436332249357537],[-106.38367966,21.438620919357465],[-106.38033308999997,21.44839876935721],[-106.36672594999999,21.455594059357068],[-106.35863753999996,21.455273349357043],[-106.3616578,21.46351394935686],[-106.36976914999998,21.47354964935662],[-106.37119648999999,21.48068161935644],[-106.37706490999994,21.48298999935636],[-106.40120691,21.483341489356377],[-106.40527505999997,21.486109109356292],[-106.41218582999994,21.486191679356306],[-106.41487868999997,21.488664519356252],[-106.42205822999996,21.48818505935625],[-106.42449322999994,21.4905389693562],[-106.43360893999994,21.49245814935616]]],[[[-106.65334771,21.69345165935134],[-106.65558859999999,21.695277029351306],[-106.66056267999994,21.692543399351344],[-106.65524105999998,21.688574109351446],[-106.64899713999996,21.679855199351692],[-106.64687304999995,21.666931349351945],[-106.64867090999998,21.6605930293521],[-106.65608493999999,21.655874079352227],[-106.65449291999994,21.65579254935225],[-106.64392124999995,21.64404030935251],[-106.64130691999998,21.63504701935275],[-106.63663881999997,21.628745579352888],[-106.63724939999997,21.626940969352958],[-106.62951187999994,21.618468379353104],[-106.62767404999995,21.609001179353378],[-106.63073454999994,21.602417169353497],[-106.62897288999996,21.59861208935363],[-106.59149168999996,21.57840964935407],[-106.560908,21.567687379354346],[-106.55893821999996,21.564626059354396],[-106.55799805,21.56626664935438],[-106.55294427999996,21.565258229354395],[-106.55228845,21.561693799354497],[-106.54879707999999,21.563987569354442],[-106.54622670999998,21.563214849354473],[-106.53763533999995,21.555616109354666],[-106.53833818,21.55180437935475],[-106.54138250999995,21.549297109354796],[-106.54167762999998,21.54431159935494],[-106.53220117999996,21.54476921935488],[-106.53352416999998,21.550860889354723],[-106.52704490999997,21.558349119354585],[-106.52125781999996,21.560937059354533],[-106.52112577999998,21.567011859354345],[-106.51580928999999,21.57093408935426],[-106.51184739999997,21.57046237935428],[-106.51554127999998,21.580128309354084],[-106.51562390999999,21.585926249353918],[-106.51205656999997,21.59745319935366],[-106.50569987999995,21.603345229353508],[-106.51356274999995,21.606143089353424],[-106.51752874999994,21.613074349353248],[-106.53714208799994,21.632841769352762],[-106.53569155799994,21.63457597835272],[-106.53799545499999,21.634886212352768],[-106.53928585999995,21.64439276935248],[-106.53486217999995,21.653190919352294],[-106.53630704999995,21.658084319352188],[-106.55053237,21.669774509351875],[-106.56626214999994,21.67530474935178],[-106.57510696999998,21.68191522935164],[-106.59614939999994,21.686209719351474],[-106.59823876999998,21.69032876935142],[-106.60603073999995,21.690035079351393],[-106.60785317999995,21.691664829351357],[-106.62344047999996,21.688833919351428],[-106.62658588999996,21.69185379935137],[-106.64409425999999,21.69450393935131],[-106.65334771,21.69345165935134]]],[[[-106.67320971,21.774852089349356],[-106.67818104999998,21.77352373934941],[-106.67840761999997,21.76762494934954],[-106.68165414999999,21.758709049349775],[-106.68772677999999,21.759368229349775],[-106.68572288999998,21.756636059349837],[-106.68745864999995,21.7457910293501],[-106.67795739999997,21.728686149350484],[-106.67215522999999,21.729664799350434],[-106.65771565999995,21.739452689350244],[-106.66531891999995,21.748701449350015],[-106.66569331999995,21.758221579349794],[-106.66899641999998,21.763988459349665],[-106.66808296999996,21.76642637934958],[-106.67036756999994,21.768488229349554],[-106.66907682,21.771453459349463],[-106.67320971,21.774852089349356]]],[[[-105.88968411799999,21.85417473734749],[-105.88945078299997,21.84946589434761],[-105.88639700899995,21.84843207934765],[-105.88583645099999,21.845743545347695],[-105.88736584799996,21.84080992734782],[-105.88485180899994,21.840633300347797],[-105.88487548199998,21.843665745347757],[-105.88269158299994,21.844892146347732],[-105.880275559,21.842550795347783],[-105.88172495299996,21.850382071347603],[-105.88524887499996,21.853205903347515],[-105.88968411799999,21.85417473734749]]]]}}]}
