{"type":"FeatureCollection","features":[{"type":"Feature","properties":{"cve_ent":"19","cvegeo":"19","nombre_inegi":"Nuevo León","nombre_catalogo":"Nuevo León"},"geometry":{"type":"Polygon","coordinates":[[[-100.18799747999998,27.79872196922104],[-100.35060984999996,27.68459854922318],[-100.41769954999995,27.393632750228665],[-100.67800622,27.334797309229792],[-100.83412341999998,27.195173969232446],[-100.83056139999997,27.073885479234786],[-100.81491025999998,27.071123769234834],[-100.80960682999996,27.068367829234898],[-100.80764791999998,27.065831459234914],[-100.80926851999999,27.05648247923512],[-100.79943611999994,27.04583074923532],[-100.79746325999999,27.045657479235324],[-100.79526908999998,27.049981179235218],[-100.78422999999998,27.058922289235074],[-100.77869450999998,27.059090399235078],[-100.77015685999999,27.063087719235003],[-100.76586399999998,27.06332514923496],[-100.76267407999997,27.062634139235],[-100.74853082999994,27.04915268923524],[-100.74704826,27.0461110492353],[-100.74851622999995,27.039917289235433],[-100.74771353999996,27.03625677923549],[-100.74089205999996,27.041057029235407],[-100.73583581999999,27.047579719235294],[-100.74618301999999,27.062355289234983],[-100.74862097999996,27.081252819234624],[-100.73771013999999,27.08472976923455],[-100.72978117999997,27.081417369234646],[-100.72613007999998,27.077882199234686],[-100.71965961999996,27.07920337923465],[-100.71164851999998,27.088486799234506],[-100.71083050999995,27.095495599234365],[-100.70810647999998,27.099851889234262],[-100.702052,27.10252896923422],[-100.69745284999999,27.108752739234117],[-100.68271870999996,27.111394579234027],[-100.67679125999996,27.10687737923417],[-100.67424248999998,27.084604969234558],[-100.66925213999997,27.087064199234526],[-100.66248577999994,27.086514649234513],[-100.65602191,27.082133279234622],[-100.65370422999996,27.075729689234752],[-100.53399785,27.045584429235355],[-100.53880922999997,27.03867568923545],[-100.53570171999996,27.027004919235655],[-100.54081833999999,27.013823379235966],[-100.54193711,26.996636859236244],[-100.53973696999998,26.986250219236474],[-100.54525387999996,26.978355779236647],[-100.54115583,26.96596114923687],[-100.54270261999994,26.96042008923699],[-100.54080908999998,26.95480805923709],[-100.54182321999997,26.94919927923722],[-100.53823939999995,26.939719849237402],[-100.54042651999998,26.93251434923753],[-100.54492628999998,26.92534881923767],[-100.53842979999996,26.90611970923802],[-100.54157294999999,26.888893149238363],[-100.54066579999994,26.880969979238497],[-100.55135865999995,26.85872973923895],[-100.54661744999999,26.84765524923918],[-100.54758941999995,26.845241169239223],[-100.54561657999996,26.84144702923928],[-100.54623965999998,26.831884659239496],[-100.54472811999995,26.822690029239645],[-100.54172205999998,26.82124831923968],[-100.54143256999998,26.812738449239827],[-100.53858873999997,26.81154636923986],[-100.53815574999999,26.80855819923992],[-100.55367363,26.791424539240253],[-100.55716847999997,26.790307549240254],[-100.56065945999995,26.78549977924039],[-100.56630084999995,26.782078479240457],[-100.59013582999995,26.759520659240906],[-100.60130711999996,26.737077079241335],[-100.61440019999998,26.685638889242345],[-100.69122888999999,26.61378941924374],[-100.75303544999997,26.735207799241376],[-100.90509117,26.60863810924386],[-101.07886237999998,26.469261429246632],[-101.18960134999999,26.384680029248248],[-101.20676270999996,26.36977819924856],[-101.18544205999996,26.345400949249065],[-101.13629684999995,26.29545993925007],[-101.09761969,26.252910419250885],[-101.09173894999999,26.24451104925106],[-101.07464691999998,26.198974739251987],[-101.06857465899998,26.18903103025222],[-101.04739817899997,26.16984601925255],[-101.02717974999996,26.159663779252803],[-101.00888276999997,26.153823650252892],[-100.98274204999997,26.13947719925318],[-100.97225904999999,26.127680680253444],[-100.95287033999996,26.10032570925397],[-100.94263942899994,26.090618050254164],[-100.942898019,26.08678905925427],[-100.91641565999998,26.075610550254485],[-100.90460608899997,26.008702229255817],[-100.90553164999994,25.9569457092569],[-100.87687866,25.947219169257068],[-100.83442487999997,25.94504290925711],[-100.82724481999998,25.920496709257645],[-100.82266893899998,25.916884540257715],[-100.835765569,25.866594309258712],[-100.83711964899999,25.863812580258767],[-100.84706870999997,25.85788572025891],[-100.86190139999997,25.8184786202597],[-100.82512359799995,25.75172112026107],[-100.80561394999997,25.72430179926161],[-100.80369870899996,25.70875537926196],[-100.78777527899996,25.683597220262484],[-100.78040982799997,25.64572942926326],[-100.78342024799997,25.639678429263377],[-100.72977288899996,25.63389565926349],[-100.71991647999994,25.6030669492641],[-100.69028633999996,25.56710077926484],[-100.66432214999998,25.569399680264812],[-100.65848331899998,25.567963019264834],[-100.64434456999999,25.572465309264736],[-100.63290184899995,25.57129934926479],[-100.61195976899997,25.551399369265205],[-100.61497684999995,25.546569479265308],[-100.614732539,25.54234691026536],[-100.59429844899995,25.544374149265344],[-100.55999681999998,25.534893369265543],[-100.54830701999998,25.534270550265564],[-100.538435909,25.53185392026559],[-100.52969931999996,25.514392880265955],[-100.59975033899997,25.51995952026581],[-100.61909057999998,25.505691080266143],[-100.57951030899994,25.494543979266368],[-100.58488908899994,25.470813050266855],[-100.56096711899994,25.46453840026695],[-100.53088314999997,25.46346764926699],[-100.52541308999997,25.449753850267268],[-100.51746377999996,25.449036599267306],[-100.52270308999995,25.434324719267625],[-100.50169037999996,25.432836769267638],[-100.49355142999997,25.43084074026769],[-100.46934007999994,25.42172174026787],[-100.45187836899999,25.41081071926808],[-100.47009881899999,25.337789850269584],[-100.44602861899995,25.331857689269732],[-100.43353805999999,25.33149168026974],[-100.41456067999997,25.326998110269816],[-100.41436037999996,25.329899919269796],[-100.39103013899997,25.32805879926985],[-100.32680371,25.340356479269538],[-100.31302344899996,25.33636721926965],[-100.30427113999997,25.328973180269788],[-100.29235094899997,25.325547890269867],[-100.28157961899997,25.319713719269984],[-100.27743594899995,25.316285969270037],[-100.27621316999995,25.313007339270158],[-100.263974509,25.30529339927028],[-100.25413842999995,25.306908770270265],[-100.24314190899999,25.267443350271094],[-100.25394159999996,25.265567650271095],[-100.26251011999994,25.254022799271347],[-100.23442050899997,25.235496429271777],[-100.24468645899998,25.228986600271874],[-100.24719536899995,25.23017448927185],[-100.22957559899999,25.21791651027212],[-100.26138350899998,25.20707057027233],[-100.30528361899997,25.213417229272228],[-100.32555011999995,25.222258750272005],[-100.33200741999998,25.186285219272794],[-100.40740917899996,25.20896810927232],[-100.44364142899998,25.223145220272002],[-100.47251737899995,25.23119566027186],[-100.49854645999994,25.23750747927169],[-100.52960687999996,25.24014294027165],[-100.54783904999994,25.243631799271597],[-100.59196241999996,25.255050020271344],[-100.70888777999994,25.23645756927171],[-100.80313044999997,25.165258459273247],[-100.82150559899998,24.996710830276772],[-100.79206308899995,24.97914818027714],[-100.79146299999996,24.974050679277266],[-100.75394981899997,24.94339291927792],[-100.72749548899998,24.918716549278443],[-100.82613241999996,24.835004569280176],[-100.82741348899998,24.82420789028047],[-100.79697824899995,24.750806910282],[-100.80547293999996,24.596340120285298],[-100.79993411999999,24.556186079286164],[-100.74232428999996,24.46043545928824],[-100.71121008999997,24.491521829287596],[-100.60353333999997,24.40130005928953],[-100.59993551999999,24.348791049290664],[-100.63306647999997,24.225980249293382],[-100.58509290999997,24.223925429293413],[-100.59351253999996,24.178200249294377],[-100.61339988999998,24.17394417929447],[-100.54962419999998,24.14830239929503],[-100.54877111999998,24.146030569295093],[-100.51682748999998,24.139896679295223],[-100.51958001999998,24.118382339295692],[-100.53868325999997,24.11851602929568],[-100.52375899999998,24.071454949296715],[-100.54128265999998,24.025747619297743],[-100.56240161999996,23.919641079300106],[-100.54676779999994,23.917436619300112],[-100.54943430999998,23.88931459930073],[-100.53984561999994,23.88839305930077],[-100.55029868999998,23.842202579301787],[-100.52552994999998,23.839525909301887],[-100.52879142999997,23.816352629302358],[-100.49760171999998,23.79871268930276],[-100.49770627999999,23.736309709304155],[-100.49030233999997,23.73960087930409],[-100.47414736999997,23.706843119304775],[-100.46793256999996,23.700086999304947],[-100.46626301999999,23.693273079305087],[-100.46802036999999,23.69260068930513],[-100.46648327999998,23.688941029305163],[-100.46475794999998,23.69088277930514],[-100.46448708999998,23.688722799305207],[-100.46186188999998,23.689064689305212],[-100.46203817999998,23.694627349305097],[-100.44710042999998,23.696534519305033],[-100.44572011999998,23.677331519305458],[-100.45832844999995,23.660112549305854],[-100.44984459999995,23.656008939305927],[-100.45435511999995,23.649904549306047],[-100.46335053999998,23.653140199305994],[-100.47737862999998,23.633818689306437],[-100.48664930999996,23.604138909307107],[-100.48865345999997,23.605047049307075],[-100.49163688999994,23.568612509307883],[-100.46954494999996,23.566783109307952],[-100.46751624999996,23.543566399308435],[-100.45914748999998,23.533163769308672],[-100.45917610999999,23.51156610930916],[-100.46441599999997,23.512082029309152],[-100.49416867999999,23.528406399308782],[-100.49761691999998,23.49402701930955],[-100.51721131999994,23.421042849311192],[-100.51401744999998,23.415630999311347],[-100.45708324999998,23.36640959931243],[-100.48386908999998,23.208832019315995],[-100.47984967999997,23.194365349316342],[-100.33175793999999,23.162683179317035],[-100.32351519999997,23.195627449316316],[-100.36376430999997,23.189005379316416],[-100.37431656999996,23.26532381931471],[-100.33169253999995,23.259092369314892],[-100.32581222999994,23.263092659314758],[-100.30625693999997,23.260942119314805],[-100.27843497999999,23.31036839931372],[-100.22016644999997,23.297931719313993],[-100.21823771999999,23.3101343493137],[-100.20636422999996,23.30710885931375],[-100.22823650999999,23.250476149315055],[-100.12240688999998,23.2355931493154],[-100.10189528999996,23.231080400315484],[-100.08564853899998,23.287037429314235],[-100.07958513999995,23.29609397931399],[-100.07804111999997,23.305983909313813],[-100.14495021999996,23.339515179313025],[-100.12072713999999,23.357764819312624],[-100.08026142999996,23.395748199311782],[-100.04717122999995,23.396007079311772],[-100.00913133999995,23.39198845931185],[-99.98250247999994,23.392367259311868],[-99.92125339999997,23.379191339312122],[-99.96118762999998,23.55688976930815],[-99.91580025999998,23.66507833930572],[-99.89111956999996,23.703806579304867],[-99.86065997999998,23.77446248930332],[-99.80551890999999,23.784297919303057],[-99.76901388999994,23.784488119303063],[-99.68337773999998,23.776648199303263],[-99.61948631999998,23.759662399303604],[-99.60216747999999,23.762870879303538],[-99.57668084999995,23.775462059303266],[-99.49379107999994,23.878692979300965],[-99.45687071899994,23.866063049301246],[-99.48693985999996,23.960500619299186],[-99.52002485999998,23.99057813929849],[-99.54091205999998,23.99727162929837],[-99.54189270999996,24.033649169297554],[-99.57090170999999,24.039366909297463],[-99.65708062999995,24.117996579295717],[-99.64781782999995,24.21809504929352],[-99.64311239999995,24.22535610929338],[-99.62021381999995,24.278396489292184],[-99.59428973999998,24.33091321929108],[-99.58934081999996,24.35082059929065],[-99.58993110999995,24.396142369289667],[-99.61153348999994,24.45276076928843],[-99.62858144999997,24.492171349287553],[-99.63637931999996,24.506670249287275],[-99.71980385999996,24.483710429287736],[-99.73297777,24.553990779286238],[-99.70468567999997,24.575869169285745],[-99.60944858,24.622490079284738],[-99.60312733999997,24.62130213928481],[-99.59703427999996,24.622670399284765],[-99.59262842999999,24.61937277928483],[-99.58578257999994,24.62435516928473],[-99.58577507999996,24.62239930928476],[-99.57943385,24.622166229284783],[-99.57607630999996,24.623597119284735],[-99.57371305999999,24.620270259284794],[-99.57010182999994,24.619997659284792],[-99.56852025999996,24.617306399284885],[-99.55736121999998,24.61237233928497],[-99.55834072,24.609820179285023],[-99.55720610999998,24.608714799285046],[-99.55318854999997,24.61243631928496],[-99.54981524999994,24.611566309285],[-99.54622051999996,24.613074769284946],[-99.54777662999999,24.61532536928491],[-99.54522603,24.61870450928484],[-99.54781067999994,24.624275849284736],[-99.54506301999999,24.626516599284688],[-99.53977034999997,24.626786459284688],[-99.53793569,24.622428819284753],[-99.53597893999995,24.625786279284704],[-99.53039741999999,24.62801927928464],[-99.52820062999996,24.631644649284578],[-99.52073548999995,24.63406088928453],[-99.51282781999998,24.634481449284518],[-99.49945227999996,24.641257949284373],[-99.49805356999997,24.648309399284226],[-99.49602962999995,24.65103865928414],[-99.49819019999997,24.654129399284077],[-99.49773817999994,24.65773904928399],[-99.50057467999996,24.66598530928384],[-99.50072605999998,24.679171259283518],[-99.49826302999999,24.684234819283414],[-99.49413241999999,24.687995569283363],[-99.49126739999997,24.695300629283228],[-99.49193614999996,24.697698479283144],[-99.48820908999996,24.69989819928311],[-99.48683165999996,24.70325342928306],[-99.48485005999999,24.703490999283023],[-99.48215568999997,24.70824613928291],[-99.47689834,24.711608509282883],[-99.47773548999999,24.712620969282824],[-99.47104385999997,24.714880879282788],[-99.46700188999995,24.720124709282665],[-99.46496611999999,24.72004293928266],[-99.45946137999994,24.724919249282543],[-99.45556331999995,24.725285719282557],[-99.45270547999996,24.728399859282455],[-99.45063861999996,24.728469459282476],[-99.45076387999997,24.730796019282458],[-99.44807654999994,24.73220642928243],[-99.44259622999999,24.726836309282543],[-99.43671490999999,24.725152679282566],[-99.43579116999997,24.726392199282564],[-99.43072801999995,24.725758339282525],[-99.42499796999994,24.730057939282453],[-99.42294381999996,24.736750369282294],[-99.41491232,24.73521551928235],[-99.41026379999994,24.736079349282342],[-99.40660457999996,24.734506259282345],[-99.39759459999999,24.73990001928224],[-99.38941242999995,24.73979256928228],[-99.38595024999996,24.745063509282105],[-99.38176079999994,24.747037819282106],[-99.38239331999996,24.749842259282016],[-99.3763732,24.76144339928181],[-99.37304353999998,24.76277842928174],[-99.37221766,24.765590659281695],[-99.36788007999996,24.7655605792817],[-99.36437668999997,24.771755459281582],[-99.35418719999996,24.771725019281586],[-99.33166529,24.776243109281474],[-99.32476891999995,24.78471699928129],[-99.31786776999998,24.789830569281182],[-99.31069385999997,24.787276109281237],[-99.30683088999996,24.792027979281137],[-99.30354551999994,24.791378219281153],[-99.30022016999999,24.79397977928107],[-99.29719561999997,24.794116909281104],[-99.29492848999996,24.804143709280886],[-99.21288547999995,24.771674849281585],[-99.18865311999998,24.780679599281367],[-99.18197125999995,24.776041059281493],[-99.20743334999999,24.861392149279627],[-99.15894290999996,24.91598816927849],[-99.18094953999999,25.011541549276473],[-99.17830811999994,25.017664549276358],[-99.17174207999994,25.019727629276275],[-99.17106894999995,25.024804969276186],[-99.16490474999996,25.02951139927608],[-99.15991865999996,25.025831539276187],[-99.15651650999997,25.027847829276116],[-99.16361117999999,25.03492404927595],[-99.16290591999996,25.043559859275813],[-99.16697757999998,25.046289459275712],[-99.16114641999998,25.0484073792757],[-99.16059193999996,25.055277309275557],[-99.15611853999997,25.056369709275536],[-99.14876421999999,25.05501939927554],[-99.14522157999995,25.052712709275593],[-99.14264953999998,25.05417081927554],[-99.13509279999994,25.05038001927562],[-99.13346157999996,25.051566949275628],[-99.13385627999997,25.053527249275586],[-99.13090817999995,25.05188841927563],[-99.12742199999997,25.055930449275554],[-99.12492531999999,25.054330149275575],[-99.12017008999999,25.05731047927552],[-99.11378673999998,25.056141509275513],[-99.11163734999997,25.05906236927547],[-99.10626985999994,25.059532019275476],[-99.10400122999994,25.061938219275415],[-99.10142719999999,25.06197785927543],[-99.09995234999997,25.06475934927533],[-99.09761310999994,25.063121119275397],[-99.09554142999998,25.065030579275327],[-99.09577187999997,25.06700459927532],[-99.10146442999996,25.069364479275244],[-99.09773224999999,25.073748089275146],[-99.09419170999996,25.074473289275165],[-99.09769521999999,25.07803633927505],[-99.08985957999995,25.078259289275067],[-99.08904842999999,25.075732979275106],[-99.08545782,25.07723704927509],[-99.08194444999998,25.073711799275177],[-99.08132708999995,25.077681139275064],[-99.07857193999996,25.07976934927503],[-99.08028075,25.08342934927497],[-99.07561874999999,25.085268969274942],[-99.07502577999998,25.087933149274825],[-99.07876374999996,25.09212039927477],[-99.07314576999995,25.09336856927474],[-99.07145845999997,25.096112109274664],[-99.07244702999999,25.09769385927465],[-99.07729899999998,25.098717349274654],[-99.07786924999999,25.10143354927454],[-99.07059541999998,25.10226522927456],[-99.06987245,25.10453847927449],[-99.07296611999999,25.108159479274427],[-99.06727722999996,25.110691519274376],[-99.06615637999994,25.1138101192743],[-99.06827905999997,25.114373999274303],[-99.06773727999996,25.116133919274247],[-99.05999230999998,25.11769145927423],[-99.05929959999997,25.121292259274178],[-99.05423816999996,25.12381313927408],[-99.05246813999997,25.127132629274044],[-99.04793285999995,25.120281969274192],[-99.04202008999994,25.12298197927415],[-99.03997033999997,25.1196741092742],[-99.03501951,25.120035629274206],[-99.03355937999999,25.113468579274343],[-99.02880202999997,25.1103549092744],[-99.02924036999997,25.10778428927443],[-99.03374134999996,25.107063679274468],[-99.03023928999994,25.100991969274585],[-99.02952247999998,25.096392819274687],[-99.02598621999995,25.092617849274767],[-99.02175050999995,25.093702879274716],[-99.02105751,25.089203819274807],[-99.01566424999999,25.08606811927489],[-99.01671302999995,25.082723509274963],[-99.01418217999999,25.08060711927499],[-99.01957191999999,25.07919462927507],[-99.01754454999998,25.07557757927514],[-99.02241785999996,25.073316819275167],[-99.01905588999995,25.06992530927521],[-99.01496679999997,25.07007773927524],[-99.00751501999997,25.067276549275263],[-99.00016162999998,25.06735216927528],[-98.99911276999995,25.06836888927526],[-99.00022941999998,25.07060984927521],[-98.99773390999997,25.071321819275195],[-98.99111076999998,25.070241939275256],[-98.98944457,25.067367979275275],[-98.98540814999997,25.070503249275227],[-98.98516745899998,25.074402320275134],[-98.98253547999998,25.07399625927516],[-98.98196825999997,25.070711089275203],[-98.97768665999997,25.07184561927519],[-98.97771268999998,25.06932201927527],[-98.97635604999995,25.06877304927527],[-98.96988422999999,25.071899229275193],[-98.97202751999998,25.072836939275174],[-98.97080048999999,25.074017319275143],[-98.96812324999996,25.07330042927519],[-98.96834337999998,25.07040211927521],[-98.96114945999996,25.073193739275187],[-98.95924993999995,25.0760351392751],[-98.95737579999997,25.07579408927511],[-98.95662804999996,25.07334867927516],[-98.95521413999997,25.076134179275105],[-98.94751659999997,25.07393799927515],[-98.94620918,25.076551429275085],[-98.94117813999999,25.07085664927522],[-98.93765805,25.072909949275186],[-98.93416993999995,25.07276317927516],[-98.93428159999996,25.080162979275034],[-98.93227651999996,25.078828449275065],[-98.93371184999997,25.076074249275088],[-98.92902757999998,25.07727030927511],[-98.92529150999998,25.082253259274992],[-98.92380844999997,25.081916419274958],[-98.88812685999996,25.109451049274426],[-98.58425897999997,25.331264619269774],[-98.58525385999997,25.332329629269733],[-98.58284644999998,25.334029429269687],[-98.58191837,25.332925619269695],[-98.56892254999998,25.341952719269536],[-98.42313165999997,25.44749290926733],[-98.42157607999997,25.48935553926649],[-98.58175157999996,25.489361739266464],[-98.58035628999994,25.637302719263403],[-98.58512605999994,26.017917599255618],[-98.74115048999994,26.037355709255245],[-98.74047017,26.03445850925529],[-98.74672904999994,26.0351815392553],[-98.74628721999996,26.038041199255247],[-98.82322654999996,26.04764867925506],[-98.90075194999999,25.968322739256667],[-99.02387219999997,26.104102449253865],[-99.02167568999994,26.098413799254022],[-99.02503247999994,26.09342948925413],[-99.03725274999994,26.093470219254094],[-99.04499205999997,26.098705139254],[-99.05505854999997,26.092477859254117],[-99.06253933999994,26.090719089254176],[-99.06388877999996,26.08630707925424],[-99.06253534999996,26.08013542925437],[-99.06662539999996,26.077830169254412],[-99.07452334999995,26.078785399254436],[-99.07642070999998,26.076347509254482],[-99.07654207999997,26.071864019254573],[-99.09333161999996,26.070509429254606],[-99.09641210999996,26.072757969254535],[-99.09333677999996,26.07847416925442],[-99.09502602999999,26.080560259254348],[-99.09766885999994,26.080746769254397],[-99.10862314999997,26.07900428925442],[-99.11473417999997,26.0759668892545],[-99.11989236999995,26.066513889254676],[-99.13090665999995,26.068816399254622],[-99.13233748999994,26.064721089254682],[-99.12398279999996,26.056666739254826],[-99.12631181999997,26.054022889254917],[-99.14093302999999,26.052966819254937],[-99.14229457999994,26.055968029254853],[-99.14157596999996,26.059813819254785],[-99.14337124999997,26.061131289254764],[-99.15243327999998,26.062356289254723],[-99.16007747999998,26.061229549254783],[-99.16191642999996,26.07026124925458],[-99.16701941999997,26.07546827925448],[-99.17100182999997,26.094494979254083],[-99.19783596999999,26.25868231925079],[-99.26000156999999,26.25284997925093],[-99.36415025999997,26.329270149249393],[-99.37211585999995,26.321941519249528],[-99.37699368999995,26.32159759924956],[-99.37996964999996,26.31774888924964],[-99.38584901999998,26.31714665924962],[-99.39473722999999,26.306239919249855],[-99.40123611999998,26.304799139249887],[-99.43094657999995,26.35130113924893],[-99.41424297999998,26.444806379247087],[-99.40983214999994,26.442836799247136],[-99.39682481999995,26.59656553924406],[-99.53833524999999,26.664595619242753],[-99.65916445999996,26.670365139242637],[-99.66306582999994,26.678075679242497],[-99.66319661999997,26.682911579242386],[-99.65719482999998,26.69511797924217],[-99.64945074999997,26.702723569241993],[-99.63571891999999,26.710815919241863],[-99.62973253999998,26.71977948924168],[-99.62161747999994,26.723199599241592],[-99.61858145999997,26.72647053924151],[-99.61872093999995,26.737684459241283],[-99.61614357999997,26.75436350924101],[-99.62285247999995,26.769227769240686],[-99.62188845999998,26.77136785924067],[-99.61547773999996,26.775233229240555],[-99.61505743,26.778866139240495],[-99.61117014999996,26.782489969240423],[-99.61285399999998,26.791630149240273],[-99.60740791999996,26.796660279240125],[-99.60702102999994,26.800024279240102],[-99.60458521999999,26.800050979240087],[-99.60381150999996,26.807923799239916],[-99.59706027999995,26.80960722923989],[-99.59890568999998,26.81456841923982],[-99.59496736999995,26.815038749239786],[-99.59123996999996,26.813493939239834],[-99.58921410999994,26.81459744923982],[-99.58929099999995,26.81961559923974],[-99.58684762999997,26.824821109239622],[-99.58084281999999,26.830112549239484],[-99.58351956999998,26.832028739239473],[-99.58170271999995,26.83417188923942],[-99.58435602999998,26.848095799239175],[-99.58851544999999,26.852458889239053],[-99.59340656999996,26.854536539239007],[-99.58986057999994,26.86072297923891],[-99.59104662999994,26.86254804923887],[-99.61121904999999,26.873475849238638],[-99.62106408999996,26.868414739238755],[-99.62705256999999,26.87045782923874],[-99.62850801999997,26.873799289238676],[-99.62522621999996,26.883001909238498],[-99.62767091999997,26.883932369238426],[-99.62875488999998,26.8812162792385],[-99.63101367999998,26.883853519238468],[-99.63075744999998,26.887379289238407],[-99.62868091999997,26.88858670923834],[-99.63003011999996,26.890290419238337],[-99.63468133999999,26.89114373923834],[-99.63693177999994,26.88726962923839],[-99.64433348999995,26.88556764923842],[-99.64665377999995,26.887719769238373],[-99.64734914999997,26.894407539238234],[-99.65382142,26.896219689238244],[-99.66139051999994,26.900838519238114],[-99.66340654999999,26.900242319238156],[-99.66700933999995,26.89437321923824],[-99.67629044999997,26.89453777923828],[-99.68100977999995,26.896184999238226],[-99.68722290999995,26.894546999238248],[-99.68553702999999,26.89903430923816],[-99.69114188999998,26.908205919237997],[-99.69402041999996,26.90929933923799],[-99.69706762999999,26.906716419238027],[-99.69788396999996,26.898566859238194],[-99.70347647999995,26.90547342923802],[-99.70692773999997,26.904056629238088],[-99.70992997999997,26.905878999238006],[-99.71368151999997,26.901704449238125],[-99.70998024999994,26.89927590923813],[-99.71044259999996,26.896752399238185],[-99.72110228999998,26.89650373923823],[-99.72681874999995,26.89888525923816],[-99.72596868999995,26.90056511923816],[-99.72790117999995,26.9035153392381],[-99.72380837999998,26.903573779238073],[-99.72399667999998,26.90612594923802],[-99.73146799999995,26.908703849237977],[-99.73933224999996,26.907374349238008],[-99.74434631999998,26.912156369237906],[-99.74733017999995,26.909657819237978],[-99.74614013999997,26.9038230292381],[-99.74766136999995,26.900243819238156],[-99.75212302999996,26.900048319238156],[-99.75921044999996,26.895117879238235],[-99.76464261999998,26.893971449238254],[-99.76666888999995,26.88984190923832],[-99.77013149,26.92841821923757],[-99.73416811999999,26.92061285923776],[-99.65005282999994,27.065857889234955],[-99.65891165999994,27.088189079234517],[-99.67891874999998,27.102448289234218],[-99.74767041899997,27.277246999230876],[-99.75855250999997,27.389622879228742],[-99.76037881999999,27.436958719227857],[-99.91915362999998,27.49151517922684],[-99.92641827999996,27.549156999225715],[-99.72814673999996,27.679126219223296],[-99.73622986,27.690710219223053],[-99.75674822999997,27.711371599222712],[-99.76077814999998,27.721504719222498],[-99.76936067999998,27.730887879222333],[-99.77498339999994,27.73356634922227],[-99.78752342999996,27.730500029222306],[-99.79650339999996,27.7358821692222],[-99.80175696999999,27.742353489222086],[-99.80801973999998,27.765335579221688],[-99.81337096999995,27.77425134922151],[-99.81882961999999,27.7761729092215],[-99.82249430999997,27.766535169221672],[-99.83284504999995,27.762745289221744],[-99.83972377999999,27.76490854922167],[-99.84322257999997,27.76986281922162],[-99.91004982999999,27.698620769222934],[-99.91135501999999,27.699257459222935],[-99.93268682999998,27.674420739223393],[-99.99884482999995,27.615279399224523],[-100.18799747999998,27.79872196922104]]]}}]}
