{"type":"FeatureCollection","features":[{"type":"Feature","properties":{"cve_ent":"20","cvegeo":"20","nombre_inegi":"Oaxaca","nombre_catalogo":"Oaxaca"},"geometry":{"type":"MultiPolygon","coordinates":[[[[-96.67441648999996,18.66593611942726],[-96.68329927999997,18.669316819427202],[-96.68402104999996,18.656752339427502],[-96.68265119999995,18.655820049427547],[-96.68109628999997,18.64794901942776],[-96.68869696999997,18.638792829428],[-96.68739361999998,18.63592781942808],[-96.68311396999997,18.6348659394281],[-96.68259830999996,18.631215619428165],[-96.67981421999997,18.63014767942822],[-96.67827945999996,18.626405719428305],[-96.67496819999997,18.624341169428366],[-96.67215465999999,18.6185841794285],[-96.67246351999995,18.607574119428797],[-96.67901262999999,18.6077805694288],[-96.68420010899997,18.603792939428917],[-96.68776347999994,18.595057999429148],[-96.68952388499997,18.596069353429133],[-96.69382830899998,18.591208849429233],[-96.69215637999997,18.586567059429363],[-96.68776256999996,18.58362905942946],[-96.68875871999995,18.581215739429517],[-96.69331370999998,18.578611679429574],[-96.70214897999995,18.581226709429526],[-96.69094057999996,18.567974379429863],[-96.69963071999996,18.55334288943025],[-96.71560477999999,18.573241489429712],[-96.72422171999995,18.558987539430067],[-96.71182668999995,18.548055479430406],[-96.71905044999995,18.536914149430647],[-96.72578985999996,18.535863029430672],[-96.72428127999996,18.530334549430865],[-96.72689947999999,18.529828999430872],[-96.71902779999999,18.522127679431037],[-96.71414733999995,18.527558109430892],[-96.71112711999997,18.5281919494309],[-96.70616882999998,18.526336689430945],[-96.70286771999997,18.510269019431384],[-96.69760368999994,18.5098636494314],[-96.69643537999997,18.511523649431357],[-96.69340445999995,18.510881289431342],[-96.68840451999995,18.5127279394313],[-96.68450522999996,18.50754701943145],[-96.68227521999995,18.507118149431456],[-96.68411311999996,18.504682019431538],[-96.68154401999999,18.503272769431533],[-96.68251065999999,18.499001149431642],[-96.68595879999998,18.497550569431702],[-96.68625537999998,18.493577149431832],[-96.69107841999994,18.489827919431885],[-96.68933422999999,18.48841642943193],[-96.68565653999997,18.489605799431914],[-96.68760433999996,18.486623229432016],[-96.68424794999999,18.486911249431984],[-96.68630456999995,18.483594229432068],[-96.68367613999999,18.484762339432017],[-96.68309261999997,18.481531999432146],[-96.68489177999999,18.479500479432204],[-96.68343741999996,18.478430319432185],[-96.68424070999998,18.47545085943226],[-96.68254190999994,18.475062169432302],[-96.68677387999998,18.47196439943237],[-96.68818430999994,18.46842045943248],[-96.69024536999996,18.468973339432445],[-96.69079417999995,18.467406089432497],[-96.68818671999998,18.46273544943259],[-96.69274979999994,18.4623596894326],[-96.69288327999999,18.457549319432754],[-96.69507757999997,18.458545489432744],[-96.70532344999998,18.45671056943277],[-96.70260422999996,18.454395769432868],[-96.70440477999995,18.452927549432847],[-96.70450327999998,18.44972079943294],[-96.70721279999998,18.448927479433006],[-96.70501147999994,18.448264059432983],[-96.70534930999997,18.443441379433104],[-96.70764927999994,18.44263734943314],[-96.70573828999994,18.439611679433217],[-96.70716973999998,18.437354349433313],[-96.70526607999994,18.435451619433323],[-96.70870987999997,18.4358905694333],[-96.70904294999998,18.432419029433436],[-96.70499948999998,18.43201033943341],[-96.70970711999996,18.42995416943346],[-96.70757897999995,18.428836679433527],[-96.70935748999995,18.427962909433568],[-96.70907787999994,18.425695539433598],[-96.70591294999997,18.422894369433667],[-96.68436470999995,18.415688459433873],[-96.68103724999997,18.412204429433935],[-96.68143970999995,18.38565702943467],[-96.67977907999995,18.386860659434593],[-96.68066213999998,18.383986089434718],[-96.67953201999995,18.38293256943471],[-96.67669182999998,18.383443799434723],[-96.67625359999995,18.38564793943467],[-96.67456331999996,18.381395419434767],[-96.68161514999997,18.37558407943493],[-96.68330059999994,18.378394019434822],[-96.69183122,18.380849779434786],[-96.69090823,18.37600965943487],[-96.69314631999998,18.37049422943508],[-96.69259751999994,18.36623713943518],[-96.69624990999996,18.364754479435195],[-96.69756316999997,18.368124029435116],[-96.69623993999996,18.379827719434793],[-96.70017774999997,18.3829290494347],[-96.70977227999998,18.380197289434808],[-96.71727434999997,18.380411579434778],[-96.73305662999996,18.374121149434973],[-96.73405033999995,18.378837119434852],[-96.74149722,18.383856539434717],[-96.73713453999994,18.390036119434534],[-96.72864999999996,18.395736879434402],[-96.72983637,18.397695119434324],[-96.73947993999997,18.39685214943434],[-96.75463776999999,18.392158629434473],[-96.75500261999998,18.38991181943456],[-96.75130634,18.389405799434577],[-96.74984622999995,18.381611229434736],[-96.75405959999995,18.38017214943482],[-96.76276393999996,18.383229829434725],[-96.76349573999994,18.37500682943496],[-96.76800561999994,18.37362682943495],[-96.77657290999997,18.364586659435197],[-96.78042911999995,18.363532549435245],[-96.78145097999999,18.358342090435375],[-96.78600167999998,18.353452089435525],[-96.78270554999995,18.34733446043567],[-96.78421325999994,18.33832816943592],[-96.78635682999999,18.33654801843598],[-96.79535673899994,18.33489541843602],[-96.79481464999998,18.33199251943605],[-96.80026710999994,18.32931044943612],[-96.8095378,18.329333089436116],[-96.81310988999996,18.324756519436253],[-96.81945014999998,18.322945319436286],[-96.82182279999995,18.320683549436392],[-96.82228194999999,18.310158519436673],[-96.81814916999997,18.306191479436755],[-96.81757399999998,18.30078621943693],[-96.82138011999996,18.300214349436896],[-96.82567237999996,18.29640488943704],[-96.82926342999998,18.283968019437314],[-96.83092825999995,18.280559539437448],[-96.83280427999996,18.280164939437466],[-96.83400165999997,18.275927619437564],[-96.83642385999997,18.275575169437527],[-96.83726067999999,18.271919979437662],[-96.84323077999996,18.271071629437674],[-96.83866937999994,18.267655819437795],[-96.84265668999996,18.265031149437814],[-96.84171221999998,18.256452619438083],[-96.84474010999998,18.25533927943809],[-96.84377174999999,18.253868199438145],[-96.84652565999994,18.250752139438205],[-96.84621954999994,18.246850649438336],[-96.85175775,18.24535599943838],[-96.85476076999998,18.241228369438463],[-96.85686857999997,18.243133179438395],[-96.86284956999998,18.241120999438508],[-96.87526534999995,18.243713449438392],[-96.88525847999995,18.243963489438407],[-96.88826579999994,18.240875229438455],[-96.89636633999999,18.240534549438507],[-96.89675314999994,18.237661369438577],[-96.90037893999994,18.23923417943851],[-96.90696271999998,18.23650794943858],[-96.91305288999996,18.238537689438537],[-96.91615419999994,18.23064184943874],[-96.91902342999998,18.232424919438685],[-96.91947517999995,18.238869339438544],[-96.92187582999998,18.240619379438492],[-96.93024942999996,18.23290290943871],[-96.93072811999997,18.22576037943888],[-96.93257217999997,18.221213279438974],[-96.93686299999997,18.221127309439],[-96.93683530999999,18.21603197943911],[-96.93922704999994,18.22021805943901],[-96.94603976999997,18.22131388943898],[-96.95246219999996,18.220028349439044],[-96.96349744999998,18.229105679438774],[-96.97414054999996,18.232437319438684],[-96.99147942999998,18.230739429438724],[-96.99514390999997,18.22717024943882],[-96.99878493999996,18.227341319438835],[-97.00294974999997,18.21272808943921],[-97.00943248999994,18.207865539439357],[-97.00904482999994,18.205867249439404],[-97.04020448999995,18.174819249440226],[-97.03905890999995,18.17235276944027],[-97.03770954999999,18.172503319440267],[-97.04209413999996,18.1565694194407],[-97.08872170999996,18.149174919440917],[-97.09020456999997,18.153031179440784],[-97.10574034999996,18.14809436944092],[-97.10923405999995,18.150174969440855],[-97.11375802999999,18.149468449440878],[-97.11290088999999,18.151439489440833],[-97.12390310999996,18.16246414944057],[-97.13388521999997,18.1577203194407],[-97.13864042999995,18.16710064944045],[-97.13811376999996,18.169676849440357],[-97.13397631999999,18.170745569440356],[-97.13381845999999,18.174134279440235],[-97.14050664999996,18.173330909440295],[-97.14403476999996,18.16342857944055],[-97.14415930999996,18.16913351944039],[-97.15412499999996,18.17977348944011],[-97.15425045999996,18.181593599440042],[-97.16146737999998,18.18520867943998],[-97.16101013999997,18.189754109439807],[-97.16402610999995,18.191303779439796],[-97.16382448999997,18.193947399439743],[-97.16717827999999,18.194173109439728],[-97.16736801999998,18.200903279439526],[-97.18339376999995,18.199009150439583],[-97.19235317899995,18.192374979439784],[-97.18722193999997,18.175157199440225],[-97.20522348899999,18.1714801394403],[-97.21434845999994,18.16366762944055],[-97.21732216899996,18.164431680440508],[-97.22504185899999,18.174239690440217],[-97.22866664899999,18.174591820440217],[-97.22898550999997,18.172162180440278],[-97.23164844999997,18.172414659440324],[-97.23277651899997,18.170330769440383],[-97.23700505899996,18.17319690944028],[-97.23827833899999,18.17153260044029],[-97.24268671899996,18.171308549440322],[-97.24443568,18.166782510440463],[-97.24640916999995,18.168347320440407],[-97.24572297899995,18.169653980440383],[-97.24715247999995,18.169657279440337],[-97.25056290899994,18.165327600440502],[-97.25223057899996,18.167162879440415],[-97.25488470999994,18.162980570440535],[-97.25959281899999,18.163800310440518],[-97.26526985,18.16115710944058],[-97.26626639899996,18.158545319440652],[-97.26942070899997,18.159251679440658],[-97.27651517899994,18.156799749440708],[-97.28047811999996,18.16072982044063],[-97.28507602899998,18.15856533944066],[-97.29671007899998,18.160070880440593],[-97.29811301899997,18.15779111944069],[-97.30148550899997,18.15738673944069],[-97.30340867999998,18.159078549440665],[-97.30411594999998,18.156743649440727],[-97.30853581999999,18.156088309440708],[-97.30962294999995,18.15331107944079],[-97.31844176999994,18.145780689440986],[-97.3321936,18.145409819441017],[-97.33513205999998,18.141824259441137],[-97.33591450999995,18.13732705944125],[-97.33801954999996,18.13634425944125],[-97.33967244999997,18.130189859441394],[-97.34642037999998,18.12435556944156],[-97.35244042999994,18.123580679441574],[-97.35485787999994,18.121801119441635],[-97.35510401999994,18.11675562944178],[-97.36044491999998,18.112814379441865],[-97.36403108999997,18.106792429442024],[-97.36615110999998,18.106384719442048],[-97.36592626,18.104810859442086],[-97.36901945999996,18.10327397944211],[-97.36664467999998,18.10090988944217],[-97.36848344999999,18.100346509442222],[-97.37197982999999,18.102477259442157],[-97.37447984999994,18.1012920194422],[-97.37347599999998,18.099729549442237],[-97.37645285999997,18.096873309442284],[-97.37655304999998,18.09451222944239],[-97.38028961999999,18.09457887944234],[-97.37925233999995,18.096522749442332],[-97.38290216999997,18.097249969442306],[-97.38818765999997,18.102253429442182],[-97.39457157,18.100059459442242],[-97.39636067999999,18.10397081944209],[-97.39908697999994,18.102823999442144],[-97.40290424999996,18.107489349442],[-97.40588828999995,18.10457025944211],[-97.40547638,18.10194408944219],[-97.41124007999998,18.10239284944216],[-97.41134013999994,18.096550179442325],[-97.41411547999996,18.097140109442297],[-97.41543604999998,18.091583489442456],[-97.41842485999996,18.089543629442485],[-97.41584496999998,18.086343139442587],[-97.41827319999999,18.08603633944261],[-97.42389174999995,18.074897179442885],[-97.42579394999997,18.074540349442906],[-97.42555917999994,18.06927596944302],[-97.43236001999999,18.06851971944305],[-97.43487344999994,18.070730289442977],[-97.43575317999996,18.06821661944305],[-97.43625197999995,18.06972864944303],[-97.43782259999995,18.069231649443037],[-97.43822090999998,18.071396229442993],[-97.44136299999998,18.071943179442975],[-97.44445761999998,18.063952059443203],[-97.44814913999994,18.06598354944313],[-97.44706730999998,18.06083893944326],[-97.44952547999999,18.061420709443247],[-97.44749134999995,18.05347451944347],[-97.45492631999997,18.048325919443563],[-97.45560094999996,18.045669169443666],[-97.45322496999995,18.04374937944372],[-97.45638031,18.043764829443703],[-97.45505301999998,18.041738489443773],[-97.46004376999997,18.038537719443823],[-97.45947151999997,18.035767739443916],[-97.46262168999999,18.037832619443886],[-97.46480979999995,18.031555169444033],[-97.46874051999998,18.030707459444045],[-97.46520502999994,18.028406059444134],[-97.46691819999995,18.02695130944418],[-97.47906597999997,18.02599671944416],[-97.48064111999999,18.027384319444163],[-97.48924457999999,18.025591569444217],[-97.49918814999997,18.0297884494441],[-97.50591511,18.027821599444124],[-97.51389711999998,18.037695029443896],[-97.52237450999996,18.044647709443684],[-97.53404565999995,18.046338349443626],[-97.53883056999996,18.042132579443756],[-97.54390545999998,18.033444569443965],[-97.55763073999998,18.04688136944362],[-97.55632299999996,18.051681399443517],[-97.56379168999996,18.06258057944319],[-97.56174299999999,18.072960479442944],[-97.56681641999995,18.0816450794427],[-97.56961977999998,18.103387369442135],[-97.59745499999997,18.126457689441516],[-97.59700876999995,18.125499119441514],[-97.60815350999997,18.131010659441415],[-97.60439399999997,18.137388059441207],[-97.60929785999997,18.15368296944078],[-97.61643828999996,18.152745429440802],[-97.65317591999997,18.175288719440196],[-97.63594430999997,18.193595199439745],[-97.63402364999996,18.20006805943955],[-97.63672374999999,18.202714969439484],[-97.63818294,18.211825249439254],[-97.63747521999994,18.23203868943869],[-97.64398204999999,18.27941761943747],[-97.65471370999995,18.29309254943708],[-97.66947345999995,18.289945749437198],[-97.67747145999994,18.291180479437134],[-97.68069728999997,18.289709749437172],[-97.69970630999995,18.288229059437224],[-97.71085630999995,18.285342149437334],[-97.71413453999999,18.279652379437472],[-97.72127382999997,18.276048179437534],[-97.74974722999997,18.275763949437557],[-97.76186219999994,18.280956689437406],[-97.78319461999997,18.286281879437276],[-97.79729701999997,18.283174859437334],[-97.81545510999996,18.262046679437894],[-97.82762021999997,18.23693511943859],[-97.82296059999999,18.22340399943897],[-97.84410307999997,18.216151149439114],[-97.84932348999997,18.2049928894394],[-97.85922661999996,18.192289149439727],[-97.84991144999998,18.189506139439843],[-97.85052101999997,18.183057079439987],[-97.84649245999998,18.1800574594401],[-97.84424234999994,18.173847089440244],[-97.83946225999995,18.171231149440317],[-97.84446619999996,18.16972127944035],[-97.84419445999998,18.171041419440325],[-97.84790230999994,18.172482849440293],[-97.85362667999999,18.167924999440388],[-97.85734381999998,18.15558090944072],[-97.86748293999995,18.14457128944103],[-97.86722085999997,18.11489531944184],[-97.86282896999997,18.110324519441956],[-97.86050796999997,18.10182907944219],[-97.84945997999995,18.083740679442666],[-97.81836025999998,18.07301524944291],[-97.81067031999999,18.067717169443057],[-97.81371797999999,18.062865659443204],[-97.82566231999999,18.05347707944345],[-97.83478214999998,18.049798519443527],[-97.83690139999999,18.032643419444017],[-97.84273348999994,18.018930619444372],[-97.84260444899996,17.996081739444953],[-97.83563137899996,17.9834501804453],[-97.82627190999995,17.972677149445595],[-97.82140414999998,17.98816161944517],[-97.81624811999995,17.991954830445085],[-97.81656967899994,17.993476689445032],[-97.81236262999994,17.994536510445013],[-97.80987996999994,17.99830348044492],[-97.80276133999996,17.99844827944491],[-97.79092096899996,18.00415808944475],[-97.78905994999998,18.011169539444555],[-97.79088651899997,18.014069139444523],[-97.79675277899997,18.016214849444438],[-97.79854393999994,18.035802109443953],[-97.77167108999998,18.06836754944307],[-97.76435341999996,18.06863513944303],[-97.75640808999998,18.062338799443246],[-97.74909522999998,18.06064028944325],[-97.74875547999994,18.05868005944329],[-97.74246425999998,18.05550905944343],[-97.74378677,18.05228699944347],[-97.74263884999999,18.049098779443586],[-97.72992615,18.037322919443895],[-97.69883005999999,18.0216938894443],[-97.69777484999997,18.018816459444363],[-97.70012242999996,18.01600791944445],[-97.69974222999998,18.001636519444826],[-97.71874845999997,18.003823819444758],[-97.72853814999998,18.012225599444527],[-97.74330279999998,18.008889169444625],[-97.74623311999994,18.00686388944468],[-97.74869421999995,18.00756301944471],[-97.75353062999994,18.004707779444747],[-97.75832805999994,18.00408553944478],[-97.76105533999998,18.006927619444703],[-97.76638099999998,18.005914879444706],[-97.76962396999994,17.997601279444915],[-97.76615099999998,17.994764979445034],[-97.76670173999997,17.992516319445073],[-97.76492434999996,17.990825799445105],[-97.76738008999996,17.988531029445188],[-97.76660581999994,17.98691702944521],[-97.76784576999995,17.985641199445244],[-97.76618905999999,17.9834093994453],[-97.76794108999997,17.97665288944547],[-97.77398624999996,17.977006659445475],[-97.77265801899995,17.97058298044567],[-97.77503201899998,17.97071628944565],[-97.77620427999994,17.968776460445728],[-97.78346945899995,17.966298969445752],[-97.78955721899996,17.961796599445925],[-97.79609784899998,17.962061999445904],[-97.80175962,17.959296149445972],[-97.80337464999998,17.96045856944595],[-97.80346379899999,17.95377538044613],[-97.80940339899996,17.951137079446156],[-97.81275822899994,17.94645691944632],[-97.81302067999997,17.941329939446454],[-97.81121364899997,17.938126969446518],[-97.81928673999994,17.91473821944717],[-97.83083988999995,17.913700819447165],[-97.83235577,17.9085323394473],[-97.85401065999999,17.911573029447247],[-97.87005621999998,17.917174449447103],[-97.87911162999995,17.917909219447086],[-97.88467027899998,17.913743000447187],[-97.89777239899998,17.91251222044721],[-97.90310485999998,17.90915696944729],[-97.91399201999997,17.912045830447234],[-97.91573767999996,17.915486119447106],[-97.91819205999997,17.915124769447132],[-97.92075665999994,17.91734182944709],[-97.93630191999995,17.917179120447102],[-97.93788904999997,17.920664749447017],[-97.93597074999997,17.924844979446885],[-97.93971962999996,17.93386510944665],[-97.93799479999997,17.940669169446455],[-97.94428604999997,17.948065599446277],[-97.94884913999994,17.948156079446257],[-97.93971321999999,17.96033985944592],[-97.93604093999996,17.96195199944589],[-97.93495807999994,17.96101876944594],[-97.93738031999999,17.967900849445723],[-97.95171631999995,17.966567919445765],[-97.96756287999995,17.970701649445633],[-97.96982262999995,17.967887309445725],[-97.97937669,17.964441649445803],[-97.98646906,17.97859988944546],[-97.98998611999998,17.975357629445565],[-97.99958531999994,17.975525829445516],[-98.01515164999995,17.980552150445394],[-98.01970536999994,17.985672539445257],[-98.02544051999996,17.985615949445283],[-98.02978684999995,17.991836450445085],[-98.03501457999995,17.987685020445216],[-98.03787451999995,17.987531850445187],[-98.03769645999995,17.982705169445317],[-98.04447681999996,17.979390429445402],[-98.04671374999998,17.976205800445516],[-98.04756514999998,17.981065579445396],[-98.05422996999994,17.982927909445344],[-98.05917941999996,17.981935319445356],[-98.06083536999995,17.984496769445315],[-98.06411783,17.985576569445247],[-98.07520393999994,17.980623909445416],[-98.08919304999995,17.98273905944532],[-98.08987687999996,17.984559829445267],[-98.09267877999997,17.98362017944532],[-98.09499761999996,17.985274489445278],[-98.09886708999994,17.98167673944538],[-98.10778619999996,17.982847569445337],[-98.11083016999999,17.981856459445385],[-98.11302614999994,17.978425229445424],[-98.11510610999994,17.979173569445443],[-98.11642448999999,17.982381119445353],[-98.13039436999998,17.988084169445187],[-98.13213854999998,17.983442259445326],[-98.12992076999996,17.97797541944547],[-98.13466230999995,17.975938999445518],[-98.13443308999996,17.97463404944558],[-98.13745482999997,17.97574713944554],[-98.14008993999994,17.972420199445605],[-98.14421733999995,17.971886289445628],[-98.14406471999997,17.970635829445666],[-98.14838582999994,17.971871449445608],[-98.15034893999997,17.970837859445677],[-98.15602107999996,17.96275044944587],[-98.16234573999998,17.962638769445896],[-98.16569561999995,17.954024969446085],[-98.16960985999998,17.95283394944616],[-98.17070973999995,17.9426158494464],[-98.17356391999999,17.941929569446447],[-98.16898839999999,17.93494533944664],[-98.16941071999997,17.932836819446656],[-98.17290071999997,17.932344979446665],[-98.17253202999996,17.925373539446888],[-98.17139542999996,17.921553429447002],[-98.16510484999998,17.917787859447056],[-98.16629299999994,17.91577857944713],[-98.1708278,17.91407642944715],[-98.16764401999997,17.91252293944719],[-98.16757463,17.90987325944727],[-98.17018197999995,17.90836356944733],[-98.17211602999998,17.90332944944747],[-98.17091110999996,17.902058369447527],[-98.17499845999998,17.901507709447493],[-98.17477717999998,17.89909353944754],[-98.17792361999994,17.897049169447637],[-98.18303961999999,17.895790379447664],[-98.18485982999995,17.89661485944764],[-98.18366576999995,17.897759579447627],[-98.18770765999994,17.89535087944765],[-98.18850054999997,17.896509679447657],[-98.19462630999999,17.89614367944763],[-98.19643719999999,17.89549824944767],[-98.19512281999994,17.89372996944771],[-98.19591597999995,17.892239449447736],[-98.19716473999995,17.893454949447708],[-98.19749669,17.891217969447812],[-98.20275757999997,17.892403859447757],[-98.20542571999994,17.889269079447853],[-98.20494173999998,17.887620629447902],[-98.20711701999994,17.886996219447923],[-98.20974639999997,17.879758139448075],[-98.24653759999997,17.878442629448124],[-98.24754671999995,17.88322821944798],[-98.25212279999994,17.88492870944795],[-98.25477488999996,17.883626539447956],[-98.25543877999996,17.886963949447896],[-98.25346261999994,17.889417229447833],[-98.25832348999995,17.895463939447687],[-98.25691643,17.898981739447592],[-98.25861362999996,17.89946776944756],[-98.25848416999997,17.903297079447483],[-98.26108505999998,17.90860448944734],[-98.26772571999999,17.911692259447236],[-98.27019662,17.915598709447117],[-98.26124994999999,17.922334739446953],[-98.26311731999999,17.92553664944684],[-98.26223031999996,17.926876919446826],[-98.26369891999997,17.92810756944681],[-98.26818396999994,17.923721419446917],[-98.27332301999998,17.92236536944692],[-98.28231014999994,17.93515031944661],[-98.28670744999994,17.930735999446696],[-98.28795013999996,17.92568119944686],[-98.29195404999997,17.919717479447005],[-98.29041077999995,17.914648999447163],[-98.29826736999996,17.911373139447218],[-98.30083091999995,17.907861479447348],[-98.30352714999998,17.900348399447523],[-98.30134467999994,17.894574889447707],[-98.30207459999997,17.8931080494477],[-98.30806045999998,17.889868769447848],[-98.31589667999998,17.88956741944783],[-98.31677219999996,17.886397289447906],[-98.32016807999997,17.88786844944786],[-98.32454927999999,17.884703769447956],[-98.32369930999994,17.882521109447996],[-98.32638748999996,17.883713689447966],[-98.32882490999998,17.878926459448124],[-98.33341031999998,17.88010357944805],[-98.33291625999999,17.88250244944803],[-98.33431679999995,17.88403350944798],[-98.33859582999997,17.883358309448],[-98.34034570999995,17.8873431694479],[-98.34381827999994,17.890312719447806],[-98.34661739999997,17.889635449447848],[-98.34907342999998,17.89317279944774],[-98.34954279999994,17.89114668944776],[-98.35480985999999,17.890183459447815],[-98.35877391999998,17.887338339447883],[-98.35780944999999,17.884934579447947],[-98.36286170999995,17.88163379944802],[-98.37022087999999,17.879911249448107],[-98.37076988999996,17.882638829448037],[-98.37695390999994,17.881953709448045],[-98.37836702,17.88369156944799],[-98.38260394999998,17.883669739448006],[-98.38973377999997,17.877103999448142],[-98.38927645999996,17.869891149448357],[-98.39809184999996,17.865492539448464],[-98.39875537999995,17.86091191944858],[-98.42076696999999,17.863694219448544],[-98.42489177999994,17.865989769448472],[-98.42495698,17.839594509449153],[-98.47067308999999,17.7890934294505],[-98.49393977999995,17.772966709450948],[-98.49634267999996,17.76880944945106],[-98.49661636999997,17.76156210945127],[-98.48669899999999,17.73373154945202],[-98.48910956999998,17.721712459452327],[-98.48636053999996,17.70510504945276],[-98.48965562999997,17.70343888945279],[-98.48649647999997,17.693627579453086],[-98.48617250999996,17.68099221945343],[-98.47070454999994,17.678095979453474],[-98.46667287999998,17.662900999453885],[-98.46647487999996,17.649457249454283],[-98.46104473999999,17.630358859454784],[-98.45050464999998,17.633345179454693],[-98.43310791999994,17.62299534945498],[-98.41015193999999,17.599768739455616],[-98.39799273999995,17.603563279455507],[-98.37697157999997,17.605349059455442],[-98.36473111,17.582620459456056],[-98.35918931999998,17.58409951945602],[-98.36140430999997,17.579276509456154],[-98.35570021999997,17.580312509456135],[-98.35459311999996,17.57897664945619],[-98.35470291999997,17.57561899945627],[-98.35099359999998,17.57137677945635],[-98.35192091999994,17.5660198594565],[-98.35348084999998,17.564860739456517],[-98.34868891999997,17.56480185945654],[-98.34530492,17.562587549456595],[-98.34395011,17.55659434945679],[-98.34478901999995,17.548382519457007],[-98.34297110999997,17.547337119457033],[-98.34115967999998,17.541917779457176],[-98.32945182999998,17.53298094945737],[-98.32918882999996,17.531206279457447],[-98.33364445999997,17.525509799457623],[-98.32955676999995,17.515486549457865],[-98.33082728999996,17.51176327945795],[-98.32029761999996,17.506882079458077],[-98.31188427999996,17.477492219458895],[-98.32901350999998,17.478727889458884],[-98.33238077,17.471981999459025],[-98.33585074999996,17.456304629459456],[-98.30491477999999,17.39430376946112],[-98.28737317999997,17.32901114946291],[-98.30481051999999,17.32751982946294],[-98.31783737999997,17.302387169463625],[-98.32349521999998,17.27594414946435],[-98.30214284999994,17.24628579946518],[-98.28848331999997,17.238220399465373],[-98.27719211999994,17.25007642946504],[-98.26480907999998,17.24636088946517],[-98.25585551999995,17.250500289465037],[-98.24434241999995,17.25146688946504],[-98.22619462999997,17.24188944946526],[-98.22127263,17.236174849465435],[-98.21967359999996,17.236320459465436],[-98.21967185999995,17.232952619465525],[-98.21599339999996,17.228147689465672],[-98.21375393999995,17.22815467946565],[-98.21379505999994,17.224914449465725],[-98.20759653999994,17.222214909465812],[-98.20793233999997,17.22074776946586],[-98.20313622999998,17.216287419465985],[-98.20319564999994,17.208406399466195],[-98.20160932,17.2081100194662],[-98.20040004999998,17.20381196946633],[-98.20376957999999,17.200954259466407],[-98.20338001999995,17.199103779466416],[-98.20518741999997,17.199100259466416],[-98.20511723,17.191024229466652],[-98.20791791999994,17.191915179466616],[-98.20988088999997,17.190183819466704],[-98.21285864999999,17.190647319466656],[-98.21768113999997,17.186864319466764],[-98.21443371999999,17.184509319466866],[-98.21761731,17.171537939467207],[-98.2167242,17.169233219467227],[-98.22059307999996,17.16423059946739],[-98.21860533999995,17.160288509467488],[-98.22081333999996,17.158785599467528],[-98.22178588999998,17.152394679467708],[-98.22504597999995,17.152279919467734],[-98.22279561999996,17.150292939467764],[-98.22266344999997,17.146617879467886],[-98.21990071999994,17.145046569467898],[-98.22213991999996,17.13671076946813],[-98.22014117999998,17.133169939468264],[-98.22173024999995,17.129125849468338],[-98.22040405999996,17.126561939468413],[-98.22259376999996,17.125051679468474],[-98.22259953999998,17.12214967946855],[-98.21532773999998,17.124527519468487],[-98.21479399999998,17.122321619468515],[-98.21250722999997,17.121704519468533],[-98.21265588999997,17.118718879468656],[-98.20356510999996,17.119226689468622],[-98.19642007999994,17.1160925794687],[-98.19025945,17.119604819468623],[-98.18718928,17.116480459468686],[-98.18400574999998,17.11820361946862],[-98.17826414999996,17.114589799468718],[-98.17355811,17.115747659468727],[-98.16551873999998,17.114921179468745],[-98.16263682999994,17.11050933946883],[-98.15342388999994,17.11040293946883],[-98.15000877999996,17.102431349469093],[-98.13000919999998,17.09547779946924],[-98.11801074,17.095515289469247],[-98.10851119999995,17.088380309469454],[-98.09878154999997,17.08385016946959],[-98.08091396999998,17.066581199470026],[-98.04571471999999,17.0572621494703],[-98.00727639999997,17.040137339470785],[-98.02518565999998,17.01921630947134],[-98.03015773999994,17.015757060471433],[-98.03515867999995,17.02112025947128],[-98.05749439899995,17.023776459471186],[-98.07523137,17.007220169471655],[-98.09711367999995,16.96888479947273],[-98.11126130999997,16.958868399472973],[-98.10647839999996,16.956720259473048],[-98.10560450999999,16.951271379473187],[-98.10745636999997,16.942033599473458],[-98.10049497999995,16.940667399473487],[-98.09920974999994,16.93758993947359],[-98.10004202999994,16.934546879473633],[-98.09563618,16.92373591947397],[-98.08710906,16.913960089474216],[-98.08671364999998,16.90706465947442],[-98.08375730999995,16.90273533947452],[-98.08253817999999,16.892774279474782],[-98.08056827999997,16.89054722947485],[-98.08030948,16.88203742947507],[-98.07928319999996,16.880308349475154],[-98.07558117999997,16.880757459475124],[-98.07233389,16.874249549475316],[-98.07596013999995,16.86750491947548],[-98.07371708999996,16.863064459475588],[-98.07604156999997,16.858584489475742],[-98.07463804999998,16.854455179475863],[-98.07647061999995,16.849145739475997],[-98.08400205999999,16.840934119476206],[-98.08109399999995,16.83340128947642],[-98.08497514999999,16.829156339476544],[-98.08544862999997,16.824300379476696],[-98.08769667999996,16.82167761947676],[-98.08637604999996,16.816308149476896],[-98.08834857999994,16.813978289476932],[-98.09381954999999,16.81199604947702],[-98.09275771999995,16.806461279477183],[-98.1000504,16.799255109477357],[-98.09787628999999,16.792926289477506],[-98.10456656999997,16.785220629477728],[-98.10444062999994,16.77522665947802],[-98.10740547999995,16.76949710947816],[-98.10815702999999,16.76095137947841],[-98.12050373999995,16.754729659478613],[-98.12366948999994,16.755666349478574],[-98.12460517999995,16.75930074947843],[-98.12872701999999,16.76116322947838],[-98.13517782999998,16.758393109478476],[-98.13474597999999,16.751505740478706],[-98.12473902899997,16.75137579947869],[-98.12423670999999,16.749640650478725],[-98.12801928999994,16.74523928047886],[-98.12569961999998,16.739082319478985],[-98.13653188899998,16.731893690479204],[-98.13641585,16.72671942947937],[-98.13899399999998,16.723783800479413],[-98.149289449,16.72294752047945],[-98.153715779,16.725282690479414],[-98.15598962899998,16.721362319479475],[-98.159821949,16.719497150479544],[-98.16593342999994,16.721713579479463],[-98.17147507899996,16.71807601947961],[-98.17521076999998,16.7180035704796],[-98.17657401999999,16.714543000479686],[-98.18251245999996,16.711531549479794],[-98.18125247999997,16.709084319479835],[-98.18439310999997,16.70514637947993],[-98.19212913899999,16.70640995047993],[-98.19521125899998,16.698765850480154],[-98.20027105999998,16.697235090480156],[-98.20551694999995,16.69801622948016],[-98.20069722899996,16.710247450479805],[-98.20154461899995,16.712671820479766],[-98.21578314899996,16.71152587947979],[-98.22134677999998,16.70854793947988],[-98.22901641999994,16.71324445947973],[-98.23060816899994,16.717427080479602],[-98.23353454999994,16.717366319479613],[-98.23530642999998,16.7138472904797],[-98.23489199999995,16.70705178047992],[-98.23796857999999,16.70740748947987],[-98.24344228999996,16.696700080480205],[-98.24352501899995,16.680048419480638],[-98.24563553999997,16.6777214004807],[-98.24631199899996,16.67236674948084],[-98.24588350899995,16.67074037048086],[-98.23306668,16.67063340048088],[-98.23227096899996,16.658449999481245],[-98.23254448999997,16.656509489481316],[-98.23432614899998,16.65636891948127],[-98.23148701999997,16.65349832048135],[-98.22845877899994,16.63950371048174],[-98.22003673999995,16.631987549481995],[-98.21579862999994,16.62499359948215],[-98.21420637999995,16.618795400482334],[-98.196665769,16.623356829482184],[-98.19377577999995,16.621462690482236],[-98.20466911999996,16.59110397948311],[-98.203364219,16.587180419483182],[-98.20846644999995,16.584644259483284],[-98.20731717999996,16.589889459483125],[-98.22926876999998,16.580891029483354],[-98.24097948999997,16.572763399483584],[-98.24150382999994,16.56777387948375],[-98.24987251999994,16.563514969483826],[-98.26029087999997,16.56295559948388],[-98.26942656999995,16.55845547948402],[-98.29282948999999,16.557780579484],[-98.29170325999996,16.570065519483695],[-98.31663701999999,16.569866819483696],[-98.32996999999996,16.572748259483568],[-98.34027982999999,16.55816919948401],[-98.37136217999995,16.55202517948417],[-98.37608888999996,16.55229370948418],[-98.38341817999998,16.549640739484218],[-98.38365236999994,16.54520414948438],[-98.39513939999995,16.546836429484312],[-98.39514041999996,16.536307249484604],[-98.39250593999999,16.527377749484828],[-98.38332396999999,16.512656139485262],[-98.38733293999996,16.497786319485666],[-98.36833165999997,16.500851769485585],[-98.36664964999994,16.49839764948567],[-98.37027319999999,16.493844909485787],[-98.36883834999998,16.49117845948587],[-98.36439230999997,16.490207919485876],[-98.35772405999995,16.492598859485813],[-98.35253227999999,16.48943144948589],[-98.35231677999997,16.485026279486025],[-98.35707191999997,16.482427379486083],[-98.35684644999998,16.477412629486235],[-98.35987791999997,16.471705139486378],[-98.35870573999995,16.466209819486565],[-98.34998788999997,16.449180509487036],[-98.34993762999994,16.444448859487117],[-98.39915783,16.380512619488908],[-98.41914901999998,16.380586339488897],[-98.43556677999999,16.384486219488796],[-98.45418093999997,16.38579344948877],[-98.45595482999995,16.380420539488906],[-98.46042582999996,16.380807979488893],[-98.46083594,16.383273049488853],[-98.47085537,16.381155139488875],[-98.47577782999998,16.375608119489033],[-98.47887728999996,16.375195179489058],[-98.47943221999999,16.373102969489114],[-98.48393993999998,16.374152419489064],[-98.48548311999997,16.368804419489244],[-98.49499110999994,16.368644369489214],[-98.4949276,16.365042879489327],[-98.50159777999994,16.361790619489405],[-98.50513642,16.36230128948942],[-98.50567279999996,16.360483629489444],[-98.50815541999998,16.360421769489495],[-98.50910881999995,16.363062339489396],[-98.52073321999997,16.360054049489474],[-98.52194354999995,16.35658051948955],[-98.52609485999994,16.356959149489537],[-98.52938654999997,16.352739679489694],[-98.53339844999995,16.351582629489716],[-98.53506084999998,16.34801982948982],[-98.53838631999997,16.34706064948985],[-98.54053130999995,16.34266405948997],[-98.54294162999999,16.34311082948996],[-98.54087896999994,16.339835229490053],[-98.54311921999994,16.33614214949015],[-98.54220901999997,16.332703999490217],[-98.54675117999994,16.3257206894904],[-98.54990510999994,16.326141969490408],[-98.54745459999998,16.32366876949048],[-98.54906822999999,16.322719199490518],[-98.54735254999999,16.321199679490572],[-98.55122525999997,16.31986008949062],[-98.54977854999998,16.318611019490625],[-98.55263244999998,16.3159525794907],[-98.54955350499995,16.313491985490753],[-98.52134247199997,16.305895488490947],[-98.45877802199999,16.281498766491687],[-98.42049725299995,16.269477729492003],[-98.29640094599995,16.252713851492462],[-98.22966301299994,16.237952270492862],[-98.20427284999994,16.228544599493148],[-98.19148218199996,16.220813012493355],[-98.18626133,16.214902544493498],[-98.18623196999994,16.212238029493573],[-98.13633608099997,16.192685513494144],[-98.10741849199997,16.17927962949451],[-97.962845234,16.1011980534967],[-97.92363187699999,16.075059508497382],[-97.88293341599996,16.04443839049824],[-97.85461307099996,16.025255175498778],[-97.82748793999998,16.008835849499228],[-97.80382813899996,15.99682106149957],[-97.79359517999997,15.989791319499789],[-97.78945001899996,15.982694542499978],[-97.78562337499994,15.980747779500048],[-97.76699273999999,15.976341199500151],[-97.74470705,15.973853539500226],[-97.67964632999997,15.962102147500554],[-97.67464232299994,15.96545242850046],[-97.67834504099994,15.96617968850045],[-97.67815871899995,15.967522261500406],[-97.67493682099996,15.96643058550045],[-97.67625028399999,15.96732288250043],[-97.67560782899996,15.969554817500365],[-97.67086139999998,15.973847959500242],[-97.66366359999995,15.976821289500128],[-97.65575690999998,15.977796939500147],[-97.61860605599998,15.97536486650019],[-97.56490842699999,15.962945620500568],[-97.55599781699999,15.962516788500553],[-97.55272486899999,15.964704702500491],[-97.54546513299994,15.964936699500505],[-97.53655702599997,15.967461208500435],[-97.53570041999996,15.969012617500342],[-97.53138169799996,15.96921011250034],[-97.52088336999998,15.96740257850043],[-97.47748528999995,15.953358849500786],[-97.42209658399997,15.94144493550113],[-97.41807291499998,15.943869606501098],[-97.41011550699996,15.943952826501047],[-97.36794302599999,15.936646157501258],[-97.36545009199995,15.939049396501234],[-97.36163269499997,15.939427747501215],[-97.36188491799999,15.94254960050111],[-97.35869127299998,15.944431023501044],[-97.33430693499999,15.945739644501028],[-97.28882234799994,15.937187861501236],[-97.27375560099996,15.938184856501247],[-97.240129891,15.92816149550149],[-97.21288436899994,15.923366703501639],[-97.17480228499994,15.910677037502023],[-97.14247561999998,15.896983361502402],[-97.12471413299994,15.886581548502653],[-97.10361832899999,15.86899459150316],[-97.08605711199999,15.86255178750337],[-97.08595083099999,15.86034287150341],[-97.08378552199997,15.85860824450344],[-97.07920030099996,15.859859840503436],[-97.07930261699994,15.857696910503494],[-97.07674945599996,15.85638344850355],[-97.074244089,15.856130309503499],[-97.07312795399997,15.858094049503459],[-97.07058427199996,15.855622020503535],[-97.06640071,15.856543149503516],[-97.06400147299996,15.860071838503425],[-97.06187544499994,15.860078751503416],[-97.046537695,15.835592573504083],[-97.04602347599996,15.830770929504213],[-97.04946655599997,15.827984581504325],[-97.02430372499998,15.809790429504854],[-97.01438916999996,15.805512139504978],[-96.96493556199995,15.793613409505266],[-96.93520955699995,15.783127147505585],[-96.90945349799995,15.77072891950594],[-96.87945325399996,15.751821722506438],[-96.86057460999996,15.742353648506725],[-96.86092022699997,15.739064638506818],[-96.83603035099998,15.732356224507],[-96.82901073399997,15.733660647506985],[-96.81190440099994,15.73205581750702],[-96.80813273599995,15.733975949506968],[-96.78056273599998,15.728874478507121],[-96.74376267999997,15.725096570507215],[-96.70172889699995,15.716936336507437],[-96.65838757199998,15.70146516550787],[-96.61422607699996,15.679325965508463],[-96.57165622199996,15.666295076508836],[-96.55767331899995,15.659649241509053],[-96.55778515399999,15.65686527250912],[-96.55454673999998,15.658191319509104],[-96.55454505999997,15.663957799508927],[-96.54824134999997,15.664923939508906],[-96.54644819999999,15.663737599508933],[-96.54515797999994,15.665278119508885],[-96.52929765199997,15.660583834509037],[-96.52568776099997,15.662558392508958],[-96.51825885599999,15.662664434508983],[-96.51114694599994,15.661482411509],[-96.50921645999995,15.658860119509061],[-96.50579970199999,15.659347439509045],[-96.50182700799996,15.657412077509107],[-96.49872823999999,15.657408205509132],[-96.49716493399995,15.659023859509071],[-96.49487113399994,15.658019727509098],[-96.49402404599995,15.663649531508906],[-96.49519165999999,15.663660139508929],[-96.49511933799995,15.665577513508895],[-96.49152721299998,15.665932333508865],[-96.49084270599997,15.661969632509004],[-96.48887489199996,15.66406117850891],[-96.48696180599995,15.662074328508995],[-96.48528247999997,15.664811509508905],[-96.48162467399999,15.663316407508967],[-96.48145971999998,15.668995109508757],[-96.47721791299995,15.670174013508756],[-96.47739652199994,15.673973991508666],[-96.47406512699996,15.672891358508684],[-96.47250529399999,15.67459517250863],[-96.47072912299996,15.673162616508677],[-96.46702174999996,15.67530790950863],[-96.46762051999997,15.679742259508506],[-96.46459004999997,15.683230999508371],[-96.46308688899995,15.68195294050845],[-96.46121032999997,15.684155782508359],[-96.45716500499998,15.681480022508445],[-96.45304377899998,15.681163554508462],[-96.44518138699999,15.687889946508232],[-96.44243614099997,15.685931994508294],[-96.44030176499996,15.691733120508118],[-96.43653983699994,15.69217332050812],[-96.43328949299996,15.695164303508065],[-96.43088623799997,15.694819281508032],[-96.43042462199998,15.692047209508143],[-96.42645568099994,15.696030426508017],[-96.42444741599996,15.69472648250808],[-96.41992406099996,15.695323726508065],[-96.41701397999998,15.692694422508106],[-96.41238295399997,15.694187534508051],[-96.38729153799996,15.687477454508288],[-96.38437431899996,15.689357228508216],[-96.37453365699999,15.688256970508235],[-96.36766496199999,15.685740099508294],[-96.36470331399994,15.6818428905084],[-96.36292948,15.683868119508372],[-96.36134351599998,15.681735814508398],[-96.35159182999998,15.690172193508213],[-96.34777166499998,15.689415525508227],[-96.34468312399997,15.684835062508322],[-96.34129973999995,15.686011381508314],[-96.33942689499997,15.68453525050836],[-96.32911193199999,15.688087786508216],[-96.31542666099995,15.686257182508315],[-96.30778401899994,15.682909991508415],[-96.30720591699998,15.684856248508346],[-96.30469786899995,15.685844112508294],[-96.28918841999996,15.684657479508349],[-96.28597864899996,15.683145804508374],[-96.283789545,15.685758452508333],[-96.28092467399995,15.686184375508276],[-96.26506209599995,15.684758781508366],[-96.26019609799994,15.682743377508402],[-96.25213924299999,15.685189463508351],[-96.24239599299995,15.684732501508327],[-96.23736278999996,15.682467360508378],[-96.23640428999995,15.685068058508337],[-96.23824657999997,15.687796139508254],[-96.23524859399998,15.691558134508135],[-96.22842077599996,15.689965041508186],[-96.22436416999994,15.691717819508156],[-96.22581145599997,15.697631556507947],[-96.22265305499997,15.695764192508042],[-96.22102541099997,15.695973181508023],[-96.22060610999995,15.69846451950798],[-96.21634865199997,15.696592496508002],[-96.21423442899999,15.698031414507977],[-96.21683177999995,15.700835569507872],[-96.21434114999994,15.701453077507866],[-96.21368001499997,15.700141996507924],[-96.21076755499996,15.703492277507824],[-96.20817394199997,15.701334106507868],[-96.20859272699994,15.699644689507947],[-96.20515502999996,15.70158662950789],[-96.20586526999995,15.705120423507742],[-96.20246858999997,15.705420830507743],[-96.20523470999997,15.708242059507663],[-96.20296530199994,15.711925682507589],[-96.19763530899998,15.711116665507621],[-96.19737951699994,15.706696816507698],[-96.19415913999995,15.706636546507744],[-96.19281690099997,15.704590993507786],[-96.19262528999998,15.707777169507688],[-96.19089548599999,15.70763075550772],[-96.19196921799994,15.708297004507706],[-96.19065753999996,15.70998939650765],[-96.18461821999996,15.711967319507576],[-96.18353462399995,15.710821017507609],[-96.18225394599995,15.714303498507496],[-96.17902316499999,15.712434292507579],[-96.17803081999995,15.716552519507447],[-96.17507801899995,15.715418136507452],[-96.175308827,15.713697786507543],[-96.17219411199994,15.714092776507544],[-96.17303332199998,15.716120751507464],[-96.16621817499998,15.719772867507368],[-96.16616106799997,15.722837613507286],[-96.16340121099995,15.722173743507275],[-96.15855524999995,15.72569505950721],[-96.15605477999998,15.723269379507236],[-96.15269185199999,15.722934728507258],[-96.15359307299997,15.726773241507148],[-96.14633095799996,15.726411563507169],[-96.14374686299999,15.72769409250711],[-96.15202199399995,15.731396534507022],[-96.15087727999997,15.733867264506987],[-96.14679428599999,15.733310731506997],[-96.14560638899997,15.73774786750684],[-96.14406891799997,15.73782399650688],[-96.14159992299994,15.734188752506972],[-96.13215643699999,15.739361105506797],[-96.13210646799996,15.73637250250688],[-96.12720477899997,15.737850148506858],[-96.12720781499996,15.740226364506809],[-96.12408054599996,15.740676352506755],[-96.12391398399996,15.742095106506753],[-96.12588001399996,15.744760102506635],[-96.12922776699997,15.743946426506648],[-96.12827836199995,15.748272286506582],[-96.13062926899994,15.748955191506525],[-96.13145256299998,15.752607664506412],[-96.12989586599997,15.754177358506382],[-96.12960610099998,15.753012172506423],[-96.12803346899996,15.750717769506492],[-96.12969939599998,15.754237861506365],[-96.12822491999998,15.754317149506411],[-96.12501151999999,15.751097919506494],[-96.12527548199995,15.749400150506498],[-96.12273064799996,15.749837971506494],[-96.12515710399998,15.753490444506427],[-96.12319166899994,15.756381489506298],[-96.12359051999994,15.758750569506285],[-96.12049977599997,15.760174220506228],[-96.12295862999997,15.76485077950611],[-96.12047570899995,15.762607710506147],[-96.11914896499997,15.767115238506054],[-96.12035297199998,15.760683555506212],[-96.11172690999996,15.763200509506138],[-96.10702561099998,15.755586749506378],[-96.10558603699997,15.75589132050633],[-96.10611427699997,15.757647362506294],[-96.10332316899996,15.757592635506272],[-96.10386439499996,15.759212530506257],[-96.09942085299997,15.75834454450629],[-96.10023224999998,15.760892947506202],[-96.09887357699995,15.76215644150616],[-96.09749348999999,15.76100478250618],[-96.09705673399998,15.763135576506158],[-96.09575172499996,15.762161200506133],[-96.096177648,15.764564455506124],[-96.09855685699995,15.764548469506073],[-96.09985922899995,15.766815510506046],[-96.09918630999994,15.770361550505951],[-96.09447633299999,15.773556439505846],[-96.09075608999996,15.773042509505848],[-96.08944448099999,15.769693013505945],[-96.08794777699995,15.77035645250592],[-96.08407094999995,15.767346045506018],[-96.08287170199999,15.769018806505981],[-96.07976602999997,15.769273999505968],[-96.07969750099994,15.76736032250602],[-96.07606882299996,15.766061136506066],[-96.07358942499997,15.768723753505999],[-96.07632815899996,15.770207412505929],[-96.07510905299996,15.774979844505832],[-96.07190493999998,15.778167749505698],[-96.06745933799999,15.777791284505705],[-96.06663051999999,15.780932849505641],[-96.06427568999999,15.780052309505638],[-96.06300498699994,15.776175630505788],[-96.06060625999999,15.78155394950562],[-96.05850780599998,15.781243882505635],[-96.05760361099999,15.783801803505574],[-96.05534312299994,15.783744696505538],[-96.05344221999997,15.78725587950544],[-96.03102171999996,15.791976569505302],[-96.01748642999996,15.799991019505097],[-96.01117001599994,15.80139077950509],[-96.01026191999995,15.80467127950496],[-96.00505284999997,15.807736249504904],[-95.98066710999996,15.812303086504738],[-95.96595728199998,15.819208282504535],[-95.96406957999994,15.824675799504384],[-95.95402939999997,15.829636429504276],[-95.92429767899995,15.837111346504088],[-95.88998823099996,15.842788740503895],[-95.88468537999995,15.844536479503846],[-95.87947305999995,15.851134369503681],[-95.83668045199995,15.861086379503416],[-95.83362142,15.863718739503287],[-95.81150714199998,15.866563105503245],[-95.80873033999995,15.868776979503183],[-95.80283641999995,15.86985979950313],[-95.77662271599996,15.87129134650313],[-95.77622482999999,15.874160659503003],[-95.78035903499995,15.88100707950286],[-95.78003357999995,15.884754399502745],[-95.77625751999994,15.889883519502606],[-95.77002365999995,15.894602089502438],[-95.70620627999995,15.908832889502051],[-95.66264339299994,15.912354298501972],[-95.65975905999994,15.916853749501808],[-95.64885958099995,15.919164878501766],[-95.64864462999999,15.921306369501682],[-95.64532410999999,15.923381319501628],[-95.63639907999999,15.925913149501573],[-95.62007473999996,15.927630139501552],[-95.61350573999994,15.930762769501445],[-95.61237861999996,15.931778939501433],[-95.61396273299994,15.933247084501378],[-95.61332568999995,15.93573377950132],[-95.60557222999995,15.942456579501115],[-95.58441968999995,15.944475879501033],[-95.58385308999999,15.946232419501014],[-95.58015483799994,15.94764946350097],[-95.57940491699998,15.951844910500824],[-95.56853216499997,15.957789198500675],[-95.52073659199999,15.961075213500596],[-95.51531770999998,15.963607049500533],[-95.49769580599997,15.96560904050047],[-95.495787357,15.966596505500421],[-95.49373876299995,15.973256628500248],[-95.48532426399998,15.9757624365002],[-95.46605670799995,15.976922187500154],[-95.43556867399997,15.975810979500196],[-95.43547151999996,15.978357429500132],[-95.43108593999996,15.980636709500054],[-95.42871880099995,15.984985586499915],[-95.42953487999995,15.986992259499843],[-95.42629175099995,15.991096042499725],[-95.42738252699996,15.9920079804997],[-95.42633042199998,15.996707596499615],[-95.42413274999996,15.99971239949948],[-95.41844974999998,16.002297859499443],[-95.39885259999994,16.006278219499354],[-95.39960510399999,16.008017182499273],[-95.39476024,16.013363441499145],[-95.37135852199998,16.01874379249898],[-95.36817718299994,16.02068543249891],[-95.36784881699998,16.022729389498863],[-95.37123710099996,16.026165650498765],[-95.37679488799995,16.037386268498437],[-95.37803799999995,16.046349719498174],[-95.36049596999999,16.07257070949746],[-95.35040916999998,16.081640919497207],[-95.33191465999994,16.089882539497015],[-95.30586774099999,16.0941949504969],[-95.30539947999995,16.097492979496753],[-95.30313250999997,16.09904945949675],[-95.28619681999999,16.100982279496673],[-95.28454448999999,16.10429499949658],[-95.27565896999994,16.107403249496514],[-95.28033236299997,16.115659982496275],[-95.28005207699994,16.121130619496103],[-95.27214890999996,16.12776514949596],[-95.26601661699999,16.130347644495846],[-95.24749231999994,16.133342139495756],[-95.24628503399998,16.135092531495726],[-95.24945484299997,16.138912913495634],[-95.24810891299995,16.14694151249542],[-95.23486587499997,16.156222291495144],[-95.22684471199995,16.15789981149509],[-95.21510207199998,16.156912335495132],[-95.21329843999996,16.156036693495114],[-95.213053356,16.152091547495253],[-95.21223130999994,16.159366139495038],[-95.20999934599996,16.159375879495027],[-95.20963481999996,16.154482019495187],[-95.20892256999998,16.15987691949504],[-95.19828690999998,16.159909419495065],[-95.19829589899996,16.150469480495328],[-95.20253137899994,16.145650346495465],[-95.19791998399995,16.150311710495288],[-95.19694440499995,16.160728990495013],[-95.20003056599995,16.16343681749493],[-95.20074443199996,16.166232295494844],[-95.19791142099996,16.1686627614948],[-95.20199362099999,16.167242765494862],[-95.20290022399996,16.170608124494755],[-95.19401023699999,16.172774299494698],[-95.19314905499994,16.170413609494723],[-95.19744160299996,16.168852683494798],[-95.19337045499998,16.16862761149477],[-95.19574501899996,16.161490890494985],[-95.19453865899999,16.160981434495024],[-95.19229999999999,16.167400001494805],[-95.18838819799998,16.168418634494778],[-95.18196557999995,16.16843389849479],[-95.16881134999994,16.164475349494897],[-95.16528508999994,16.16619825449485],[-95.16194168999999,16.165171999494888],[-95.15145895199998,16.167748102494834],[-95.15713485999999,16.179388895494483],[-95.15225667999994,16.185442769494344],[-95.14234201999994,16.188650749494208],[-95.11370831999994,16.187621969494288],[-95.07013077999994,16.183364859494375],[-95.02769999899994,16.18839999949426],[-94.90431859999995,16.210246309493645],[-94.86508671699994,16.214037804493522],[-94.83184504999997,16.214536779493532],[-94.77356748999995,16.212004449493598],[-94.74368804999995,16.208142569493713],[-94.72513613999996,16.20802891949371],[-94.71530247999999,16.210424179493668],[-94.69976159999999,16.209910339493625],[-94.54076221699995,16.191965193494127],[-94.481273167,16.181822958494426],[-94.42736022999999,16.169844949494735],[-94.34004424999995,16.145156819495465],[-94.27327702999997,16.123267619496048],[-94.20236607999999,16.096783019496783],[-94.17701931999994,16.085759459497133],[-94.09115045,16.04363599949829],[-94.00021882999994,16.00308871949942],[-94.00021667999994,16.006585259499328],[-94.01365508999999,16.01083425949917],[-94.03600810999997,16.022094719498874],[-94.10276368999996,16.14251591949553],[-94.10956759999999,16.179101249494494],[-94.09540950999997,16.185534169494318],[-94.04846991999995,16.216171479493493],[-94.04695173999995,16.220701579493323],[-94.03850037999996,16.23020174949309],[-94.03519554999997,16.2395536794928],[-94.03513897999994,16.248278919492613],[-94.04353436999997,16.25568691949241],[-94.03296099999994,16.275944969491828],[-94.05163650999998,16.327492279490393],[-94.05066484999998,16.32971391949035],[-94.13915599999996,16.46178642948669],[-93.86742677099994,17.136964912468123],[-94.92281477999995,17.19378842946658],[-94.92301671999996,17.204130229466287],[-94.91540685999996,17.20622136946624],[-94.91121410999995,17.213705579466055],[-94.91045939999998,17.22788339946566],[-94.90529516999999,17.23690810946542],[-94.90940142999996,17.24060642946534],[-94.90956765999994,17.24278147946528],[-94.90644371999997,17.24669136946516],[-94.89803194999996,17.25177348946502],[-94.89542902999995,17.256378399464907],[-94.90965471999999,17.267976919464548],[-94.90675944999998,17.279452219464254],[-94.90134868999996,17.287452749464048],[-94.90424541999994,17.289617579463954],[-94.91309105999994,17.28623477946405],[-94.91547611,17.288158909464023],[-94.91476581999996,17.292577059463902],[-94.90912531999999,17.2971895194638],[-94.90176099999998,17.296357369463813],[-94.89781485999998,17.298926289463733],[-94.88900376999999,17.300078379463713],[-94.88797602999995,17.302718739463614],[-94.89078154999999,17.311055999463424],[-94.90095296999999,17.31706048946326],[-94.90419396999994,17.316838889463238],[-94.90831009,17.313795739463327],[-94.91148876999995,17.314295049463322],[-94.92510161999996,17.3221286194631],[-94.92715807999997,17.325141199463044],[-94.93307736999998,17.318983539463165],[-94.94577737999998,17.31414013946333],[-94.95097967999999,17.315649429463296],[-94.96055819999998,17.323074289463054],[-94.96349591999996,17.331567719462853],[-94.96650917999995,17.334367659462778],[-94.96975011999997,17.333614619462786],[-94.97119214999998,17.330969579462852],[-95.0765674,17.372933709461712],[-95.25362190999994,17.60201393945555],[-95.25207007999995,17.60586212045542],[-95.25304797999996,17.6078063194554],[-95.25519348999995,17.608919119455354],[-95.25919258,17.607719379455386],[-95.26475324999996,17.601563350455535],[-95.26745679999999,17.603496680455475],[-95.26764747999994,17.608275169455386],[-95.27432917999994,17.60928064945537],[-95.27884539999997,17.613242799455207],[-95.27799673999999,17.615445779455197],[-95.27021961999999,17.61573807945515],[-95.26954551999995,17.619099510455086],[-95.27160414999997,17.622185650455005],[-95.27125804999997,17.62473459945495],[-95.26277604999996,17.62482811945495],[-95.25554930999994,17.621569459455007],[-95.24841123,17.625582279454918],[-95.25055550999997,17.627631649454866],[-95.25658304999996,17.627354859454833],[-95.25900110999999,17.629010749454842],[-95.25300954999994,17.633374749454674],[-95.25323137,17.642062479454463],[-95.24822563,17.645978059454364],[-95.24458748999996,17.645528889454358],[-95.24290530999997,17.643676480454424],[-95.24193341999995,17.634957999454638],[-95.21844761999995,17.639328249454554],[-95.21151661999995,17.644512819454395],[-95.20935211999995,17.64794617945433],[-95.20909322999995,17.65251324945416],[-95.20707999999996,17.654349799454117],[-95.20368956999995,17.653536679454163],[-95.20336077999997,17.64884725945426],[-95.20120308999999,17.64741197045432],[-95.19877876999999,17.647904849454296],[-95.19512316999999,17.654853519454143],[-95.19161253999994,17.654369539454148],[-95.18939384999999,17.649658549454234],[-95.18813159999996,17.650701459454226],[-95.18777099999996,17.671072460453686],[-95.18493531999997,17.67676068945352],[-95.18770093999996,17.68063888945345],[-95.18513610999997,17.684602519453325],[-95.18146973999995,17.685817179453313],[-95.18243534999999,17.69106262945313],[-95.19028961999999,17.69203674945312],[-95.23891299999997,17.73926411945183],[-95.23931861999995,17.736698600451923],[-95.25274324999998,17.733491179452006],[-95.25867299999999,17.728543229452157],[-95.26136559999998,17.73256220045204],[-95.26274421999995,17.738739119451864],[-95.26902604999998,17.74093405945178],[-95.26808453999996,17.732459519452064],[-95.26307027999997,17.72487879945225],[-95.26454493999995,17.71851959945239],[-95.26717657999995,17.716712819452457],[-95.27259573999999,17.71708477945245],[-95.27919547999994,17.721894019452304],[-95.28072104999995,17.71987307945239],[-95.27999390999997,17.71573970945247],[-95.28671553999999,17.71674396945245],[-95.29224417999995,17.712422250452594],[-95.29117870999994,17.71633437945245],[-95.29573605999997,17.7223203094523],[-95.29780852,17.72214141945233],[-95.30259153999998,17.711014079452596],[-95.30579977999997,17.711208049452598],[-95.30997050999999,17.70855515045267],[-95.30661077999997,17.697155629452983],[-95.31664797999997,17.697577799452954],[-95.31671053999997,17.69244650945308],[-95.32134976999998,17.68564422945328],[-95.32874731999999,17.6857827794533],[-95.33441916999999,17.67480130945361],[-95.34006144999996,17.674398089453607],[-95.34186267899997,17.68253912045337],[-95.34375874999996,17.68365983045335],[-95.35160161999994,17.679715419453434],[-95.34951154999999,17.675567890453582],[-95.35174244999996,17.671840319453676],[-95.35729124999995,17.671339569453668],[-95.36789073999996,17.67365624945359],[-95.36965539999994,17.669064379453754],[-95.38680768999996,17.663857289453897],[-95.39532324999999,17.651781199454224],[-95.40296022999996,17.652049619454225],[-95.40716216999994,17.643332089454436],[-95.41029113999997,17.64362857945441],[-95.41072437999998,17.649652249454235],[-95.41303350999999,17.651861089454222],[-95.41552796999997,17.65079022945422],[-95.41850164999994,17.644044049454404],[-95.42261119999995,17.6472554194543],[-95.42548994999999,17.64747248945431],[-95.42704871999996,17.645183089454378],[-95.42565242999996,17.638728199454555],[-95.42682779999996,17.63657034945462],[-95.43422737899994,17.635130859454655],[-95.43843159999994,17.631060169454777],[-95.44012617999994,17.626664420454873],[-95.44610737999994,17.621759800455017],[-95.45607779999995,17.623087769454962],[-95.45387847999996,17.614750179455193],[-95.45445892,17.611102719455328],[-95.46257942999995,17.608666279455324],[-95.47314133999998,17.609113019455346],[-95.47382482999996,17.606566779455406],[-95.47244919999997,17.60412919945549],[-95.46343648999994,17.5991690794556],[-95.46301644999994,17.59639390945571],[-95.47057444999996,17.5952151094557],[-95.47693903,17.588385079455872],[-95.47934413999997,17.58782939945591],[-95.47809510999997,17.594883219455717],[-95.48417994999994,17.601899480455522],[-95.48861611999996,17.596831119455672],[-95.49514896999995,17.595116179455722],[-95.49765041999996,17.591885879455827],[-95.50631722999998,17.590770549455858],[-95.50738694999995,17.588282879455925],[-95.50206551999997,17.586219219455945],[-95.50276724999999,17.584395019456014],[-95.50790124999997,17.58358509045602],[-95.51402122999997,17.585453829455997],[-95.51470313999995,17.579707309456147],[-95.52114504999997,17.57739184945618],[-95.51740230999997,17.569617999456412],[-95.52172153999999,17.570753349456407],[-95.52479321999995,17.576024220456265],[-95.52628788999999,17.571916719456347],[-95.53110565999998,17.57061105945637],[-95.53024704999996,17.567362509456498],[-95.52510191999994,17.562109539456614],[-95.53199628999995,17.555834029456758],[-95.53768436999998,17.556990779456733],[-95.53967479999994,17.560574520456637],[-95.54611796999995,17.554160979456846],[-95.55106221999995,17.553385939456852],[-95.55554714,17.558641539456712],[-95.55787222999999,17.549268079456958],[-95.55987748999998,17.546773000457055],[-95.56230345999995,17.546451719457032],[-95.56881511999995,17.551239029456898],[-95.57843328999996,17.5446485194571],[-95.57758445999997,17.538991379457215],[-95.57956697999998,17.53757641945728],[-95.58670061999999,17.53488791945737],[-95.59001071999995,17.53829782945724],[-95.59583317999994,17.537794749457266],[-95.59875225999997,17.534614969457376],[-95.59930704999994,17.54367384945712],[-95.603618,17.544521089457078],[-95.60511977999995,17.549012659457],[-95.60802742999994,17.54499488945708],[-95.60577536999996,17.54063762945719],[-95.60708947999996,17.539818149457197],[-95.61553836999997,17.542703169457123],[-95.61996931999994,17.540996599457152],[-95.62423822999995,17.543498339457102],[-95.62714674999995,17.547978339456982],[-95.63018850999998,17.546502679457042],[-95.63715416999997,17.548835489456966],[-95.64449207999996,17.54654431945704],[-95.64725794999998,17.55085205945693],[-95.64702550999999,17.555688719456775],[-95.65410434999995,17.56039279945665],[-95.65436559999995,17.556028049456792],[-95.65006984999997,17.55119428945693],[-95.64992167999998,17.545459019457077],[-95.64679536999995,17.54233336945714],[-95.64847079999998,17.539889089457198],[-95.65967091999994,17.53882539945725],[-95.66494262999998,17.535374309457342],[-95.67395511999996,17.533837339457374],[-95.68033265999999,17.534098319457378],[-95.68515421999997,17.537531739457307],[-95.68930025999998,17.534906679457357],[-95.68989622999999,17.53138896945742],[-95.69216147999998,17.530901259457476],[-95.69034176999999,17.527194749457543],[-95.69104078,17.52494777945761],[-95.69971114999998,17.522430289457677],[-95.70223605999996,17.518534179457813],[-95.70644058,17.526453119457575],[-95.70657564999999,17.53401936945739],[-95.70825608999996,17.534425479457347],[-95.70878956999996,17.531897029457422],[-95.71330302999996,17.536170459457313],[-95.71522216999995,17.535551079457342],[-95.71743694999998,17.5372515494573],[-95.72514936999994,17.53622607945732],[-95.72175293999999,17.53963694945722],[-95.72048416999998,17.54352587945712],[-95.72198671999996,17.549237679456947],[-95.72809344999996,17.551981119456887],[-95.72403716999997,17.557286709456726],[-95.72492339999997,17.56283208945657],[-95.72805259999996,17.565450849456514],[-95.72955811999998,17.571056199456372],[-95.72689687999997,17.57802904945619],[-95.73379727999998,17.57548144945624],[-95.73755337999995,17.580451479456094],[-95.74117747999998,17.580674679456134],[-95.74490125999996,17.58599214945596],[-95.74757653999995,17.58354453945603],[-95.75068599999997,17.58640494945594],[-95.75886264999997,17.584984429456025],[-95.76493472,17.589258539455894],[-95.77155556999998,17.588686449455924],[-95.77393150999995,17.594503679455748],[-95.77346379999994,17.597857969455664],[-95.77148037999996,17.59969804945558],[-95.78175124999996,17.603028259455492],[-95.79109431999997,17.60342511945551],[-95.79298384999998,17.60143437945556],[-95.79268607999995,17.59635036945568],[-95.78943037,17.594924779455724],[-95.79225273999998,17.588850149455883],[-95.79185257999995,17.586363289455974],[-95.79562390999996,17.58622737945595],[-95.80250607999994,17.589513829455868],[-95.80301665999997,17.591425509455792],[-95.80754956999999,17.591841579455817],[-95.80876297999998,17.593187399455758],[-95.80757151999997,17.60180368945555],[-95.80348577999996,17.607100289455413],[-95.79617796999997,17.60603090945545],[-95.79470254999997,17.60351757945552],[-95.78902313999998,17.60834664945536],[-95.78905201999999,17.610862339455295],[-95.78037721999999,17.611117259455316],[-95.77597010999995,17.608689749455365],[-95.77722902999994,17.604305629455475],[-95.77365845999998,17.605850399455452],[-95.77274098,17.621538779455],[-95.77337033999999,17.623825199454952],[-95.78249981999994,17.625773219454896],[-95.78111433999999,17.638876879454553],[-95.78446659999997,17.637513829454583],[-95.78563721999996,17.6334434294547],[-95.78828877999996,17.63435905945468],[-95.79778304999996,17.630645619454768],[-95.79911042999998,17.627628429454877],[-95.80330559999999,17.62936574945478],[-95.80542668999999,17.63610985945461],[-95.80964802999995,17.638171569454567],[-95.80741888999995,17.63937448945451],[-95.80733741999995,17.642682049454468],[-95.80563639999997,17.643444979454397],[-95.80800631999995,17.646800479454313],[-95.81266024999996,17.645934709454373],[-95.81359662999995,17.648327429454294],[-95.82003190999995,17.648259579454304],[-95.82029637999996,17.650723679454234],[-95.82330247999995,17.648985889454288],[-95.83063353999995,17.652625029454146],[-95.83347142999997,17.65740751945405],[-95.83850525999998,17.659987089454006],[-95.84088074999994,17.666905199453776],[-95.84414756999996,17.668480939453758],[-95.84404153999998,17.673120649453622],[-95.84709748999995,17.67326462945363],[-95.85020516999998,17.675841319453575],[-95.85290690999994,17.675308479453587],[-95.86130446,17.682492079453354],[-95.86751162999997,17.68483933945332],[-95.87075879999998,17.692686879453106],[-95.87101834999999,17.70216891945287],[-95.89529328999998,17.704493949452758],[-95.89316865999997,17.707685879452693],[-95.89402042899997,17.712319980452595],[-95.89052271999998,17.712590649452554],[-95.88284744999999,17.717018650452435],[-95.87701484899998,17.71568021945247],[-95.87339628899997,17.71713383045246],[-95.87280971899997,17.727409050452167],[-95.87941373999996,17.728131819452145],[-95.88560437899997,17.72675274045218],[-95.88972051999997,17.725260289452226],[-95.89210761899994,17.720606799452348],[-95.89442164999997,17.7226043704523],[-95.89481717999998,17.727328430452165],[-95.90105804899997,17.728739629452146],[-95.90277364899998,17.732652679452038],[-95.90087165899996,17.743785339451726],[-95.89767916899996,17.748973289451577],[-95.89924513899996,17.753649089451475],[-95.89263368899998,17.760322690451286],[-95.89292430899998,17.765141320451157],[-95.88477919999997,17.771824489450964],[-95.87885976999996,17.77347690945094],[-95.86716468999998,17.773229029450935],[-95.86639039999994,17.774352829450915],[-95.86577230999997,17.782384879450692],[-95.86895562999996,17.796624939450343],[-95.86682070999996,17.799602199450216],[-95.85996753999997,17.802067119450182],[-95.85578565999998,17.805556799450063],[-95.85332530999995,17.818839949449707],[-95.84933642,17.825847919449537],[-95.85103805999996,17.830658549449417],[-95.85855001999994,17.839189219449167],[-95.85881556999999,17.844783489449036],[-95.85561593899996,17.846640740448965],[-95.85020464999997,17.844534319449007],[-95.79992471999998,17.95001256944623],[-95.83316693999996,18.129026829441443],[-95.90716145999994,18.13564448944128],[-95.90969594999996,18.138082429441212],[-95.91348810999995,18.138583519441195],[-95.91236002999995,18.150466349440872],[-95.91464679999996,18.152200479440815],[-95.92213201999994,18.15080396944084],[-95.92219530999995,18.14105694944114],[-95.92558487999999,18.142886349441056],[-95.92573764999997,18.14643077944099],[-95.92870334999998,18.144228489441044],[-95.93138861999995,18.145277739441006],[-95.93334172,18.14166753944113],[-95.93401353999998,18.145269979440982],[-95.93643450999997,18.146825519440966],[-95.93236882999997,18.151354599440847],[-95.93614651999997,18.15372637944076],[-95.93725482999997,18.156632739440738],[-95.95345945999998,18.15986511944064],[-95.95585774999995,18.157213199440708],[-95.95907991999997,18.1570589194407],[-95.95842347999996,18.152985339440807],[-95.96297593999998,18.151976819440847],[-95.96480782999998,18.15456459944079],[-95.96716507999997,18.154223719440783],[-95.97202481999996,18.149510879440886],[-95.97769310999996,18.148948829440915],[-95.98153736999997,18.142953219441065],[-95.98589517999994,18.150034619440873],[-95.99106745999997,18.151938880440813],[-95.99531424999998,18.15060607944087],[-95.99665822899999,18.146854459440963],[-96.00035454,18.14436982944107],[-96.01015161999999,18.142128890441075],[-96.01241199899994,18.138496510441172],[-96.01635970899999,18.136436979441235],[-96.01895008999998,18.136049619441263],[-96.02093574999998,18.137899320441235],[-96.02568997899999,18.133460979441328],[-96.04105396999995,18.13849702944119],[-96.04311134999995,18.13467343044131],[-96.04687370899995,18.13656453944125],[-96.04700844899997,18.13069131944139],[-96.05138899999999,18.12673825044152],[-96.05697881999998,18.1340199704413],[-96.05907407999997,18.133897479441302],[-96.06099044999996,18.131254249441373],[-96.06638308899994,18.13158858044141],[-96.06885845899996,18.14076524944115],[-96.07948490999996,18.149792230440887],[-96.08422639899999,18.16253432044057],[-96.09918359999995,18.166843309440438],[-96.10401511999999,18.164845050440476],[-96.11056194899999,18.166185860440443],[-96.11431647999996,18.16407131944052],[-96.11715181999995,18.15516871944077],[-96.12304604999997,18.154228979440756],[-96.12392901899995,18.151580909440867],[-96.12202697899995,18.143055030441097],[-96.12412821899994,18.140377520441152],[-96.13671507899994,18.13403562944129],[-96.14362551899995,18.140148970441132],[-96.14856811999994,18.132190120441383],[-96.15422593899996,18.131804889441387],[-96.17966604899999,18.14056605044115],[-96.18828204999994,18.15130294044084],[-96.18652314999997,18.155498720440768],[-96.18280999999998,18.15781767944069],[-96.18719567999995,18.166748890440452],[-96.17285164899995,18.16780578044039],[-96.17023527899994,18.169802450440375],[-96.16856448899995,18.17698318044015],[-96.17069102999996,18.18638398043993],[-96.180107079,18.182675399440026],[-96.18984130899999,18.18107275044006],[-96.20313297999998,18.17487523044022],[-96.21420264999995,18.165189889440462],[-96.21518696899994,18.161704089440587],[-96.21747808899994,18.16196740044055],[-96.23100304999997,18.189726779439845],[-96.24358868899999,18.197103770439647],[-96.24684919899995,18.203073600439456],[-96.26799354899998,18.224451629438896],[-96.26577031999994,18.24305666043839],[-96.26681805899995,18.24566206043838],[-96.28131281899995,18.25913475043799],[-96.28679884899998,18.257793830438043],[-96.28823670899999,18.259761420438],[-96.28618501999995,18.26142692043795],[-96.28869334899997,18.262654919437903],[-96.28407550999998,18.26542495043784],[-96.28312890899997,18.268900949437732],[-96.28155733999995,18.2667384004378],[-96.27602787899997,18.26580989043783],[-96.27726982899998,18.271403079437643],[-96.27169619899996,18.271944460437638],[-96.26916391999998,18.273984179437615],[-96.27353428999999,18.275534430437553],[-96.27323499899995,18.281055050437438],[-96.27857614899995,18.283818399437315],[-96.27388853899998,18.28591588943731],[-96.27730597999994,18.28809757043722],[-96.27741751999997,18.294015019437094],[-96.27076374899997,18.29782334943697],[-96.27332374999997,18.300540339436903],[-96.27969373899998,18.299856579436906],[-96.28549159899997,18.30168740043686],[-96.28359816899996,18.306090679436775],[-96.28494891999998,18.30559942043679],[-96.28580962999996,18.307678179436707],[-96.28449387899997,18.307065369436707],[-96.28442854899998,18.30894371943669],[-96.28747910999994,18.31013176943665],[-96.28690614899995,18.31127658043664],[-96.29002282999996,18.312012460436595],[-96.29107205999998,18.310849379436608],[-96.29277777999994,18.312774309436595],[-96.29439605,18.312388880436604],[-96.29675428999997,18.317417379436463],[-96.29685093899997,18.31620636943647],[-96.29905733999999,18.316435510436488],[-96.30994785999997,18.322353339436344],[-96.30819305999995,18.323515219436285],[-96.30903151999996,18.32489667943625],[-96.30544419999995,18.324841549436233],[-96.30560991999994,18.329029829436127],[-96.31269730999998,18.327596879436182],[-96.31499275,18.3313893794361],[-96.31326536999995,18.335012889435962],[-96.31605351999997,18.337592089435912],[-96.31596430999997,18.339915909435863],[-96.31752525999997,18.340098029435836],[-96.31353845999998,18.345909229435726],[-96.3156466,18.3466878294357],[-96.31514910999994,18.349786059435583],[-96.31731439999999,18.35053054943555],[-96.31990057999997,18.355168059435446],[-96.31757688999994,18.358268579435396],[-96.32016870999996,18.358423799435343],[-96.31838587999994,18.35969788943535],[-96.32066559999998,18.360214549435295],[-96.31732790999996,18.364537249435223],[-96.32135757999998,18.367899679435123],[-96.32409565999997,18.367267309435125],[-96.33505330999998,18.372517339435003],[-96.33291614999997,18.37302282943497],[-96.33061625999994,18.376427179434906],[-96.33106808999997,18.379228379434803],[-96.33495137999995,18.379831259434816],[-96.33658374999999,18.375953629434886],[-96.33859347999999,18.377106459434877],[-96.33931753999997,18.375632489434913],[-96.34534279999997,18.379695459434807],[-96.34500484999997,18.38158930943475],[-96.34732468999994,18.382284259434748],[-96.34746784999999,18.386735539434646],[-96.34902325999997,18.38844056943459],[-96.34593548999999,18.389793339434526],[-96.34841228999994,18.39463494943443],[-96.34455404999994,18.398507659434323],[-96.34986824999999,18.401505259434195],[-96.34915253999998,18.402649219434213],[-96.35212147999994,18.40628741943412],[-96.35258776999996,18.410247339434026],[-96.35633902999996,18.411676849433963],[-96.35702813999995,18.409234919434052],[-96.36173145999999,18.407075679434083],[-96.36107082999996,18.409692949433985],[-96.36876464999995,18.414531719433903],[-96.36779247999999,18.417366819433813],[-96.37416159999998,18.417399259433786],[-96.37619576999998,18.42464854943361],[-96.37860522999995,18.426222889433607],[-96.38384062999995,18.42411048943362],[-96.38521501999998,18.429330059433493],[-96.38924807999996,18.42837651943351],[-96.39005853999998,18.431681779433468],[-96.38827464999997,18.432698259433415],[-96.38826401999995,18.43476507943334],[-96.39079041999997,18.434850619433387],[-96.39175405999998,18.436740349433286],[-96.38933730999999,18.440480749433217],[-96.39218427999998,18.439358479433253],[-96.39331310999995,18.437061749433298],[-96.39615884999995,18.439807289433205],[-96.40298453999998,18.43991939943324],[-96.40010151999996,18.444174679433107],[-96.40359604999998,18.44634941943305],[-96.40132985999999,18.447913829433023],[-96.40154844999995,18.453420619432855],[-96.40332919999997,18.45660202943278],[-96.40134742999999,18.45983810943272],[-96.40494408999996,18.464697219432583],[-96.40459710999994,18.46777796943248],[-96.41240005999998,18.464758139432593],[-96.41501782999995,18.46929305943243],[-96.41802256999995,18.470482079432433],[-96.41817718,18.476056119432286],[-96.41118550999994,18.476921059432243],[-96.41470068999996,18.4828854194321],[-96.41328777999996,18.486665659431967],[-96.41550002999998,18.495241489431777],[-96.41728834999998,18.496266909431718],[-96.41656024999997,18.499274119431664],[-96.42135719999999,18.499099739431692],[-96.42348159999995,18.501804089431605],[-96.42024407999997,18.508036629431427],[-96.42076197999995,18.510457799431357],[-96.42504676999994,18.513332939431297],[-96.43262013999998,18.52536328943095],[-96.43804388999996,18.52874701943086],[-96.43751293999999,18.531767219430815],[-96.44050291999997,18.531683449430815],[-96.44143431999998,18.53554314943068],[-96.44359834999995,18.534682539430737],[-96.44710053999995,18.536675029430654],[-96.44790739999998,18.541451319430518],[-96.44964002999996,18.54133847943054],[-96.45056401999994,18.54522441943047],[-96.45303077999995,18.546080199430442],[-96.45502877999996,18.54928531943031],[-96.45259076999997,18.554364149430196],[-96.45287025999994,18.55718930943015],[-96.45110671999998,18.557130179430143],[-96.45439159999995,18.561541339430043],[-96.45730882999999,18.570437419429815],[-96.46026681999997,18.570477339429754],[-96.46107054999999,18.57304361942975],[-96.46440514999995,18.57392330942971],[-96.46724048999994,18.57083793942977],[-96.46898419999997,18.573832119429728],[-96.47326901999998,18.57331217942973],[-96.47270239999995,18.575948709429625],[-96.47551751999998,18.576805479429638],[-96.47734828999995,18.57994179942952],[-96.48476628999998,18.580096139429507],[-96.48463917999999,18.582182649429473],[-96.48874431999997,18.581248659429477],[-96.49974931999999,18.589502419429255],[-96.50177131999999,18.58733205942935],[-96.50238510999998,18.588983779429288],[-96.50428341999998,18.588003059429344],[-96.50876121999995,18.58946056942927],[-96.51045487999995,18.584284659429404],[-96.51348594999996,18.58522147942938],[-96.51399997999994,18.58250568942949],[-96.51661844999997,18.58291017942946],[-96.51750510999995,18.581573169429507],[-96.51792325999998,18.583635649429464],[-96.52389517999995,18.58526991942938],[-96.52547499999999,18.58777359942933],[-96.53230745999997,18.58733453942932],[-96.53267044999996,18.585358339429376],[-96.53730494999998,18.5839509394294],[-96.53983254999997,18.58483601942942],[-96.54132379999999,18.588253139429327],[-96.56094708999997,18.58769861942931],[-96.56472601999997,18.59138476942924],[-96.56641094999998,18.590420519429284],[-96.56920457999996,18.594078379429156],[-96.57484567999995,18.59501882942916],[-96.57468681999995,18.596582019429075],[-96.57904048999995,18.600367369429012],[-96.58113153999994,18.600006089428984],[-96.58156221999997,18.60198171942893],[-96.58376701999998,18.601575999428945],[-96.58942242999996,18.604981829428873],[-96.58933248999995,18.60676322942885],[-96.59182470999997,18.60739227942882],[-96.59537444999995,18.61147684942869],[-96.60108375,18.61219771942868],[-96.60682631999998,18.617570999428555],[-96.61668196999995,18.619074059428524],[-96.61785550999998,18.622299799428447],[-96.62262168999996,18.625725949428343],[-96.62249817999998,18.62863647942828],[-96.63151065999995,18.633594369428103],[-96.63165317999994,18.635667229428048],[-96.63997730999995,18.63758911942801],[-96.64379388999998,18.640916709427945],[-96.64580916999995,18.640390519427942],[-96.64861088999999,18.645798549427813],[-96.65499925999995,18.651297849427664],[-96.65915193999996,18.650489089427708],[-96.66558816999998,18.65630834942756],[-96.66823645999995,18.655952489427555],[-96.67011287999999,18.65895376942745],[-96.66971764999994,18.661277829427434],[-96.67368148999998,18.66298276942734],[-96.67441648999996,18.66593611942726]]],[[[-96.22711862199998,15.68706156350826],[-96.23130954899995,15.687773351508236],[-96.23133229099994,15.687225902508288],[-96.22825128499994,15.685270020508343],[-96.22711862199998,15.68706156350826]]],[[[-96.22357319499997,15.690207513508208],[-96.22210455399994,15.690943097508162],[-96.22332572699999,15.690839963508196],[-96.22357319499997,15.690207513508208]]],[[[-96.16188098799996,15.721020951507338],[-96.16399934899994,15.718176603507416],[-96.16261485899997,15.717149213507453],[-96.16180351999999,15.718414253507383],[-96.16145548999998,15.71638819450744],[-96.16041962499997,15.717138900507436],[-96.16154794399995,15.718404170507378],[-96.16021829699997,15.718180038507407],[-96.16188098799996,15.721020951507338]]],[[[-96.11859613099995,15.747043902506617],[-96.11908119299994,15.747885817506566],[-96.11976036099999,15.747458561506608],[-96.11859613099995,15.747043902506617]]],[[[-96.11706583099999,15.747778190506596],[-96.11725260799994,15.748241090506573],[-96.11760432199999,15.748002733506576],[-96.11706583099999,15.747778190506596]]],[[[-96.11584019499998,15.748610484506518],[-96.11608331099995,15.748915824506525],[-96.11597399799996,15.748532347506524],[-96.11584019499998,15.748610484506518]]],[[[-96.11624372899996,15.749139188506549],[-96.11652629399998,15.74915280550652],[-96.11642759099999,15.74886751350653],[-96.11624372899996,15.749139188506549]]],[[[-96.08408837899998,15.764982832506064],[-96.08509888599997,15.763720157506148],[-96.08381957899996,15.762527941506189],[-96.08276037899998,15.764040636506117],[-96.08408837899998,15.764982832506064]]],[[[-96.09503642399994,15.771626680505895],[-96.094731552,15.771962670505882],[-96.09511322299994,15.771789512505887],[-96.09503642399994,15.771626680505895]]],[[[-97.35150401199998,15.937528307501223],[-97.35296529399994,15.937609912501275],[-97.35279151799995,15.93661719750125],[-97.35188281299997,15.936374072501257],[-97.35150401199998,15.937528307501223]]],[[[-95.57427552599995,15.9403519405012],[-95.57636558699994,15.941864562501106],[-95.57688520599999,15.941400377501113],[-95.57427552599995,15.9403519405012]]]]}}]}
