{"type":"FeatureCollection","features":[{"type":"Feature","properties":{"cve_ent":"22","cvegeo":"22","nombre_inegi":"Querétaro","nombre_catalogo":"Querétaro"},"geometry":{"type":"Polygon","coordinates":[[[-99.18810831999998,21.669917089351927],[-99.19829454999996,21.665013289352018],[-99.21079587999998,21.667542979351968],[-99.21769754999997,21.666646479351986],[-99.21673101999994,21.65336625935229],[-99.22265376999998,21.646887569352455],[-99.22249216999997,21.643316919352557],[-99.22543950999994,21.640265429352617],[-99.22512459999996,21.633286199352778],[-99.22671046,21.631757509352813],[-99.23188087999996,21.63134631935281],[-99.24064042999998,21.62379013935298],[-99.24349644999995,21.61505716935323],[-99.25533005999995,21.60991353935332],[-99.25981362999994,21.611739259353275],[-99.26405224999998,21.610907849353318],[-99.27393279999995,21.606209219353417],[-99.28071704999996,21.607903369353362],[-99.28239617999998,21.593223919353754],[-99.28165804999999,21.584956889353947],[-99.27402577999999,21.567797419354324],[-99.27440190999994,21.565323259354432],[-99.27932145999995,21.560144509354526],[-99.29069513999997,21.55800957935456],[-99.29138314999996,21.555599449354638],[-99.28929710999995,21.55036187935474],[-99.29687706,21.54461894935488],[-99.29843163,21.54038753935499],[-99.30548864999997,21.532914289355197],[-99.30788481999997,21.532048709355188],[-99.31464973999994,21.534809229355155],[-99.32006351999996,21.53349907935519],[-99.32728677999995,21.53517113935513],[-99.33313422999998,21.537875029355085],[-99.34085747999997,21.547207599354824],[-99.34986090999996,21.55235737935471],[-99.36369165999997,21.553288659354717],[-99.37590684999999,21.54793057935485],[-99.37636282999995,21.53446614935517],[-99.37866084999996,21.529634969355286],[-99.37010633999995,21.52214028935543],[-99.37290494999996,21.513939539355608],[-99.37197621799999,21.507104089355803],[-99.37437722999995,21.503298819355905],[-99.37885699999998,21.50045939935598],[-99.38359436999998,21.498729519356008],[-99.38670816999996,21.500372939355966],[-99.38727273999996,21.494056909356107],[-99.38470824999996,21.4904751193562],[-99.38238244999997,21.48088687935646],[-99.38838288999995,21.46956231935669],[-99.38887602999995,21.464897309356793],[-99.39089413999994,21.46371965935684],[-99.39539579999997,21.46499244935684],[-99.39855962999998,21.463425739356857],[-99.39559542999996,21.45421105935706],[-99.39810801999995,21.448865579357236],[-99.39690265999997,21.445093319357326],[-99.39848682999997,21.44275091935735],[-99.40245890999996,21.4415952893574],[-99.40152214099999,21.43777605735747],[-99.40592114999998,21.428271379357724],[-99.41551961999996,21.42913337935769],[-99.43627568999995,21.44985602935717],[-99.44735127999996,21.443476579357334],[-99.46982244999998,21.446514539357285],[-99.47357264999994,21.4411045793574],[-99.47077188999998,21.436617079357525],[-99.47526036999994,21.434007399357565],[-99.48392125999999,21.432792049357595],[-99.48836330999995,21.421965319357838],[-99.49752081999999,21.419226079357912],[-99.50561067999996,21.418940179357932],[-99.52225857999997,21.428289619357706],[-99.53150136999994,21.428648679357682],[-99.53712234999996,21.431453739357636],[-99.54077417999999,21.429563939357664],[-99.54444005999994,21.430192849357628],[-99.55193131999994,21.428393059357727],[-99.55659642999996,21.436608649357503],[-99.54934519999995,21.447067719357264],[-99.55569773999999,21.449780919357163],[-99.56028745999998,21.453973259357095],[-99.56435311999998,21.453663399357076],[-99.57318471999997,21.466279579356783],[-99.59028444999997,21.477697149356512],[-99.59198307999999,21.486260939356296],[-99.60988957999996,21.493864459356132],[-99.62580077999996,21.50730190935577],[-99.62561030999996,21.51122879935567],[-99.63039282999995,21.519777089355497],[-99.64337931999995,21.53453528935516],[-99.64408494999999,21.54265111935497],[-99.65954196999998,21.56794522935437],[-99.66644584999995,21.56775133935433],[-99.69472844999996,21.572603769354238],[-99.70027547999996,21.5727390193542],[-99.70553365999996,21.5707300593543],[-99.74674319999998,21.57836328935407],[-99.75275479999999,21.543907519354935],[-99.75213582999999,21.539340649355022],[-99.75041136999994,21.53899141935505],[-99.75198250999996,21.538515999355074],[-99.75093951999999,21.53562676935515],[-99.74920464999998,21.537265599355102],[-99.74644456999995,21.536359629355108],[-99.74673513999996,21.531492449355202],[-99.74824939999998,21.531073119355213],[-99.75132293999997,21.533963149355134],[-99.75259513999998,21.5326575393552],[-99.75096373999997,21.529525019355265],[-99.74862665999997,21.52948751935525],[-99.74862070999995,21.526959579355314],[-99.75006411999999,21.526613219355344],[-99.74929225999995,21.523173479355393],[-99.75500371,21.520788379355476],[-99.75668319999994,21.514166659355652],[-99.76203713999998,21.51329087935566],[-99.76580402999997,21.509275659355783],[-99.77098505999999,21.506842289355834],[-99.77735185999995,21.49595544935607],[-99.77407387999995,21.491784749356157],[-99.77526665,21.488743549356233],[-99.77285211999998,21.485907909356307],[-99.77464011999997,21.482871739356415],[-99.77310585999999,21.476344459356575],[-99.77727037999996,21.470220649356687],[-99.77408189,21.47037019935668],[-99.77177759999995,21.466308919356813],[-99.77702670999997,21.460013919356943],[-99.77430336999998,21.456278859357035],[-99.77815987999998,21.446513509357267],[-99.77616293999995,21.44252219935736],[-99.77876302999994,21.440875379357387],[-99.78058674999994,21.434813619357552],[-99.77867466,21.433280019357575],[-99.77970751999999,21.42991727935765],[-99.77592888999999,21.42703377935773],[-99.78035378,21.414224429358043],[-99.77630387999994,21.407597179358202],[-99.77206356999994,21.406378599358227],[-99.77326864999998,21.400762819358377],[-99.77936817999995,21.394597949358523],[-99.77903739999994,21.390255109358634],[-99.78026037999996,21.389355179358645],[-99.77615962999994,21.383349319358782],[-99.77549553999995,21.374968599358986],[-99.78096701999999,21.368518489359147],[-99.79452202,21.357399419359403],[-99.79213267999995,21.34390659935973],[-99.77756527999998,21.343235429359762],[-99.78430808999998,21.33251770936003],[-99.78487839999998,21.327868509360123],[-99.78779082999995,21.329621719360073],[-99.78400308999994,21.320149569360346],[-99.77993479999999,21.313028169360486],[-99.77218627999999,21.309261369360595],[-99.77235510999998,21.308023549360595],[-99.76572347999998,21.303350419360758],[-99.75789356999998,21.292140369360983],[-99.75242474,21.291783399360998],[-99.73416114999998,21.301443919360782],[-99.73425053999995,21.308280539360606],[-99.73725312,21.312884969360475],[-99.70756530999995,21.31454582936045],[-99.69832285999996,21.30964981936058],[-99.68558562,21.30830404936063],[-99.67130261999995,21.301193749360763],[-99.67801273999999,21.288813259361074],[-99.69907630999997,21.266698399361623],[-99.69870634999997,21.240752089362253],[-99.69187601999994,21.234142019362395],[-99.68785487999997,21.22578025936259],[-99.73848345899997,21.235817769362352],[-99.74649636999999,21.22529474936262],[-99.75810562899996,21.21640296936284],[-99.768450719,21.211671619362964],[-99.77324564899999,21.207065569363074],[-99.77583353899998,21.207282319363056],[-99.77696962999994,21.195938509363366],[-99.80005188999996,21.17987789036373],[-99.80802142899995,21.1762534503638],[-99.80743345999997,21.175308509363827],[-99.81506356899996,21.16700893936406],[-99.81801956999999,21.166866140364057],[-99.81722950899996,21.165629480364068],[-99.83125854999997,21.157322719364252],[-99.84170704999997,21.158891799364238],[-99.84926844999995,21.16420584936409],[-99.85903547999999,21.16457085936407],[-99.87164676899995,21.169712619363963],[-99.87932767999996,21.168037909364028],[-99.88528817899999,21.17019039936394],[-99.88825094899994,21.169595019363964],[-99.88860517899998,21.17378716936385],[-99.89521442899996,21.177579249363806],[-99.89934717999995,21.18389728936364],[-99.92199296899997,21.190518199363463],[-99.92951627899998,21.19074581936349],[-99.94264571899998,21.194417829363406],[-99.94536217999996,21.209885369362993],[-99.94902653999999,21.210124859363006],[-99.95471411999995,21.20567181936313],[-99.95509973899999,21.207058779363088],[-99.94786482999996,21.212374939362967],[-99.97858259899999,21.215972909362858],[-99.98636804899998,21.2183100293628],[-100.01108573999996,21.18946433936348],[-100.00122184999998,21.1885240793635],[-99.99641765999996,21.18259490936364],[-100.00410744899995,21.173662689363898],[-100.00238742899995,21.168696579364028],[-100.00590868999997,21.161108249364172],[-100.00287821899997,21.15901110936425],[-100.00299061899995,21.157423949364297],[-100.00710436899999,21.156684689364322],[-100.00837233899995,21.148374939364505],[-100.01291781899994,21.13850664936475],[-100.01677119999995,21.123027089365113],[-100.019967819,21.11880971936524],[-100.02077811899994,21.11383193936535],[-100.02450314999999,21.109463019365474],[-100.02754307999999,21.100253019365642],[-100.02187762899996,21.100084449365678],[-100.02191677999997,21.093003169365822],[-100.02473396999994,21.082838579366094],[-100.02331785999996,21.0780475093662],[-100.02641887999994,21.07356231936634],[-100.02031345999995,21.06400196936655],[-100.02171397999997,21.061349119366607],[-100.02007413999996,21.059795649366674],[-100.01976521999997,21.05512951936676],[-100.00665757999998,21.046394459366976],[-100.01086961999995,21.04305077936706],[-100.01219973999997,21.035960309367244],[-100.01106956999996,21.02850462936741],[-100.01656261999995,21.023463049367525],[-100.01862539999998,21.017582539367673],[-100.02256316999997,21.014621199367728],[-100.02906237999997,21.015063679367717],[-100.04063251999997,21.022212349367603],[-100.04842851999996,21.02496141936752],[-100.04848957999997,21.023193029367576],[-100.05448011999994,21.02778507936744],[-100.06122841999998,21.02852148936743],[-100.06894971999999,21.02281339936758],[-100.06864971999994,21.020176679367648],[-100.06479977,21.017198549367702],[-100.06074630999996,21.00581577936796],[-100.07142174999997,20.992330149368303],[-100.07281149,20.993201429368288],[-100.07376014,20.991758339368314],[-100.07318067999996,20.987677779368433],[-100.06985451999999,20.983493399368516],[-100.07643028999996,20.97806334936867],[-100.07804316999996,20.972657479368806],[-100.06981364999996,20.964785569368992],[-100.06880276999999,20.95791201936914],[-100.08073849,20.94985750936936],[-100.07371742,20.9477161993694],[-100.07206090999995,20.9447786893695],[-100.06689968999996,20.94220093936956],[-100.06417193999995,20.936288599369703],[-100.09273788999997,20.93168122936978],[-100.11782777999997,20.922155119370046],[-100.12695979999997,20.928067509369892],[-100.12879454999997,20.934416089369748],[-100.13442158,20.934813619369724],[-100.13531184999994,20.937263829369662],[-100.17837008,20.93866507936965],[-100.18152759999998,20.930401659369803],[-100.18448379999995,20.931411279369826],[-100.18420436999997,20.933177049369746],[-100.18781111999999,20.93254754936977],[-100.20088777999996,20.93701239936968],[-100.23932627999994,20.96079770936909],[-100.26362328999996,20.97099884936884],[-100.26778090999994,20.96861451936891],[-100.27206108999997,20.963029459369007],[-100.26786904999994,20.95743765936916],[-100.26179669,20.953373079369268],[-100.26337057999996,20.949280309369367],[-100.26265397999998,20.933487549369755],[-100.26554322999999,20.92924737936985],[-100.29920916999998,20.931327749369782],[-100.30419501999997,20.928319939369864],[-100.30537821999998,20.92382682936999],[-100.30369087999998,20.919547919370107],[-100.29839428999999,20.915291719370174],[-100.33359079999998,20.890728479370807],[-100.38132374999998,20.8904836793708],[-100.39441530999994,20.89216694937075],[-100.41339937999999,20.887431879370894],[-100.45395601999998,20.90017937937057],[-100.45317647999998,20.92319904937001],[-100.46098531999996,20.923317489369992],[-100.47223287999998,20.92844605936988],[-100.46995828999998,20.907039349370393],[-100.48536676999998,20.90879971937036],[-100.48499610999994,20.900784719370552],[-100.49158725999996,20.896189879370677],[-100.49228914999998,20.892615629370724],[-100.50273628999997,20.875520509371178],[-100.50902351999997,20.870706709371273],[-100.50728661999995,20.869538229371308],[-100.50204861999998,20.852920459371745],[-100.52495753999995,20.844984799371947],[-100.53184904999995,20.84022457937203],[-100.55933222,20.829914679372305],[-100.56628310999997,20.82081039937249],[-100.56967732,20.821248679372513],[-100.57758893999996,20.816669749372643],[-100.57781484999998,20.808444519372788],[-100.57336445,20.80367416937291],[-100.57070538,20.805863339372866],[-100.55832828999996,20.804571149372947],[-100.56407730999997,20.774696879373618],[-100.56289448999998,20.76854705937381],[-100.55946796999996,20.762591309373956],[-100.54812107999999,20.749560879374258],[-100.54891461999995,20.73638341937458],[-100.58441451999994,20.728937349374753],[-100.58828481999997,20.72241045937493],[-100.59653570999996,20.71726091937508],[-100.59018562999995,20.71069371937522],[-100.58128445999996,20.692932629375647],[-100.58077591999997,20.68977941937574],[-100.58415185999996,20.682923619375924],[-100.58360348999999,20.678424259376015],[-100.57395928999995,20.672066049376195],[-100.56193062999996,20.67142777937619],[-100.55112517999999,20.633766049377158],[-100.53702956999997,20.638525909377023],[-100.52953527999995,20.638667259376998],[-100.52609379999997,20.63271016937717],[-100.52706934999999,20.629819519377246],[-100.52148631999995,20.624864289377374],[-100.51836174999995,20.625809229377357],[-100.51625002999998,20.622567849377408],[-100.51427941999998,20.62384587937737],[-100.49791725999997,20.61582974937756],[-100.49617742999999,20.616193739377543],[-100.49425468,20.610510219377698],[-100.49568028999995,20.60916521937772],[-100.49117893999994,20.598761659377995],[-100.48968807999995,20.598171689378038],[-100.48640877999999,20.588433659378282],[-100.48753899999998,20.587946909378243],[-100.48221602999996,20.57635630937856],[-100.48209164999997,20.571508309378693],[-100.48389870999995,20.571440399378652],[-100.48500337999998,20.55380421937915],[-100.50476544999998,20.55503339937911],[-100.50852059999995,20.526209259379765],[-100.50774853999997,20.518523979380006],[-100.50315965,20.51966539937997],[-100.50111136999999,20.51259573938013],[-100.50975557999999,20.506526849380297],[-100.49735716999999,20.50483041938035],[-100.50031213999995,20.500220119380447],[-100.49766365999994,20.491373089380637],[-100.49238211999995,20.49041553938071],[-100.49250285999995,20.481411419380887],[-100.49087782999999,20.47544739938106],[-100.48838367999997,20.473312679381117],[-100.48987437999996,20.46154630938143],[-100.48949799999997,20.431394109382147],[-100.48847679999996,20.42583330938227],[-100.47826991999995,20.416286369382508],[-100.47593159999997,20.40331413938288],[-100.47618106,20.38961079938323],[-100.46778457999996,20.386580689383297],[-100.44351108999996,20.38704091938327],[-100.40999517999995,20.376006419383557],[-100.40954334999998,20.370691889383668],[-100.40497130999995,20.36705302938373],[-100.40327325999999,20.36075057938392],[-100.39401648999996,20.35023191938419],[-100.39078748999998,20.33641316938455],[-100.39202296999997,20.314327459385108],[-100.38604965999998,20.30649325938524],[-100.38128856999998,20.303051619385382],[-100.37918594999996,20.301931879385375],[-100.36945951999996,20.30251636938535],[-100.35923697999999,20.293530909385616],[-100.35065647999994,20.288413089385738],[-100.34583310999994,20.298000219385496],[-100.30750577999999,20.2855750793858],[-100.30929561999996,20.2823596793859],[-100.26045664999998,20.267509939386223],[-100.24512633999997,20.25036442938667],[-100.22430009,20.237877139386963],[-100.22162485799998,20.23457831238706],[-100.20715261999999,20.229421519387238],[-100.19645484999995,20.222276939387363],[-100.18453664999998,20.21164933938767],[-100.18388073999995,20.209015399387724],[-100.18114401999998,20.208800539387695],[-100.18419347999998,20.189423079388195],[-100.18534341999998,20.194273369388114],[-100.18841276999996,20.194224939388064],[-100.19186384899996,20.17600007938854],[-100.20333108999995,20.171784909388652],[-100.20377951999997,20.16702028938876],[-100.20956673999996,20.163453769388852],[-100.20943582999996,20.16131081938891],[-100.21332076999995,20.156833689389014],[-100.22192264999997,20.15062742938918],[-100.22749321999999,20.14998879938922],[-100.22939430999998,20.14694548938929],[-100.23560354999996,20.14345857938938],[-100.19739282999996,20.12988845938973],[-100.20154810999999,20.077663509391005],[-100.20294108999997,20.076649369391024],[-100.19747439999999,20.07710834939103],[-100.19321579999996,20.07483044939106],[-100.18929868999999,20.076396859391043],[-100.18790878,20.079895219390938],[-100.18500081999998,20.080284569390958],[-100.18349399999994,20.08273917939087],[-100.17982648999998,20.08300216939088],[-100.1788992,20.081267919390942],[-100.18308722999996,20.073855429391102],[-100.17673559999997,20.0709094793912],[-100.17282104999998,20.07332405939113],[-100.17170319999997,20.078224149390987],[-100.16684099999999,20.074835279391095],[-100.16446219999995,20.078346519390973],[-100.16350527999998,20.076272739391026],[-100.15809931999996,20.07472031939108],[-100.15725954999999,20.071105259391153],[-100.16226213999995,20.0672987493913],[-100.15883550999997,20.065799049391337],[-100.16233511999997,20.06427008939134],[-100.16219444999996,20.06253854939141],[-100.15215602999997,20.05727951939154],[-100.14683070999996,20.05747314939156],[-100.14333307999999,20.05079039939168],[-100.13807879999996,20.04756442939174],[-100.13793736999999,20.04431153939184],[-100.13376311999997,20.04327597939186],[-100.13269539999999,20.040575049391926],[-100.12659759999997,20.03805882939203],[-100.12025204999998,20.038911689392016],[-100.11857561999996,20.03782959939203],[-100.11958902999999,20.03603017939209],[-100.11848216999995,20.033821199392108],[-100.11133048999996,20.033969509392143],[-100.11079061999999,20.031092659392208],[-100.10549622999997,20.0267441993923],[-100.10157282999995,20.02668273939231],[-100.09699734999998,20.02332879939239],[-100.09708625999997,20.027306229392266],[-100.09134324999997,20.02425956939234],[-100.08819808999999,20.016691279392532],[-100.08881793999997,20.015018289392597],[-100.08463915099998,20.022463329392405],[-100.08501834899995,20.024778449392336],[-100.08134076999994,20.02885024939226],[-100.07960696999999,20.030111179392215],[-100.07242219999995,20.029237799392217],[-100.07217744999997,20.03120771939219],[-100.06562642999995,20.031359139392197],[-100.06619719999999,20.036235289392042],[-100.06288627999999,20.036882219392037],[-100.06172581999999,20.03879053939198],[-100.05778744999999,20.03992999939195],[-100.04633986,20.036096049392043],[-100.04379796999996,20.03656621939205],[-100.02761599999997,20.056577079391573],[-100.02031119999998,20.059740659391466],[-100.01406921999997,20.059340219391444],[-100.00563976999996,20.06420050939134],[-100.00035233999996,20.077480399391042],[-99.97846821999997,20.07404544939109],[-99.98019265,20.059147449391496],[-99.96906671999994,20.06186448939143],[-99.96414817999994,20.06043290939144],[-99.96147754999998,20.062289909391414],[-99.95696914999996,20.061003519391434],[-99.92633741999998,20.064330679391368],[-99.92735091999998,20.067065169391267],[-99.92376684999994,20.084134679390836],[-99.93605133999996,20.099060749390464],[-99.93763837999995,20.104556449390362],[-99.93718616999996,20.1133380493901],[-99.94220644999996,20.12010033938992],[-99.93917459999996,20.135292029389596],[-99.93075371999998,20.14313188938938],[-99.93757653999995,20.152973259389146],[-99.93621276999994,20.162523033388887],[-99.92974627999997,20.16170617938892],[-99.92717559999994,20.157141539389016],[-99.92288142999996,20.15661574938905],[-99.92190281999996,20.158739969388975],[-99.92632488,20.159599199388975],[-99.92720551999997,20.16280096938886],[-99.93520621999994,20.165253449388786],[-99.93575337999995,20.169311572388743],[-99.93234519999999,20.174012029388564],[-99.93981437999997,20.176239419388544],[-99.94118309,20.17901519938845],[-99.93713525,20.18173176938841],[-99.94241974999996,20.18172454938842],[-99.94707116999996,20.184508079388337],[-99.94805207999997,20.186833369388275],[-99.94633596999995,20.189242909388245],[-99.95370528999997,20.1927357193881],[-99.95610584999997,20.196841219388034],[-99.96080077999994,20.200111199387926],[-99.96066836999995,20.201680229387875],[-99.96522981899994,20.201157510387937],[-99.96431736999996,20.204640619387856],[-99.96697582999997,20.20795994938773],[-99.96450356899999,20.21629785938755],[-99.96988876899997,20.21844777938751],[-99.96867074899995,20.221456799387408],[-99.97569774899995,20.23232912038716],[-99.97329888899998,20.236858029387026],[-99.97612176999996,20.239675569386932],[-99.97826617999999,20.238903339386955],[-99.98115824999996,20.243943769386824],[-99.97936370999999,20.247454849386756],[-99.98087445999995,20.25307202938662],[-99.98646354999994,20.2570676893865],[-99.98494288999996,20.264800479386345],[-99.98109648999997,20.271493889386143],[-99.97703102999998,20.272375249386112],[-99.97444079999998,20.2695747393862],[-99.97539671999999,20.267441709386276],[-99.97420033999998,20.262803919386375],[-99.95815939999994,20.25176468938667],[-99.95546505999995,20.24299454938687],[-99.95273790999994,20.24043527938692],[-99.95093302,20.215903509387534],[-99.91846454999995,20.211784819387645],[-99.91866267999995,20.216166089387546],[-99.92045996999998,20.217285649387524],[-99.92296695,20.225713089387305],[-99.92238150999998,20.231139479387128],[-99.92839531999995,20.23268656938713],[-99.93408357,20.24977002938668],[-99.92846694999999,20.2502211393867],[-99.93040579999996,20.264876889386308],[-99.92955044999997,20.2684576593862],[-99.92663928999997,20.269433339386186],[-99.92554914999994,20.273051629386117],[-99.92337393699995,20.273572112386105],[-99.92384001999994,20.27576447938607],[-99.92037293999994,20.27800896938596],[-99.91950096999996,20.281665379385895],[-99.91517785999997,20.28551542938578],[-99.91139062999997,20.28559062938581],[-99.87741096999997,20.271395449386162],[-99.85910641999999,20.268470549386254],[-99.82807117899995,20.543007650379376],[-99.82128051899997,20.540611659379415],[-99.80462507899995,20.54475838037935],[-99.79493104899997,20.551103059379187],[-99.78530365999997,20.553414720379106],[-99.77932882,20.559304909378966],[-99.77753713999995,20.558501979379024],[-99.77385001899995,20.56001626037896],[-99.76966036999994,20.557545489379024],[-99.76841899999995,20.55981485937899],[-99.75626537899997,20.561361999378907],[-99.75342544999997,20.56303524937887],[-99.74590333999998,20.559274580379],[-99.73868325999996,20.560520800378946],[-99.73349004999994,20.567671999378796],[-99.73137839999998,20.567940349378784],[-99.72824336999997,20.57510633937857],[-99.71445324999996,20.57690977937854],[-99.71258894,20.57807293937849],[-99.71195207999996,20.58126661937845],[-99.70903882999994,20.580835949378436],[-99.70505305999995,20.57671001937857],[-99.69641294999998,20.574445019378594],[-99.69422834999996,20.576416879378574],[-99.69606961999996,20.5787610793785],[-99.69493705999997,20.581020909378456],[-99.69050310999997,20.58138399937844],[-99.68440039999996,20.579149889378485],[-99.68248717999995,20.58371524937839],[-99.67874077999994,20.58532674937831],[-99.68025285,20.58886630937827],[-99.67413596999995,20.588574319378285],[-99.66935277,20.590824549378198],[-99.66862339999996,20.59359442937813],[-99.66330971999997,20.594081519378097],[-99.65787036999997,20.6017992893779],[-99.64773793999997,20.601464509377923],[-99.64245454999997,20.604340399377882],[-99.63458374999999,20.605654149377855],[-99.63162282999997,20.603086879377884],[-99.62421645999996,20.600622619377923],[-99.62254665999995,20.597652339377994],[-99.62417451,20.593972109378107],[-99.61951128,20.591406949378204],[-99.61643790999996,20.594424979378104],[-99.61291447999997,20.594965109378073],[-99.61248573999997,20.599325659377964],[-99.60944476999998,20.60035857937795],[-99.60741425999998,20.60640001937778],[-99.59843990999998,20.607708229377796],[-99.59274205999998,20.610832289377722],[-99.59379171999996,20.616045429377557],[-99.58970810999995,20.620400139377487],[-99.58767485999994,20.620828689377454],[-99.58167427999996,20.617861879377553],[-99.57894944999998,20.618832249377473],[-99.57864854999998,20.62849542937726],[-99.57530445999998,20.63067565937723],[-99.57346230999997,20.6350131793771],[-99.56818822999999,20.636148689377055],[-99.56534439999996,20.640394149377],[-99.55688216999994,20.643586819376882],[-99.53881271999997,20.64366967937692],[-99.53595710999998,20.650606459376718],[-99.52704128999994,20.656626449376542],[-99.51876954999996,20.65845691937652],[-99.50192266,20.658962219376495],[-99.50127641899998,20.66442173937635],[-99.50429819899996,20.66869742937628],[-99.50093997899995,20.6710101693762],[-99.50064207899999,20.67304250937618],[-99.50384433899997,20.671840979376203],[-99.51103659899998,20.678386709376014],[-99.50493728899994,20.680818419375953],[-99.50623494899999,20.682325199375924],[-99.50554031899998,20.684700519375856],[-99.508887309,20.686206679375847],[-99.509554139,20.689669599375762],[-99.52271604899995,20.701657019375432],[-99.52639044899996,20.702679779375412],[-99.52837785899999,20.70511042937536],[-99.53427484899998,20.705974249375352],[-99.53567293899995,20.711663919375198],[-99.53942710899997,20.71389364937514],[-99.53968747899995,20.7168020493751],[-99.54366676899997,20.718412879375062],[-99.54328533899997,20.721188509374954],[-99.54534224899999,20.723598849374895],[-99.544144799,20.725799739374878],[-99.54742919899996,20.728357019374776],[-99.54847128899996,20.737197749374587],[-99.54277527899997,20.74621451937433],[-99.53935008899998,20.74670437937434],[-99.53752453899996,20.749470599374277],[-99.52867510899995,20.752004049374193],[-99.52553121899996,20.756226349374128],[-99.52173942899998,20.754469999374123],[-99.51837867899998,20.75989608937401],[-99.50973305899998,20.765721109373885],[-99.50381699999997,20.765787319373896],[-99.50645221899998,20.771716979373732],[-99.50239319999997,20.77387436937366],[-99.50116991899995,20.779560659373548],[-99.49705194899997,20.780752719373513],[-99.49630607899996,20.782352599373443],[-99.49741787899997,20.78466539937341],[-99.50218470899995,20.787194799373363],[-99.50376884899998,20.794832939373162],[-99.49725357899996,20.79094462937326],[-99.49153485899996,20.79504179937313],[-99.48870627899998,20.799366659373025],[-99.48926284899994,20.80223594937298],[-99.49762808899999,20.802318279372987],[-99.49972745899998,20.804273369372904],[-99.49413122899995,20.806782279372857],[-99.49319297899996,20.811102979372748],[-99.48528953899995,20.81782754937261],[-99.48469130899997,20.82637247937236],[-99.48873181899995,20.832932889372213],[-99.48257199899996,20.83924874937203],[-99.47921904899994,20.839317769372045],[-99.47556973899998,20.84286716937195],[-99.46925041899999,20.844662719371915],[-99.46548162899995,20.849201859371817],[-99.45918471899995,20.847933549371845],[-99.45653950899998,20.849018799371844],[-99.45560453899998,20.850122779371805],[-99.45701590899995,20.855419519371665],[-99.45443202899997,20.857975579371622],[-99.45210451899999,20.857781829371632],[-99.44824165899996,20.852742089371727],[-99.44606405999997,20.85303105937171],[-99.44545834999997,20.85450049037171],[-99.44858222899997,20.858528819371596],[-99.44299884799995,20.870549230371292],[-99.44068256899999,20.871788179371286],[-99.44018571899994,20.877955519371117],[-99.44200614899995,20.88129454937104],[-99.43760530899999,20.885264259370917],[-99.43500974899996,20.890746969370813],[-99.43522657899997,20.89939699937055],[-99.41255685899995,20.90542893937043],[-99.41267764799994,20.913710539370257],[-99.41507359799999,20.91845150937014],[-99.41340697899994,20.922238890370036],[-99.415585509,20.92490059936997],[-99.40303522999996,20.930198170369813],[-99.40230614899997,20.934194910369758],[-99.40395591999999,20.9358537093697],[-99.40663385999996,20.934105739369738],[-99.40724056999994,20.93710371936964],[-99.39769787999995,20.94314077036952],[-99.39062601999996,20.952274319369305],[-99.39274781899996,20.958273350369147],[-99.39124565999998,20.963512539369024],[-99.38827884999995,20.966198369368918],[-99.39474110899995,20.973076739368793],[-99.39632911899997,20.981086879368608],[-99.39343519899995,20.982702480368545],[-99.39126436899994,20.986676630368418],[-99.39365599899998,20.990355340368357],[-99.39188973999995,20.99747448936819],[-99.38965234899996,21.000376980368088],[-99.38995451999996,21.004138379367998],[-99.38404916999998,21.00741560036794],[-99.38324236899997,21.012231769367794],[-99.38505179899995,21.01547497936771],[-99.38457482899999,21.01808891036768],[-99.37732171899995,21.02097648936762],[-99.37516187999995,21.024329479367534],[-99.36835677899995,21.024765080367523],[-99.36646734899996,21.033825230367277],[-99.36750264999995,21.03748924936722],[-99.36324590999999,21.04172889036709],[-99.36475019999996,21.043779719367034],[-99.36416645899999,21.049155909366892],[-99.367889479,21.049537180366904],[-99.37191228999997,21.05584425936678],[-99.37707901999995,21.05661505036673],[-99.37670770899996,21.05938038036665],[-99.37358430899997,21.062143199366595],[-99.36937381899997,21.06084402036662],[-99.36822631899999,21.061830019366617],[-99.36628193899998,21.066154940366484],[-99.36743745899997,21.069479689366403],[-99.37232168999998,21.073283310366346],[-99.37581482999997,21.07336791036632],[-99.384188549,21.067855340366442],[-99.38767319999994,21.067827229366447],[-99.38959451899996,21.071834579366342],[-99.38802617,21.076455319366225],[-99.38881828899997,21.079267290366197],[-99.39433374999999,21.0793779193662],[-99.39449402899999,21.085250460366034],[-99.39867017899996,21.089007509365935],[-99.39953684899997,21.095248249365785],[-99.39704401999997,21.09835797936573],[-99.39736665899994,21.102003279365654],[-99.39149233999996,21.100996920365645],[-99.38847277999997,21.1041148193656],[-99.38213982999997,21.10130590936565],[-99.37931182999995,21.10177411936566],[-99.37691657,21.098220889365724],[-99.37184421999996,21.10175987936561],[-99.36676276999998,21.101947969365614],[-99.36099414999997,21.10478425936554],[-99.35876282999999,21.099659259365698],[-99.35325985999998,21.10291764936561],[-99.34635965999996,21.10087665936565],[-99.34397501999997,21.1072695993655],[-99.34115724999998,21.110111019365423],[-99.34386937999994,21.114549259365308],[-99.34182842999996,21.123659679365115],[-99.33760877999998,21.126109349365027],[-99.33588401999998,21.130260319364925],[-99.33108791999996,21.13014525936495],[-99.32538691999999,21.134035249364864],[-99.32329365999999,21.13957927936473],[-99.30920564999997,21.147299649364516],[-99.30491776999997,21.14444384936461],[-99.30266436999995,21.139420719364686],[-99.29583882999998,21.141764569364685],[-99.28846919999997,21.13579224936482],[-99.2868716,21.13097707936491],[-99.28324746,21.13180294936491],[-99.28387617,21.12543574936507],[-99.28263457999998,21.122438649365133],[-99.27816065999997,21.12026491936519],[-99.27614951999999,21.123416309365087],[-99.27226744999997,21.121606949365155],[-99.27031157999994,21.11903507936521],[-99.27218839999996,21.11483088936533],[-99.27129204999994,21.113069719365363],[-99.26176819999996,21.109403259365415],[-99.25595508999999,21.104246879365583],[-99.25313990999996,21.10429908936555],[-99.24768131999998,21.101265689365643],[-99.23421610999999,21.11280367936538],[-99.23055531999997,21.10755441936548],[-99.22607004999998,21.10798308936549],[-99.22359461999999,21.10574085936552],[-99.21409648999997,21.106775599365513],[-99.20945934999999,21.11019679936541],[-99.20996594999997,21.115053909365287],[-99.20622539999995,21.118689719365246],[-99.19584136999998,21.12189021936516],[-99.18460090999997,21.122261689365157],[-99.18017630999998,21.12741907936499],[-99.17622088999998,21.137841509364737],[-99.17101617999998,21.137484999364734],[-99.16728570999999,21.1401089393647],[-99.16346464999998,21.1398635693647],[-99.15052197999997,21.147750679364513],[-99.14424824999998,21.145140169364574],[-99.13913213999996,21.150766249364455],[-99.13256488999997,21.153031779364376],[-99.13014673999999,21.152063679364385],[-99.12679491999997,21.146701889364515],[-99.11199790999996,21.148345659364526],[-99.11068828999998,21.149608829364446],[-99.11212465999996,21.15459210936436],[-99.11039739999997,21.156610879364322],[-99.10351253999994,21.15343202936436],[-99.09604064999996,21.154652979364325],[-99.09063111999997,21.153095519364346],[-99.08398917999996,21.159589579364223],[-99.07704848999998,21.15914465936422],[-99.07688833999998,21.162370909364157],[-99.07117977999998,21.166028109364095],[-99.07094354999998,21.167586919364055],[-99.07777079999995,21.170747719363973],[-99.07647930999997,21.173463949363875],[-99.07125521999997,21.17222811936392],[-99.06330621999997,21.17490381936386],[-99.05969011999998,21.168273289364016],[-99.06567045999999,21.165910819364036],[-99.07204856999995,21.159527319364226],[-99.07224661999999,21.1570207393643],[-99.06133168999999,21.154205339364335],[-99.05754613999994,21.159717769364214],[-99.05452962999999,21.159775179364235],[-99.05410831999995,21.165535659364068],[-99.04859043,21.169811549364002],[-99.04666636999998,21.17410847936385],[-99.04793455,21.177928079363795],[-99.04307984999997,21.178677249363783],[-99.05043873999995,21.209856029362978],[-99.05255708999994,21.212807079362936],[-99.05194327999999,21.218448919362807],[-99.05607053999995,21.22235916936271],[-99.06835447999998,21.223918779362684],[-99.07353210899998,21.23042528436247],[-99.07373116999997,21.235776859362367],[-99.07344782999996,21.23881167936227],[-99.06994048999996,21.243058149362177],[-99.05680176999994,21.24697167936211],[-99.05542782999999,21.25048367936202],[-99.05117673999996,21.253429679361947],[-99.05234397999999,21.269990859361553],[-99.05062985999996,21.27470090936141],[-99.05324381999998,21.281631349361263],[-99.05791944999999,21.284697799361194],[-99.06142716999996,21.279473999361308],[-99.07551781999996,21.28884714936107],[-99.07796246,21.292664059360987],[-99.07989041999997,21.293011399361],[-99.07893313999996,21.29521594936093],[-99.08299074999996,21.296346889360905],[-99.09097885999995,21.294739289360944],[-99.09317717,21.29174159936098],[-99.10434534999997,21.289597859361088],[-99.10579007999998,21.302041889360762],[-99.12104396999997,21.30967622936057],[-99.12755888999999,21.318336549360346],[-99.10283959999998,21.31788193936039],[-99.10294884999996,21.3211944293603],[-99.13782957999996,21.32979188936006],[-99.12945551999996,21.362046249359306],[-99.09262075,21.363360479359258],[-99.09788304999995,21.377641909358903],[-99.09283919999996,21.381700449358817],[-99.09813023,21.408412679358168],[-99.10591542999998,21.41156007935812],[-99.10516230999997,21.420480379357908],[-99.12603004999995,21.4605428493569],[-99.12906517,21.47126231935667],[-99.12976877999995,21.50170257935592],[-99.13692034999998,21.514076349355626],[-99.14228219999997,21.535439549355107],[-99.13050710999994,21.578972279354094],[-99.12828730999996,21.581665459354028],[-99.12829737,21.589817049353794],[-99.13041954999994,21.592285449353785],[-99.13060931999996,21.59664957935367],[-99.13509179999994,21.59734324935364],[-99.13872405999996,21.603751049353463],[-99.17189550999996,21.627031479352908],[-99.16888954999997,21.630982119352833],[-99.17323461999996,21.638075179352658],[-99.18166790999999,21.661396979352105],[-99.18810831999998,21.669917089351927]]]}}]}
