{"type":"FeatureCollection","features":[{"type":"Feature","properties":{"cve_ent":"24","cvegeo":"24","nombre_inegi":"San Luis Potosí","nombre_catalogo":"San Luis Potosí"},"geometry":{"type":"Polygon","coordinates":[[[-100.60353333999997,24.40130005928953],[-100.71121008999997,24.491521829287596],[-100.74320082999998,24.45955925928827],[-100.80994754999996,24.38696341928983],[-100.80771464999998,24.387327799289825],[-100.81850801999997,24.377870419290065],[-100.85038307999999,24.343538539290797],[-100.94528597999994,24.28119588929215],[-101.00667462999998,24.335834779290934],[-101.00548197999997,24.339184999290882],[-101.00679004999996,24.340243249290882],[-101.00686474999999,24.345522059290765],[-101.01032721999998,24.34962977929065],[-101.01129742999996,24.35795948929048],[-101.00619430999997,24.358597049290477],[-101.00328204999994,24.36801007929024],[-101.00369933999998,24.36916917929021],[-101.00543461999996,24.368570709290232],[-101.00671761999996,24.37358756929013],[-101.004757,24.377502199290046],[-101.00742944999996,24.37761591929004],[-101.00758448,24.380584519290004],[-101.00638850999997,24.380510289290015],[-101.00986827999998,24.385117369289873],[-101.00739145999995,24.385113749289903],[-101.00849585999998,24.38757419928986],[-101.00143907999995,24.394767649289697],[-101.00294974999998,24.397542629289603],[-101.00002179999996,24.398441539289625],[-100.99966879999995,24.403871179289496],[-100.99768617999996,24.40416816928947],[-100.99766542999998,24.40730385928942],[-100.99463127999996,24.40736834928942],[-100.9930604,24.411349119289344],[-100.98823465,24.409551939289333],[-100.98760950999997,24.41254161928931],[-100.99009996999996,24.417975749289152],[-100.98791817999995,24.41779337928916],[-100.98484085999996,24.427267919289005],[-100.98732704999998,24.43251931928884],[-101.01268867999995,24.39081913928979],[-101.06540151999997,24.20702110929375],[-101.17323215,24.164136619294727],[-101.21674637999996,24.15973190929481],[-101.19250494999996,23.918559139300125],[-101.24813245999998,23.876434119301038],[-101.32699342999996,23.81266856930243],[-101.34099179999998,23.796487349302808],[-101.43711471999995,23.717031079304554],[-101.77512244999998,23.447629349310603],[-102.01194382999996,23.372748549312284],[-102.12253245999995,23.353860089312732],[-102.16879911999997,23.361025649312545],[-102.16861496999998,23.39890751931168],[-102.19134225999996,23.401387919311645],[-102.19616030999998,23.424894019311132],[-102.19361521999997,23.447599109310598],[-102.23815030999998,23.446901429310593],[-102.25361147999996,23.364955889312437],[-102.26826193999995,23.342277889312978],[-102.29603841999995,23.32050128931345],[-102.26457904999997,23.29009291931417],[-102.26953365999998,23.279912879314377],[-102.25780388999999,23.280079049314374],[-102.25639242999995,23.282420379314356],[-102.25469950999998,23.28083373931436],[-102.24985345999995,23.29101767931413],[-102.24675622999996,23.293322539314104],[-102.24106911999996,23.314981619313563],[-102.23159684999997,23.315116349313584],[-102.24467211999998,23.276768749314442],[-102.25279624999997,23.271235199314567],[-102.28582547999997,23.273320139314553],[-102.28936897999995,23.2316909393155],[-102.23945770999995,23.209493289315997],[-102.24097402999996,23.169380429316895],[-102.22992522999999,23.151884309317314],[-102.21415462999995,23.131319859317795],[-102.22373131999996,23.119418179317996],[-102.24153882999998,23.086335459318775],[-102.24973142,23.07545759931904],[-102.26005096999995,23.0459155093197],[-102.23808164999997,23.04764387931968],[-102.22815162999996,22.996523399320836],[-102.19213176999995,22.864902059323878],[-102.17613125999998,22.843023489324366],[-102.12489687999994,22.782952199325756],[-101.93975602999997,22.645725489328928],[-101.85328423,22.656025109328652],[-101.87295770999998,22.563073349330804],[-101.81989151999994,22.551294709331085],[-101.82565548999997,22.534004059331487],[-101.83043790999996,22.512013479332023],[-101.83714104999996,22.49969213933228],[-101.79927570999997,22.470559459332986],[-101.78336073999998,22.465033829333095],[-101.77849501999998,22.484868089332664],[-101.77153528999997,22.48816331933259],[-101.73536074999998,22.480214949332765],[-101.74617507999994,22.508693259332073],[-101.69601848999997,22.520422109331797],[-101.69490199999997,22.517768909331853],[-101.68796904999999,22.51599165933192],[-101.68546694999999,22.51164931933204],[-101.67474957999997,22.506539889332142],[-101.65990645999995,22.50532039933219],[-101.65650773999994,22.510438859332023],[-101.65647741999999,22.513262139331975],[-101.59008314999994,22.589035749330222],[-101.59528731999995,22.624072489329418],[-101.58773231999999,22.626611859329326],[-101.58732499999998,22.621131719329473],[-101.57382101999998,22.612816109329657],[-101.57279717999995,22.630124219329247],[-101.57387968999996,22.6337324193292],[-101.56739799999997,22.65677631932866],[-101.49700359999997,22.701541019327607],[-101.49096453899995,22.74287734932668],[-101.41107707899994,22.747680689326536],[-101.39279816999999,22.7381310793268],[-101.36005761999996,22.714337199327318],[-101.34923391999996,22.71177928932736],[-101.38001824999998,22.67583491932822],[-101.35937608999996,22.653532939328723],[-101.34765993999999,22.656190079328656],[-101.34700924999999,22.65762213932864],[-101.33693696999997,22.658756049328577],[-101.33387373999996,22.642113139329],[-101.32964956999996,22.642480799328975],[-101.33041157999999,22.641529219329],[-101.32548565999998,22.636885419329126],[-101.32578410999999,22.6297500893293],[-101.32210299999998,22.628280659329295],[-101.31444565999999,22.6157428293296],[-101.30570907999999,22.609930309329723],[-101.30362153999994,22.601930349329905],[-101.29795279999998,22.59320593933016],[-101.29885396999998,22.58752607933025],[-101.29681036999996,22.583539049330373],[-101.29358956999994,22.584513979330335],[-101.28751928999998,22.55981131933091],[-101.28908622999995,22.558613539330953],[-101.29460762999999,22.536423229331426],[-101.29632362999996,22.535478199331475],[-101.29455262,22.53130984933158],[-101.29511076999995,22.528450309331618],[-101.28661187999997,22.51495802933195],[-101.28572637999999,22.507855649332132],[-101.31538349,22.46964896933298],[-101.31372633999996,22.453490169333396],[-101.37478574999994,22.45645836933333],[-101.37358844999994,22.43955339933367],[-101.38191054999999,22.357485079335635],[-101.43297234999994,22.363276739335497],[-101.43512541999998,22.341533979336003],[-101.43441031999998,22.33774047933607],[-101.42907771999995,22.332896889336176],[-101.42547748,22.324387859336408],[-101.41843511999997,22.31645253933658],[-101.41973248999996,22.3150418193366],[-101.41057391999999,22.311175019336716],[-101.40841330999996,22.305983649336802],[-101.40551610999997,22.303457749336896],[-101.39920956999998,22.303857479336862],[-101.39143494999996,22.299901879336964],[-101.39890010999996,22.29340019933714],[-101.40075302999998,22.286986279337285],[-101.39815042,22.28142681933738],[-101.40490159999996,22.278683309337495],[-101.40899934999999,22.28043661933743],[-101.41013331999994,22.275080949337564],[-101.41625891999996,22.26734553933775],[-101.38535404999999,22.265093339337813],[-101.38201885999996,22.26101841933786],[-101.37680381999996,22.26165582933786],[-101.37123222999998,22.253564049338035],[-101.36704465999998,22.25310339933807],[-101.36291099999995,22.249492279338128],[-101.36444928999998,22.244415949338297],[-101.36167067999997,22.238483819338413],[-101.35285397999996,22.22920364933863],[-101.33872403,22.22016416933882],[-101.33233951999995,22.21204176933902],[-101.32425314999996,22.20989345933908],[-101.35130593999997,22.17675965933989],[-101.33769285999995,22.143522509340617],[-101.32774497999998,22.144112059340625],[-101.32938230999997,22.1356051793408],[-101.35076347999996,22.087758969341944],[-101.35423973999997,22.071735289342335],[-101.35475102999999,22.068914049342403],[-101.35117648999994,22.06755408934243],[-101.35335910999999,22.055924539342705],[-101.34588527999995,22.053606399342765],[-101.34658727999994,22.04969007934287],[-101.35167041999996,22.051613019342813],[-101.35417596999999,22.044704079342957],[-101.35679094999995,22.043487879343],[-101.36000037999997,22.044758629342965],[-101.36101176999995,22.041001059343053],[-101.37707836999999,22.044962139342978],[-101.3776094,22.042127249343075],[-101.37446371999994,22.041365139343046],[-101.37589797,22.033885289343235],[-101.36857336999998,22.03303101934327],[-101.36973831999995,22.027517249343397],[-101.38069119999994,22.02875933934332],[-101.38275537,22.020737909343538],[-101.36569228999997,22.018548429343614],[-101.36239301999996,22.033508659343248],[-101.35462068999999,22.030413059343324],[-101.35167499999994,22.043789149343024],[-101.33090074999996,22.035315179343215],[-101.33246662,22.024611489343446],[-101.32720847999997,22.021498049343517],[-101.32794248999994,22.01646845934366],[-101.33923530999999,22.0149857093437],[-101.33776502999996,22.025133019343443],[-101.33932908999999,22.02443319934344],[-101.34857244999996,22.02807111934337],[-101.35243928999996,22.013081579343744],[-101.34474261999999,22.0141424293437],[-101.34529847999995,22.005879919343883],[-101.32939744999999,22.00716908934386],[-101.32981487999996,22.004819319343895],[-101.32679624999999,22.005079059343934],[-101.32651029,21.999728049344036],[-101.32769725999998,21.999697859344018],[-101.32748462999996,21.997026449344137],[-101.36054022999997,21.995241119344158],[-101.36218987999996,21.990289779344277],[-101.37084659999994,21.991477939344232],[-101.37336571999998,21.99024934934427],[-101.37659028999997,21.981184219344467],[-101.38443574999998,21.982296399344456],[-101.38391173999997,21.973990719344677],[-101.38808601999995,21.973846909344672],[-101.38862045999998,21.9713599793447],[-101.39370062999996,21.967892139344805],[-101.39715037999997,21.96776207934481],[-101.40516116999999,21.948492119345232],[-101.42917285999995,21.934361139345626],[-101.43038399999996,21.93229854934563],[-101.41199137999996,21.918655939345978],[-101.41267927999998,21.915030849346056],[-101.41022761999994,21.908693539346217],[-101.42734559999997,21.901770709346366],[-101.43459591999999,21.89706505934647],[-101.44011214999995,21.910265279346152],[-101.44180285999994,21.909337829346164],[-101.44639445999996,21.90625567934628],[-101.44067482999998,21.8927162293466],[-101.44595537,21.892051889346604],[-101.44533496999998,21.88997817934667],[-101.45270888999994,21.885086449346787],[-101.46645764999994,21.880224909346868],[-101.46834237999997,21.877117079346966],[-101.46808377999997,21.87026574934711],[-101.48319622999998,21.86768077934718],[-101.48041131999999,21.859258059347386],[-101.48417336999995,21.85814521934739],[-101.48364884999995,21.85645341934744],[-101.48818333999998,21.85342771934753],[-101.48609133999997,21.841886719347784],[-101.50351527999999,21.83012397934807],[-101.49633124999997,21.809939659348558],[-101.47387339999995,21.827391019348138],[-101.46596324999997,21.82705879934812],[-101.4640614,21.820225029348336],[-101.45507233999996,21.82995853934808],[-101.45358588,21.82669177934814],[-101.42266893999994,21.824962939348186],[-101.40700350999998,21.83145517934802],[-101.36527365999997,21.83941671934783],[-101.31948393999994,21.835334449347958],[-101.30587557999996,21.827014509348118],[-101.28968545999999,21.812139779348495],[-101.28728505,21.812077889348522],[-101.28554718,21.817929999348365],[-101.28152657999999,21.82146814934828],[-101.26610842999997,21.821523679348275],[-101.26231021999996,21.823444319348262],[-101.24505443,21.82209181934825],[-101.21715233999998,21.816077029348392],[-101.21979462999997,21.80220037934873],[-101.19016350999999,21.77747804934935],[-101.16126697999994,21.75750591934978],[-101.14321996999998,21.755556619349857],[-101.13613888999998,21.75322590934988],[-101.05924796999996,21.765520739349615],[-101.03798022999997,21.762219419349705],[-101.03449544999997,21.76296817934965],[-101.03149508999998,21.761304799349727],[-101.00517261999995,21.757231139349795],[-101.00611950999996,21.751910289349958],[-101.00230330999995,21.750816939349956],[-101.00002931999995,21.756407229349808],[-100.98197436999999,21.753527349349916],[-100.97113779999997,21.74489539935013],[-100.96555184999994,21.734925569350327],[-100.94350281999999,21.732621629350387],[-100.93805453999995,21.720534549350663],[-100.91257756999994,21.713648739350855],[-100.92127345999995,21.70027356935115],[-100.91302310999998,21.692465149351342],[-100.90839202999996,21.691664979351366],[-100.90718336999998,21.6816367993516],[-100.90237511,21.68201833935163],[-100.87011217999999,21.672493519351832],[-100.86514987999999,21.68707959935149],[-100.85216602999998,21.67335019935184],[-100.83432148999998,21.664558779352024],[-100.85767824999999,21.61898657935314],[-100.81656096999997,21.602653399353525],[-100.80949610999996,21.592049829353776],[-100.80586938,21.593859859353742],[-100.79230836999994,21.594834169353707],[-100.77329499999998,21.58812179935388],[-100.77246761999999,21.595451629353704],[-100.76611482,21.592143799353742],[-100.76655222999995,21.590718979353824],[-100.76176317999995,21.58493521935391],[-100.75519759999997,21.583525969353957],[-100.75045887999995,21.580284059354046],[-100.74604747999997,21.581745149354038],[-100.73903668999999,21.578251619354102],[-100.73434379999999,21.578726539354086],[-100.72908717999996,21.57462237935418],[-100.72755524999998,21.56802625935436],[-100.72087953999994,21.561490579354512],[-100.71763022999995,21.550231509354774],[-100.70996342999996,21.55016817935479],[-100.70524431999996,21.548240479354824],[-100.70259368999997,21.548678769354797],[-100.70071748,21.552548659354738],[-100.69209792,21.54636913935484],[-100.68116791999995,21.547504599354813],[-100.67718413999995,21.54142253935497],[-100.66562016999995,21.535223059355168],[-100.66559956999998,21.52782121935534],[-100.65745607999999,21.524717969355375],[-100.63854156999997,21.528293019355285],[-100.63451810999999,21.537713309355084],[-100.63703519999997,21.541345029354986],[-100.63544731999998,21.543191629354908],[-100.61429930999998,21.533134549355182],[-100.62191021999996,21.518985919355504],[-100.62042984999994,21.510232199355755],[-100.61495499999997,21.505789169355857],[-100.61196133999995,21.509358619355766],[-100.60423074,21.50880307935578],[-100.59138584999995,21.515606019355612],[-100.58198250999999,21.526120279355343],[-100.57734601999994,21.52548931935539],[-100.57096634999999,21.53013984935527],[-100.56726961999999,21.52907256935526],[-100.56460641999996,21.53078902935524],[-100.55944249,21.528515319355296],[-100.55624339999999,21.53068785935525],[-100.54685887999995,21.53220490935523],[-100.53916487999999,21.538522829355045],[-100.53551845,21.53901199935505],[-100.53395001999996,21.542326829354945],[-100.46598901999994,21.542913689354926],[-100.46108027999998,21.545334849354905],[-100.45989348999997,21.549782909354768],[-100.46484596999994,21.553621539354694],[-100.45538121999999,21.556256449354606],[-100.46070197999995,21.571210019354233],[-100.47145311999998,21.587570319353866],[-100.48084285999994,21.590858399353806],[-100.48568519999999,21.59527702935367],[-100.47760045999998,21.60279930935348],[-100.47049036999994,21.606465459353405],[-100.46899662,21.612883149353287],[-100.46258590999999,21.62078739935307],[-100.46229243,21.62332771935304],[-100.46039690999999,21.623990909352983],[-100.45922313999995,21.628619479352892],[-100.46158821999995,21.637579199352686],[-100.45842205999998,21.63909125935262],[-100.45643359999997,21.642310569352578],[-100.45831633999995,21.6440055493525],[-100.45559541999995,21.648302689352406],[-100.45712108,21.649932939352368],[-100.45275150999998,21.655170939352267],[-100.45377711999998,21.655953879352204],[-100.45230142999999,21.661226259352098],[-100.44877891999994,21.662423979352052],[-100.45134937999995,21.666598939351964],[-100.44523159999996,21.67200557935187],[-100.44708704999994,21.67519741935179],[-100.44233241999996,21.67875782935169],[-100.43932193999997,21.676565779351726],[-100.43504424999998,21.682718459351584],[-100.43325784999996,21.67840404935169],[-100.43022367999998,21.678709309351678],[-100.42305127999998,21.67505697935176],[-100.40899030999998,21.677297629351727],[-100.39999345999996,21.674478599351776],[-100.39471367999994,21.678155219351712],[-100.39070477999996,21.67883774935171],[-100.38934884999998,21.681411219351602],[-100.38505621999998,21.679220679351687],[-100.38308967999997,21.679285449351692],[-100.38267605,21.680989859351648],[-100.37553113999996,21.679821089351684],[-100.35136554999997,21.691670849351368],[-100.32207813999997,21.682094169351586],[-100.27213545999996,21.687346979351464],[-100.26877028999998,21.682704769351588],[-100.25404357999999,21.67322328935183],[-100.24631149,21.664932599352014],[-100.22227542999997,21.665651519351993],[-100.20612954999996,21.657533749352176],[-100.19283878,21.64695833935242],[-100.18475956999998,21.65067268935239],[-100.18321402,21.64936248935239],[-100.17963474,21.650790489352378],[-100.16714921999994,21.634118219352764],[-100.17248305999999,21.629330979352897],[-100.17136897999997,21.623412689353028],[-100.1745896,21.61050048935332],[-100.17109824999994,21.604122509353445],[-100.17144304999994,21.60126633935355],[-100.16741088999999,21.601391349353516],[-100.16129350999995,21.60497657935343],[-100.15436637,21.617353539353164],[-100.15017781999995,21.618884479353145],[-100.14719479999997,21.618125309353125],[-100.12497784999994,21.593465539353755],[-100.11245405999995,21.587293309353885],[-100.07584368999994,21.557931679354546],[-100.06227604999998,21.523305479355397],[-100.04410330999997,21.525561379355374],[-100.00112111999994,21.524117599355417],[-99.97361210999998,21.52709464935531],[-99.95682228999999,21.52622707935536],[-99.95631594999999,21.518239079355553],[-99.96511059999995,21.50512137935585],[-99.95065482999996,21.494677369356094],[-99.94570528999999,21.497431689356027],[-99.94794334999995,21.490688149356195],[-99.95934601999996,21.483513739356354],[-99.95147681999998,21.47226839935667],[-99.95321388999997,21.469816879356713],[-99.94998856999996,21.465660089356778],[-99.95064788999997,21.46152593935691],[-99.94745128999995,21.457729579356986],[-99.94925227999995,21.456002219357064],[-99.94673762999997,21.455573509357016],[-99.94759661999997,21.45434568935706],[-99.94233311999996,21.449619819357217],[-99.93896441999999,21.449788949357167],[-99.94316877999995,21.46178376935692],[-99.90517411999997,21.448159149357213],[-99.88599356999998,21.461775659356903],[-99.86377537999994,21.4743102893566],[-99.83492888999996,21.47811594935653],[-99.83918134999999,21.462385629356856],[-99.83719004999996,21.464314939356857],[-99.82529197999997,21.466521629356787],[-99.82229879999996,21.463527599356876],[-99.81707411999999,21.46169081935691],[-99.80792899999994,21.468417769356716],[-99.80570754999998,21.471846259356663],[-99.79177545999994,21.474817889356586],[-99.7875218,21.47902593935647],[-99.79147085999996,21.484432829356372],[-99.79156945999995,21.4901041393562],[-99.78404451999995,21.493803619356125],[-99.77751510999997,21.49471308935611],[-99.77582851999995,21.50011251935599],[-99.77098505999999,21.506842289355834],[-99.76580402999997,21.509275659355783],[-99.76203713999998,21.51329087935566],[-99.75668319999994,21.514166659355652],[-99.75500371,21.520788379355476],[-99.74929225999995,21.523173479355393],[-99.75006411999999,21.526613219355344],[-99.74862070999995,21.526959579355314],[-99.74862665999997,21.52948751935525],[-99.75096373999997,21.529525019355265],[-99.75259513999998,21.5326575393552],[-99.75132293999997,21.533963149355134],[-99.74824939999998,21.531073119355213],[-99.74673513999996,21.531492449355202],[-99.74644456999995,21.536359629355108],[-99.74920464999998,21.537265599355102],[-99.75093951999999,21.53562676935515],[-99.75198250999996,21.538515999355074],[-99.75041136999994,21.53899141935505],[-99.75213582999999,21.539340649355022],[-99.75275479999999,21.543907519354935],[-99.74674319999998,21.57836328935407],[-99.70553365999996,21.5707300593543],[-99.70027547999996,21.5727390193542],[-99.69472844999996,21.572603769354238],[-99.66644584999995,21.56775133935433],[-99.65954196999998,21.56794522935437],[-99.64408494999999,21.54265111935497],[-99.64337931999995,21.53453528935516],[-99.63039282999995,21.519777089355497],[-99.62561030999996,21.51122879935567],[-99.62580077999996,21.50730190935577],[-99.60988957999996,21.493864459356132],[-99.59198307999999,21.486260939356296],[-99.59028444999997,21.477697149356512],[-99.57318471999997,21.466279579356783],[-99.56435311999998,21.453663399357076],[-99.56028745999998,21.453973259357095],[-99.55569773999999,21.449780919357163],[-99.54934519999995,21.447067719357264],[-99.55659642999996,21.436608649357503],[-99.55290039999994,21.42906871935767],[-99.54138016999997,21.429456139357693],[-99.53725608999997,21.43146505935763],[-99.53150136999994,21.428648679357682],[-99.52430042999998,21.428833949357706],[-99.50381399999998,21.41856299935796],[-99.48836330999995,21.421965319357838],[-99.48435362999999,21.432507319357626],[-99.47526036999994,21.434007399357565],[-99.47077188999998,21.436617079357525],[-99.47357264999994,21.4411045793574],[-99.46912919999994,21.44675564935727],[-99.44735127999996,21.443476579357334],[-99.43570814999998,21.449833249357177],[-99.41551961999996,21.42913337935769],[-99.40464616999998,21.428926179357713],[-99.40152214099999,21.43777605735747],[-99.40245890999996,21.4415952893574],[-99.39848682999997,21.44275091935735],[-99.39690265999997,21.445093319357326],[-99.39810801999995,21.448865579357236],[-99.39559542999996,21.45421105935706],[-99.39855962999998,21.463425739356857],[-99.39539579999997,21.46499244935684],[-99.39089413999994,21.46371965935684],[-99.38887602999995,21.464897309356793],[-99.38838288999995,21.46956231935669],[-99.38229862999998,21.481214629356458],[-99.38470824999996,21.4904751193562],[-99.38727273999996,21.494056909356107],[-99.38670816999996,21.500372939355966],[-99.38359436999998,21.498729519356008],[-99.37885699999998,21.50045939935598],[-99.37437722999995,21.503298819355905],[-99.37197621799999,21.507104089355803],[-99.37290494999996,21.513939539355608],[-99.37010633999995,21.52214028935543],[-99.37866084999996,21.529634969355286],[-99.37636282999995,21.53446614935517],[-99.37590684999999,21.54793057935485],[-99.36369165999997,21.553288659354717],[-99.34986090999996,21.55235737935471],[-99.34085747999997,21.547207599354824],[-99.33313422999998,21.537875029355085],[-99.32728677999995,21.53517113935513],[-99.32006351999996,21.53349907935519],[-99.31464973999994,21.534809229355155],[-99.30788481999997,21.532048709355188],[-99.30548864999997,21.532914289355197],[-99.29843163,21.54038753935499],[-99.29687706,21.54461894935488],[-99.28929710999995,21.55036187935474],[-99.29138314999996,21.555599449354638],[-99.29069513999997,21.55800957935456],[-99.27932145999995,21.560144509354526],[-99.27440190999994,21.565323259354432],[-99.27402577999999,21.567797419354324],[-99.28165804999999,21.584956889353947],[-99.28239617999998,21.593223919353754],[-99.28071704999996,21.607903369353362],[-99.27393279999995,21.606209219353417],[-99.26405224999998,21.610907849353318],[-99.25981362999994,21.611739259353275],[-99.25533005999995,21.60991353935332],[-99.24349644999995,21.61505716935323],[-99.24064042999998,21.62379013935298],[-99.23188087999996,21.63134631935281],[-99.22671046,21.631757509352813],[-99.22512459999996,21.633286199352778],[-99.22543950999994,21.640265429352617],[-99.22249216999997,21.643316919352557],[-99.22265376999998,21.646887569352455],[-99.21673101999994,21.65336625935229],[-99.21769754999997,21.666646479351986],[-99.21079587999998,21.667542979351968],[-99.19829454999996,21.665013289352018],[-99.18817506,21.67000542935191],[-99.18166790999999,21.661396979352105],[-99.17323461999996,21.638075179352658],[-99.16888954999997,21.630982119352833],[-99.17189550999996,21.627031479352908],[-99.13872405999996,21.603751049353463],[-99.13509179999994,21.59734324935364],[-99.13060931999996,21.59664957935367],[-99.13041954999994,21.592285449353785],[-99.12829737,21.589817049353794],[-99.12828730999996,21.581665459354028],[-99.13050710999994,21.578972279354094],[-99.14228219999997,21.535439549355107],[-99.13692034999998,21.514076349355626],[-99.12976877999995,21.50170257935592],[-99.12906517,21.47126231935667],[-99.12603004999995,21.4605428493569],[-99.10516230999997,21.420480379357908],[-99.10591542999998,21.41156007935812],[-99.09813023,21.408412679358168],[-99.09283919999996,21.381700449358817],[-99.09788304999995,21.377641909358903],[-99.09262075,21.363360479359258],[-99.12945551999996,21.362046249359306],[-99.13782957999996,21.32979188936006],[-99.10294884999996,21.3211944293603],[-99.10283959999998,21.31788193936039],[-99.12755888999999,21.318336549360346],[-99.12104396999997,21.30967622936057],[-99.10579007999998,21.302041889360762],[-99.10434534999997,21.289597859361088],[-99.09317717,21.29174159936098],[-99.09097885999995,21.294739289360944],[-99.08299074999996,21.296346889360905],[-99.07893313999996,21.29521594936093],[-99.07989041999997,21.293011399361],[-99.07796246,21.292664059360987],[-99.07551781999996,21.28884714936107],[-99.06142716999996,21.279473999361308],[-99.05791944999999,21.284697799361194],[-99.05552941999997,21.282541829361246],[-99.04652513999997,21.282129229361257],[-99.04695762999995,21.279842319361308],[-99.04345337999996,21.279433019361317],[-99.03933031999998,21.284213429361166],[-99.03713265999995,21.28257081936123],[-99.03192157999996,21.285959909361132],[-99.03024491999997,21.2839203793612],[-99.02602189,21.287226199361154],[-99.02334197,21.287158969361137],[-99.02054048999997,21.291236619361037],[-99.01541256999997,21.292606219360987],[-99.01278450999996,21.29537090936091],[-99.00227936999994,21.297957689360842],[-98.99574077999995,21.297737089360872],[-98.99296245999996,21.29947905936083],[-98.98942511999996,21.297496569360906],[-98.98188427999997,21.298427369360873],[-98.97785545999994,21.29641801936088],[-98.97504330999999,21.297003599360878],[-98.97483776999998,21.303084849360747],[-98.97003533999998,21.30438685936067],[-98.96973267999994,21.305975199360653],[-98.96485204999999,21.306915849360646],[-98.96249808999994,21.302459479360735],[-98.95966667999994,21.30344070936075],[-98.95651354999995,21.30180404936077],[-98.95461758,21.30668561936066],[-98.95259662999997,21.30681887936064],[-98.95316807999995,21.30877299936058],[-98.94496074999996,21.31133657936053],[-98.94028330999998,21.29460245936097],[-98.93258013999997,21.29829488936083],[-98.92927699999997,21.29272944936096],[-98.92648390999994,21.278667319361347],[-98.92794079999999,21.26874195036156],[-98.92133778,21.263216019361728],[-98.92215653999996,21.25868907936183],[-98.91772881999998,21.255501079361885],[-98.91798686,21.251552429361997],[-98.92287341999997,21.24673108936208],[-98.91781810999998,21.239754549362278],[-98.91337051999996,21.23992160036227],[-98.90995141999997,21.24193587936219],[-98.90280778,21.238397459362293],[-98.90065561999997,21.240329420362283],[-98.89989070999997,21.238561459362284],[-98.89924417999998,21.236047910362377],[-98.90155131999995,21.235505619362343],[-98.89860667999994,21.23296307936243],[-98.89888821999995,21.231270140362472],[-98.90781187999994,21.232793170362406],[-98.91476449,21.227262089362597],[-98.91508090999997,21.225193770362598],[-98.90637410999994,21.223136030362653],[-98.90363876999999,21.21265713936291],[-98.89513519999997,21.21037880036298],[-98.89542350999994,21.203895939363147],[-98.88512588999998,21.196339859363306],[-98.88565259999996,21.195122910363356],[-98.88289676999995,21.192612599363436],[-98.88265881999996,21.17961087936372],[-98.87469731,21.180896619363715],[-98.86375309,21.188369379363515],[-98.85739979999995,21.189264220363476],[-98.85457570999995,21.18729082936355],[-98.85644097999995,21.184125719363628],[-98.85559887999996,21.18009615036372],[-98.85094465699996,21.17586498336382],[-98.84794905999996,21.17471024936384],[-98.84706725999996,21.176619660363837],[-98.84292519999997,21.170223119363985],[-98.83552617999999,21.16967521936397],[-98.83254848999997,21.167075509364064],[-98.82880214999996,21.166348180364054],[-98.82793993999998,21.162943489364118],[-98.82118807999996,21.16040014936419],[-98.79907511999994,21.164846459364085],[-98.79703905999999,21.16422730936411],[-98.79609016999996,21.160710479364177],[-98.79395335,21.16018362936421],[-98.78879542999994,21.16638557936406],[-98.79068833999997,21.171280799363927],[-98.79010761999997,21.178994659363756],[-98.79260610999997,21.179768709363756],[-98.79859422999999,21.17807978036378],[-98.80808437999998,21.189562999363513],[-98.80814319999998,21.19324490936339],[-98.79735714999998,21.19132031936345],[-98.79921559999998,21.184893969363632],[-98.79797068,21.18334341936362],[-98.79084916999996,21.188043449363537],[-98.78080933999996,21.185981819363583],[-98.77919794999998,21.18239852036366],[-98.77657710999995,21.18200948936366],[-98.77535884999998,21.17507240036382],[-98.77633513999996,21.173641649363866],[-98.77292137999997,21.171968770363893],[-98.76586624999999,21.17581196936382],[-98.76408025999996,21.179570680363707],[-98.76417493999998,21.181642149363697],[-98.76730345999994,21.184416659363627],[-98.75513779999994,21.186672549363536],[-98.74652870999996,21.184328290363606],[-98.74054111,21.189406849363518],[-98.74161825999994,21.192760489363433],[-98.73701952,21.188217109363514],[-98.73551174999994,21.18233521936365],[-98.72766076999994,21.179549420363735],[-98.72652961999997,21.181281479363694],[-98.72833651999998,21.184342819363604],[-98.72383487999998,21.183049569363643],[-98.72033850999998,21.187130999363514],[-98.71890810999997,21.186361849363546],[-98.71952329,21.184158849363644],[-98.71644014999998,21.185986380363598],[-98.71471841999994,21.18343996936364],[-98.71249662999998,21.185902419363583],[-98.70523313999996,21.187196829363558],[-98.70212076999996,21.18511827936358],[-98.70117456999999,21.18296687936364],[-98.70274298,21.181529939363713],[-98.69937296999996,21.17622851936382],[-98.70365511999996,21.168481449364016],[-98.70182008999996,21.160771139364208],[-98.69664050999995,21.16146012036419],[-98.69123773999996,21.166728519364046],[-98.69464839999995,21.182196769363696],[-98.69147025999996,21.18465488036358],[-98.69169933999996,21.1880284893635],[-98.68515276999995,21.190197139363484],[-98.68659833999999,21.194900850363368],[-98.68345164999995,21.197656919363283],[-98.68266005999999,21.2006378593632],[-98.68038984999998,21.198480229363252],[-98.67691774999999,21.199367659363272],[-98.67306432,21.19456134936339],[-98.66893113999998,21.194859709363364],[-98.66935088999999,21.19324494936342],[-98.66378250999998,21.18405057936365],[-98.65829707999995,21.182805920363673],[-98.65852469,21.18610521936359],[-98.65069558,21.180936479363726],[-98.65062533999998,21.183517949363655],[-98.64035457999995,21.18274244936364],[-98.63861462999995,21.1849614293636],[-98.61797654999998,21.194284879363387],[-98.60874204999999,21.201408289363236],[-98.60522611,21.215213349362877],[-98.60654473999995,21.21632368936281],[-98.60359211999997,21.21837633936283],[-98.60468066,21.22030471936276],[-98.60389997999994,21.22533736936261],[-98.60105354999996,21.232763369362438],[-98.60233514999999,21.24287647936221],[-98.59944870999999,21.247731059362064],[-98.60420229,21.24945822936206],[-98.60685351999996,21.24877567936205],[-98.60892490999998,21.252703999361955],[-98.60767479999998,21.256547739361842],[-98.60002153999996,21.261053659361778],[-98.60244854999998,21.262349599361727],[-98.60227397999995,21.26588648936166],[-98.60499568999995,21.268482169361555],[-98.60305362999999,21.270310749361556],[-98.60418237999995,21.272342349361463],[-98.60109909,21.274806139361438],[-98.60393956999997,21.276449349361396],[-98.60258027999998,21.279367859361297],[-98.59872636999997,21.27957627936133],[-98.59747867999995,21.282711119361228],[-98.59574456999998,21.282120829361247],[-98.59548113999996,21.284574879361173],[-98.60164857999996,21.286603079361164],[-98.59913145999997,21.29205041936102],[-98.60391262999997,21.297990849360886],[-98.60467325999998,21.30184202936076],[-98.60949273999995,21.299270549360852],[-98.61253133999999,21.29981268936083],[-98.61575382999996,21.304729109360686],[-98.61892090999999,21.304962519360707],[-98.62018256999994,21.307142289360655],[-98.62494693999997,21.308164049360638],[-98.62446554999997,21.30972884936058],[-98.63195919999998,21.313104319360477],[-98.64886570999994,21.31292219936051],[-98.66027150999997,21.32086819936032],[-98.67090827999999,21.324858779360223],[-98.67695004999996,21.336551249359957],[-98.68358273999996,21.34196393935978],[-98.68108336999997,21.34617848935971],[-98.67509128999995,21.349842939359583],[-98.67182731999999,21.34827785935964],[-98.65275014999999,21.346844179359692],[-98.65190334999994,21.352789109359538],[-98.64960082,21.35263961935954],[-98.64968796999995,21.354827489359483],[-98.64515976999998,21.35806168935941],[-98.64634808999995,21.35866168935942],[-98.64404664999996,21.36653945935922],[-98.64037401999997,21.365954479359193],[-98.6383378,21.367706059359165],[-98.63777877999996,21.36438805935927],[-98.63513230999996,21.36353056935924],[-98.63152665999996,21.365590169359248],[-98.62857602999999,21.36476439935926],[-98.62715564999996,21.359814739359347],[-98.62349639999998,21.36471844935925],[-98.61915785999999,21.362515859359274],[-98.62034724999995,21.361246549359315],[-98.61901314999994,21.358857029359353],[-98.61423281999998,21.361968879359317],[-98.61200590999995,21.35923794935935],[-98.60802821999994,21.35952937935935],[-98.60698054999996,21.358126419359433],[-98.60352242,21.359250059359347],[-98.60244177999999,21.357868649359418],[-98.59989701999996,21.36005990935939],[-98.59923694999998,21.358425369359423],[-98.59693527999998,21.35907351935937],[-98.59609081999997,21.36419088935924],[-98.59097001999999,21.366595939359172],[-98.59005171999996,21.372761719359026],[-98.58612286,21.371687489359076],[-98.58348625999997,21.37283368935905],[-98.58289257999996,21.370132169359106],[-98.58126247999996,21.369686549359105],[-98.58075013999996,21.374076909359],[-98.57897482,21.37313653935907],[-98.57601144999995,21.374633689359005],[-98.56771574,21.37077353935912],[-98.56645341999996,21.373709149359],[-98.56426971999997,21.372033219359068],[-98.56415262999997,21.374840539358985],[-98.56154004999996,21.37744496935894],[-98.55888337,21.377430139358946],[-98.55698650999996,21.37960130935889],[-98.55202727999996,21.379461119358872],[-98.54956647999995,21.38459842935876],[-98.54703237999996,21.383468779358772],[-98.54614790999995,21.380608229358874],[-98.54458267999998,21.38093993935888],[-98.54500544999998,21.38428711935879],[-98.54130022999999,21.38395799935879],[-98.53908394999998,21.383380479358767],[-98.53929344999995,21.379083519358897],[-98.53603245999994,21.380372939358843],[-98.53452677999996,21.37984790935885],[-98.53525507999996,21.37873964935891],[-98.53197136999995,21.378531969358896],[-98.53105016999996,21.377639139358923],[-98.53385447999996,21.376510649358966],[-98.53254474999994,21.37579337935899],[-98.53360765999997,21.374460519359026],[-98.53087388999995,21.372517709359077],[-98.53145210999998,21.371166999359104],[-98.52980051999998,21.371121689359082],[-98.53020639999994,21.369532169359154],[-98.52821719999997,21.369730059359117],[-98.52957830999999,21.367762259359175],[-98.52742421999994,21.36780185935917],[-98.52754910999994,21.366549319359194],[-98.52518108999999,21.366027379359213],[-98.52052001999999,21.36862857935916],[-98.52041461999995,21.364651449359247],[-98.51744450999996,21.36186470935934],[-98.51538477999998,21.3616856493593],[-98.51484609,21.365216199359264],[-98.51142579999998,21.362513139359272],[-98.50685602999994,21.36610344935919],[-98.50737904999994,21.36997097935912],[-98.50907001999997,21.37065074935909],[-98.51159157999996,21.368974259359163],[-98.51575184999996,21.37228964935904],[-98.51313073999997,21.374452849359024],[-98.51293134999997,21.377067889358923],[-98.50868261999995,21.378392919358923],[-98.50495425999998,21.381996999358837],[-98.50708164999998,21.38616102935871],[-98.50335242999996,21.39145187935857],[-98.50589174,21.39511473935851],[-98.50654985999996,21.391951779358585],[-98.50792359999998,21.391934879358605],[-98.50907281999997,21.39451891935853],[-98.50763244999996,21.3959613693585],[-98.50967589,21.395683289358463],[-98.51053710999997,21.401955479358318],[-98.51507202,21.40008511935837],[-98.51893697999998,21.40109685935837],[-98.51817951999999,21.40394402935829],[-98.52163644999996,21.404748539358298],[-98.52079790999994,21.415890739358023],[-98.51929777999999,21.415502079358035],[-98.51999870999998,21.422406979357856],[-98.52289027999997,21.424950599357786],[-98.52129367999999,21.429046249357693],[-98.52238802999995,21.436971719357473],[-98.52464144999999,21.44016393935742],[-98.52074813999997,21.443501679357347],[-98.51989877999996,21.446506919357265],[-98.52133097999997,21.44827230935723],[-98.51993315,21.449584519357177],[-98.52182499999998,21.450551339357176],[-98.51943276999998,21.45561384935708],[-98.52054019999999,21.457522429357006],[-98.51816902999998,21.459813119356934],[-98.51709877999997,21.457428949357023],[-98.51691305999998,21.4607017093569],[-98.52664325999996,21.478180969356494],[-98.53340504999994,21.486759769356304],[-98.53559959999995,21.492464879356174],[-98.53225585999996,21.50113951935594],[-98.54058182999995,21.50762544935578],[-98.54302805999998,21.513830999355633],[-98.55380368,21.516135779355615],[-98.55745199999996,21.52197827935544],[-98.56258964999996,21.522129949355474],[-98.56505071999999,21.520086079355497],[-98.57606997999996,21.52570813935537],[-98.57589893999995,21.52715628935532],[-98.57963442999994,21.52716221935532],[-98.58507488999999,21.53577187935509],[-98.58752990999994,21.533577939355165],[-98.59184439999996,21.5372393093551],[-98.59847462999996,21.53792199935505],[-98.60224741999997,21.540430819355],[-98.60060517999995,21.541160149354987],[-98.60253101999996,21.54435676935489],[-98.59881642999996,21.550428659354747],[-98.60048087999996,21.55193753935471],[-98.60025942999994,21.55467007935467],[-98.60278933999997,21.555409399354623],[-98.60500536999996,21.55354816935469],[-98.60778087999995,21.555787849354637],[-98.60348696999995,21.56199847935449],[-98.60612687999999,21.561671429354497],[-98.60829565999995,21.564386939354456],[-98.60540011999996,21.56691319935436],[-98.60803725999995,21.567652689354343],[-98.60972609,21.575080369354136],[-98.61339742999996,21.575227169354182],[-98.61340954999997,21.57985782935405],[-98.61816136999994,21.57883088935409],[-98.62027314999995,21.583397919353956],[-98.62574665999995,21.585456049353937],[-98.62566973999999,21.586892969353897],[-98.62050601999994,21.588241449353863],[-98.62198753999996,21.591164629353774],[-98.62565211999998,21.592595619353748],[-98.61935408999994,21.6024613993535],[-98.61922616999999,21.615145949353217],[-98.62112699999996,21.6278221493529],[-98.62805071999998,21.630477399352866],[-98.63535591999994,21.62629617935296],[-98.64222256999994,21.62881787935288],[-98.64363068999995,21.631681709352826],[-98.63785313999995,21.634687089352752],[-98.63374354999996,21.642589399352573],[-98.63322174999996,21.653888169352314],[-98.62998562999996,21.654812169352272],[-98.62056161999999,21.653073279352306],[-98.61730807999999,21.655811509352212],[-98.61390074999997,21.663578459352046],[-98.60947047999997,21.66722908935195],[-98.61140270999994,21.67186747935185],[-98.62152513999996,21.671469219351874],[-98.62496181999997,21.673065349351837],[-98.62544002999995,21.67732988935174],[-98.62199696999996,21.68238256935162],[-98.61614257999997,21.683756999351587],[-98.61064230999995,21.677534749351725],[-98.59778753999996,21.668879879351948],[-98.58952257999994,21.66912759935189],[-98.57920062999995,21.671947779351832],[-98.57330277999995,21.67649719935172],[-98.56932679999996,21.68254382935159],[-98.56553436999997,21.68378339935155],[-98.56173767999996,21.68291945935159],[-98.55825547999996,21.68767185935145],[-98.55883767999997,21.703538969351104],[-98.56240556999995,21.706542689351018],[-98.57026274999998,21.70701054935103],[-98.57221233999998,21.709159549350947],[-98.57161182999994,21.71308417935088],[-98.56743470999999,21.71736773935075],[-98.55948524999997,21.717352059350755],[-98.55127936999999,21.71958481935068],[-98.54757610999997,21.72373681935062],[-98.54384056999999,21.72339387935062],[-98.54202787999998,21.716936819350778],[-98.53676908999996,21.711581289350875],[-98.53290542999997,21.69758739935121],[-98.53074156999998,21.69727453935122],[-98.52372074999994,21.70327711935109],[-98.52053168999998,21.710231459350933],[-98.52239005999996,21.71311236935085],[-98.52711234999998,21.715275479350826],[-98.53363184999995,21.713271679350864],[-98.53679579999995,21.713890479350823],[-98.53837564999999,21.71816467935073],[-98.53741050999999,21.7206242493507],[-98.52945917999995,21.72212813935064],[-98.52469365999997,21.72060850935067],[-98.52085082999999,21.715964289350794],[-98.51667419999995,21.716850509350746],[-98.51276170999995,21.72078051935069],[-98.51372576999997,21.72417944935062],[-98.51266491999996,21.726601739350524],[-98.50705809,21.728724019350512],[-98.50134777999995,21.726375649350516],[-98.49894621999994,21.727242779350515],[-98.49948747999997,21.732079919350404],[-98.50552654999996,21.734031139350385],[-98.50421891999997,21.738048089350283],[-98.50005014999994,21.73929005935023],[-98.49570642999998,21.73552039935032],[-98.49148522999997,21.735061059350357],[-98.48201182999998,21.74002776935021],[-98.47692417999997,21.745219259350105],[-98.47639590999997,21.749196229349998],[-98.48271913999999,21.749842889349967],[-98.48372550999994,21.752170679349945],[-98.47939213999996,21.760859829349744],[-98.47022577999996,21.763571539349645],[-98.46759694999999,21.77069813934947],[-98.46403125999997,21.769555429349484],[-98.45944730999999,21.762311339349687],[-98.45470010999998,21.7664266893496],[-98.46233576999998,21.77841436934932],[-98.46236525999997,21.791276399349012],[-98.47552282999999,21.801922049348732],[-98.47649013999995,21.80598145934865],[-98.47503828999999,21.814192049348428],[-98.48189677,21.81500639934845],[-98.48993690999998,21.81139107934854],[-98.49311891999997,21.813940319348436],[-98.49297150999996,21.82238776934824],[-98.49092774999998,21.827741859348137],[-98.48591279999994,21.833556179348005],[-98.48632044999994,21.83626850934791],[-98.48945747999994,21.837996749347884],[-98.49505431999995,21.838167259347863],[-98.50934213999996,21.824448059348228],[-98.51448114,21.823893429348225],[-98.51794635,21.829702179348054],[-98.52175487999995,21.84549524934771],[-98.52885837999997,21.86317511934729],[-98.53097594999998,21.863952059347238],[-98.54561233999999,21.858590939347405],[-98.54803353999996,21.86010508934735],[-98.54044110999997,21.873484429347062],[-98.54028882999995,21.876625829346935],[-98.54528396999996,21.888035749346667],[-98.54205001999998,21.89422179934652],[-98.53823097999998,21.8970936793465],[-98.53820297,21.905808219346262],[-98.53467837999995,21.906435139346247],[-98.52020094999995,21.896986339346498],[-98.51391267999999,21.90163402934634],[-98.51079750999997,21.908697049346205],[-98.51192768999994,21.914599509346086],[-98.51489011999998,21.91763570934601],[-98.52492296999998,21.914550509346036],[-98.53493742999997,21.91908767934598],[-98.54587423,21.917347939346016],[-98.54384704999995,21.93211745934562],[-98.53751170999999,21.934580089345594],[-98.53107684999998,21.934427819345593],[-98.51347979999997,21.92958939934571],[-98.50045224999998,21.92314851934585],[-98.49881957999997,21.927433819345737],[-98.50314565999997,21.936626419345526],[-98.51094473999997,21.947911679345278],[-98.51559733999994,21.951267829345205],[-98.53157634999997,21.949915739345226],[-98.53911187999995,21.939101139345475],[-98.55128071999997,21.93373842934561],[-98.56601984999998,21.93764441934549],[-98.57355928999999,21.94304133934537],[-98.57647136999998,21.947386109345267],[-98.57932025999997,21.961434519344976],[-98.57883911,21.966092249344825],[-98.57485117999994,21.969141249344766],[-98.56449727999996,21.9682426793448],[-98.55066501999994,21.96075005934498],[-98.52664374999995,21.978170459344568],[-98.52200036999994,21.97943067934453],[-98.50464953999995,21.966637539344806],[-98.49320336999995,21.960411599344965],[-98.47764508999997,21.960303349344986],[-98.46880576999997,21.964601319344872],[-98.46808982999994,21.96548131934484],[-98.48199396999996,21.982998819344417],[-98.47989061999999,21.988983199344304],[-98.48147636999995,21.99051402934426],[-98.47628607999997,21.999573059344048],[-98.47607381999995,21.9938901993442],[-98.47233386,21.98797390934432],[-98.46997213999998,21.990397449344265],[-98.46357608999995,21.99098713934428],[-98.46242939999998,21.996175779344117],[-98.45954447999998,21.995169059344125],[-98.46019148999994,22.001136459344004],[-98.45840787999998,22.004983549343944],[-98.45946388999994,22.005398249343898],[-98.44819293999997,22.021170199343523],[-98.44825553999999,22.02732424934339],[-98.44354897999996,22.032981749343243],[-98.44321784999995,22.037128259343135],[-98.44641430999997,22.04221533934302],[-98.44288539999997,22.04936764934284],[-98.43464921999998,22.051669019342842],[-98.43437524999996,22.056939119342672],[-98.44186616999998,22.064874139342482],[-98.44002233999998,22.068467539342393],[-98.43945211999996,22.075647089342272],[-98.43650331999999,22.078095339342195],[-98.43084319999997,22.079341599342186],[-98.43335125,22.085657739342007],[-98.43238674999998,22.089669999341925],[-98.42612884999994,22.092537479341832],[-98.42289988999994,22.096849229341725],[-98.41882505999996,22.09801921934169],[-98.41952593999999,22.10086164934167],[-98.42762656999997,22.10878176934148],[-98.43025696999996,22.10846377934144],[-98.43237194999996,22.110535889341428],[-98.43873705999994,22.111914939341414],[-98.43824845999997,22.11475485934133],[-98.43225790999998,22.11781462934125],[-98.43201671999998,22.128265379341016],[-98.42876908999995,22.13034097934094],[-98.42607127999997,22.130104309340943],[-98.42630576999994,22.133148369340915],[-98.42331567999997,22.132446689340906],[-98.42063941999999,22.138313179340788],[-98.41674579999996,22.141203259340696],[-98.41108444999998,22.143381969340673],[-98.35528007999994,22.180288449339766],[-98.34440131999997,22.186474169339636],[-98.33654501999997,22.187693249339603],[-98.33482941999996,22.19024059933953],[-98.33432711999997,22.19710871933941],[-98.33041317999994,22.20134444933931],[-98.33475836999997,22.202479369339244],[-98.33522001999997,22.210011749339067],[-98.34495894999998,22.213961649338977],[-98.34306156999997,22.215893249338965],[-98.35211617999995,22.220726579338844],[-98.35226121999995,22.22279877933879],[-98.34461513999999,22.222088739338805],[-98.32596704999999,22.243052799338297],[-98.35194673999996,22.238582849338417],[-98.35241484999996,22.241157649338348],[-98.36322776999998,22.23889930933837],[-98.36425917999998,22.237286309338458],[-98.36962757999999,22.238097479338457],[-98.36950344999998,22.23606113933848],[-98.37455584999998,22.23607939933846],[-98.36722604999994,22.2513237493381],[-98.36813667999998,22.25537310933802],[-98.37543239999997,22.253966889338074],[-98.37633643,22.250829079338143],[-98.37826028999996,22.253430349338036],[-98.38183291999997,22.253334779338058],[-98.38254701999995,22.25588213933799],[-98.40509330999998,22.256076289338015],[-98.40419465999997,22.259165799337936],[-98.40569181999996,22.262605079337867],[-98.40320813999996,22.266384829337746],[-98.40577396999998,22.267176289337748],[-98.40641877999997,22.2693509793377],[-98.40176304999994,22.269675429337696],[-98.40093851999997,22.272474509337613],[-98.39637810999994,22.276261909337542],[-98.40198990999995,22.277933109337482],[-98.40317367999997,22.282218509337397],[-98.40755788999996,22.284209519337335],[-98.42475559999997,22.274267749337554],[-98.43037151999994,22.274602919337575],[-98.43383854999996,22.278244149337468],[-98.43296339999995,22.279968489337428],[-98.42908902,22.280507779337416],[-98.42770022999999,22.283455229337378],[-98.43275241999999,22.28918937933721],[-98.43855422999997,22.292628799337137],[-98.44665902999998,22.30562127933681],[-98.45452001999996,22.303920259336863],[-98.45755870999996,22.30132441933696],[-98.46148545999995,22.30488605933686],[-98.46451662999999,22.303465739336865],[-98.46590461999996,22.299977279336982],[-98.46437574999999,22.296688939337024],[-98.47590837999996,22.288639799337236],[-98.47783053999996,22.296213909337066],[-98.48194008999998,22.296728509337033],[-98.48199399999999,22.29943762933698],[-98.48689205999996,22.298920289337012],[-98.48795245999997,22.303505519336877],[-98.49183656999998,22.303587379336896],[-98.4922438,22.304861089336843],[-98.49599134999995,22.303681679336908],[-98.49681562999996,22.307697479336795],[-98.49851317999997,22.306761999336803],[-98.50378368999998,22.309701379336715],[-98.50572582999997,22.30900571933678],[-98.50612007999997,22.315974399336618],[-98.51573511999999,22.31915521933649],[-98.52555101999997,22.3188348493365],[-98.52555068999999,22.32798508933628],[-98.53529604999994,22.32799751933631],[-98.53521451999995,22.337878309336087],[-98.55482536999995,22.338010569336074],[-98.55478617999995,22.342556259335954],[-98.56451913999997,22.342572429336],[-98.56446464999999,22.34750716933583],[-98.57307922999998,22.3464406193359],[-98.57452101999996,22.348618749335852],[-98.57929064999996,22.348628109335834],[-98.58058308999995,22.351521799335767],[-98.57897370999996,22.353348169335728],[-98.58103044999996,22.35459551933567],[-98.58049624999995,22.357192429335633],[-98.58230641999995,22.360103179335578],[-98.57883390999996,22.36593688933543],[-98.57931581999999,22.377756939335136],[-98.58285565999995,22.373052539335266],[-98.67614941999994,22.373196629335254],[-98.6815466,22.37157485933531],[-98.67083333999994,22.40535725933452],[-98.67389397999995,22.405875199334464],[-98.67666157999999,22.408932849334413],[-98.67956423,22.40568636933451],[-98.68731924999997,22.405107949334507],[-98.69033621999995,22.402738339334565],[-98.69386871999995,22.404237599334518],[-98.69685004999997,22.401773599334604],[-98.70081990999995,22.402572689334573],[-98.70186573999996,22.4001930293346],[-98.70472108999996,22.4002106593346],[-98.70815381999995,22.397252829334708],[-98.71358356999997,22.395635999334708],[-98.71830524999996,22.39081396933485],[-98.71971565999998,22.391708999334814],[-98.72289747999999,22.389340999334884],[-98.72638276999999,22.389779229334867],[-98.72679288999996,22.388151649334905],[-98.72942314999995,22.388014029334872],[-98.72896871999995,22.38599422933496],[-98.73150717999994,22.381256079335092],[-98.74593956999996,22.3808653493351],[-98.74992117999996,22.37655739933514],[-98.75167608,22.36902385933533],[-98.75801949,22.366532569335423],[-98.76896913999997,22.36691307933543],[-98.77561997,22.36422356933545],[-98.78085456999997,22.366121599335415],[-98.78643128999995,22.365979089335426],[-98.79189150999997,22.361868059335535],[-98.81123144999998,22.361517399335504],[-98.81449977999995,22.358297859335593],[-98.82146731999997,22.35625579933564],[-98.82362456999994,22.358703799335597],[-98.83466229,22.360817139335552],[-98.84987705999998,22.368126919335385],[-98.85369447999996,22.368196229335336],[-98.85913813999997,22.364740599335462],[-98.87228948999996,22.367412979335377],[-98.87561654999998,22.361974779335487],[-98.88063250999994,22.358297459335628],[-98.88999724999998,22.3550935093357],[-98.89696041999998,22.359146509335602],[-98.89644516999994,22.362299139335512],[-98.89903391999998,22.3658843993354],[-98.90202836999998,22.365906149335434],[-98.91228262999995,22.373797919335264],[-98.91941288999999,22.37110673933531],[-98.92554485999996,22.371746779335258],[-98.93007159999998,22.38255867933502],[-98.93197271999998,22.392775139334773],[-99.06039944999999,22.415268519334255],[-99.11256727999995,22.406761649334495],[-99.12056704999998,22.406636479334455],[-99.23683874999995,22.412861999334346],[-99.24342539999999,22.433370659333836],[-99.25135967999995,22.443979229333575],[-99.25997859999997,22.467810939333038],[-99.26314853999999,22.469791229332994],[-99.27242581999997,22.513262629331972],[-99.27792396999996,22.523676619331756],[-99.28865337999999,22.555824169330997],[-99.29969104999998,22.574305449330573],[-99.31403439999998,22.60989816932975],[-99.32859004999996,22.608702399329744],[-99.33010751999996,22.614844689329615],[-99.32138785999996,22.616730449329562],[-99.32961767999997,22.634887779329144],[-99.37320048,22.62907767932928],[-99.37766396999996,22.64606913932892],[-99.38537327999995,22.66447176932846],[-99.38555310999999,22.670268459328323],[-99.38843362999995,22.669291049328347],[-99.39654011999994,22.670766799328298],[-99.41991271999997,22.662037539328516],[-99.44205287999995,22.6636157093285],[-99.44832782999998,22.673437319328286],[-99.47712682999997,22.740637219326718],[-99.48109044999995,22.742363349326695],[-99.49244868999996,22.741947979326707],[-99.49678850999999,22.74849794932654],[-99.54432737999997,22.744140149326658],[-99.52789255,22.69557961932775],[-99.52562328999994,22.694524979327777],[-99.51675745999997,22.664436889328467],[-99.51528705,22.664667489328487],[-99.49453636999999,22.620868629329507],[-99.51365162999997,22.615061369329602],[-99.53469190999999,22.612764649329648],[-99.56063829,22.641220489328983],[-99.68253545999995,22.68112470932811],[-99.70176450999998,22.67322808932829],[-99.71836925999997,22.664555319328446],[-99.72408516999997,22.659608399328555],[-99.75477857999995,22.65661064932867],[-99.76412127999998,22.66210905932851],[-99.77019117999998,22.662306969328498],[-99.77939082999995,22.667397119328385],[-99.78503693999994,22.668508979328408],[-99.79474597999997,22.667703019328382],[-99.79731416999994,22.665049109328457],[-99.79801684999995,22.6666500293284],[-99.80548584999998,22.65777313932865],[-99.81402898,22.66076577932859],[-99.84792356999998,22.67843510932817],[-99.84281899999996,22.73055719932697],[-99.88239697999995,22.749862309326478],[-99.88315370999999,22.748238889326526],[-99.89205910999999,22.74844645932651],[-99.95695813999998,22.75166651932647],[-99.95848933999997,22.749776799326508],[-100.02234325999997,22.72592454932706],[-100.09405993999997,22.75126516932649],[-100.10192039999998,22.762792749326227],[-100.02938419999998,22.824393549324757],[-100.04423907999997,22.917892399322614],[-100.11038362999994,22.916714419322684],[-100.11084694999994,22.975718969321324],[-100.08942101999999,22.968757479321447],[-100.09953207999996,23.007931109320598],[-100.09745530999999,23.01309096932047],[-100.09491513999997,23.013841029320414],[-100.09134279999996,23.011411569320504],[-100.08632577999998,23.011068319320497],[-100.08049250999996,23.002007079320713],[-100.07802893999997,23.00181333932074],[-100.07418368999998,22.996670349320826],[-100.07165577999996,22.99735719932083],[-100.07003307999999,23.00099819932071],[-100.06621645999998,23.00180999932069],[-100.06749836999995,23.00810727932057],[-100.06634491999996,23.010383709320504],[-100.06470891,23.012370109320482],[-100.06184233999994,23.011979629320468],[-100.06690281999995,23.031446219320067],[-100.06610776999997,23.034860649319942],[-100.06209741999999,23.039843659319825],[-100.05421356999994,23.041968419319797],[-100.05292896999998,23.04591674931972],[-100.04751045999996,23.05064819931962],[-100.04258822999998,23.052730649319553],[-100.04045285999996,23.05182544931956],[-100.03172385999994,23.05341231931955],[-100.02699725999997,23.055845179319494],[-100.02718614999998,23.05874902931942],[-100.02407484999998,23.059103689319368],[-100.02368101999997,23.060474199319366],[-100.01269157999997,23.05889331931939],[-100.01125221999997,23.0639205793193],[-100.01157768999997,23.065602889319237],[-100.06902910999999,23.095941779318547],[-100.06874296899998,23.121156259318017],[-100.11559725999997,23.12598988931786],[-100.11015499899997,23.15106988931729],[-100.11898963,23.1524278893173],[-100.11828616899999,23.200545310316187],[-100.10974019899999,23.199717860316213],[-100.10381334999995,23.231535379315453],[-100.13554051999996,23.237595749315325],[-100.22823650999999,23.250476149315055],[-100.20636422999996,23.30710885931375],[-100.21823771999999,23.3101343493137],[-100.22016644999997,23.297931719313993],[-100.27843497999999,23.31036839931372],[-100.30625693999997,23.260942119314805],[-100.32581222999994,23.263092659314758],[-100.33169253999995,23.259092369314892],[-100.37431656999996,23.26532381931471],[-100.36376430999997,23.189005379316416],[-100.32351519999997,23.195627449316316],[-100.33175793999999,23.162683179317035],[-100.47984967999997,23.194365349316342],[-100.48386908999998,23.208832019315995],[-100.48360784999994,23.2140456593159],[-100.45708324999998,23.36640959931243],[-100.51401744999998,23.415630999311347],[-100.51721131999994,23.421042849311192],[-100.49761691999998,23.49402701930955],[-100.49416867999999,23.528406399308782],[-100.46441599999997,23.512082029309152],[-100.45917610999999,23.51156610930916],[-100.45914748999998,23.533163769308672],[-100.46751624999996,23.543566399308435],[-100.46954494999996,23.566783109307952],[-100.49163688999994,23.568612509307883],[-100.48865345999997,23.605047049307075],[-100.48664930999996,23.604138909307107],[-100.47737862999998,23.633818689306437],[-100.46335053999998,23.653140199305994],[-100.45435511999995,23.649904549306047],[-100.44984459999995,23.656008939305927],[-100.45832844999995,23.660112549305854],[-100.44572011999998,23.677331519305458],[-100.44710042999998,23.696534519305033],[-100.46203817999998,23.694627349305097],[-100.46186188999998,23.689064689305212],[-100.46448708999998,23.688722799305207],[-100.46475794999998,23.69088277930514],[-100.46648327999998,23.688941029305163],[-100.46802036999999,23.69260068930513],[-100.46626301999999,23.693273079305087],[-100.46793256999996,23.700086999304947],[-100.47414736999997,23.706843119304775],[-100.49030233999997,23.73960087930409],[-100.49770627999999,23.736309709304155],[-100.49760171999998,23.79871268930276],[-100.52879142999997,23.816352629302358],[-100.52552994999998,23.839525909301887],[-100.55029868999998,23.842202579301787],[-100.53984561999994,23.88839305930077],[-100.54943430999998,23.88931459930073],[-100.54676779999994,23.917436619300112],[-100.56240161999996,23.919641079300106],[-100.54128265999998,24.025747619297743],[-100.52375899999998,24.071454949296715],[-100.53868325999997,24.11851602929568],[-100.51958001999998,24.118382339295692],[-100.51682748999998,24.139896679295223],[-100.54877111999998,24.146030569295093],[-100.54962419999998,24.14830239929503],[-100.61339988999998,24.17394417929447],[-100.59351253999996,24.178200249294377],[-100.58509290999997,24.223925429293413],[-100.63306647999997,24.225980249293382],[-100.59993551999999,24.348791049290664],[-100.60353333999997,24.40130005928953]]]}}]}
