{"type":"FeatureCollection","features":[{"type":"Feature","properties":{"cve_ent":"25","cvegeo":"25","nombre_inegi":"Sinaloa","nombre_catalogo":"Sinaloa"},"geometry":{"type":"MultiPolygon","coordinates":[[[[-108.47551445999994,27.03994519923543],[-108.48576207999997,27.037502429235506],[-108.48778227999999,27.035662629235517],[-108.48703533999998,27.032531109235574],[-108.49173487999997,27.031380199235606],[-108.48537664999998,27.027833679235695],[-108.48350701999999,27.021154139235836],[-108.48417187999998,27.017438939235852],[-108.48697453999996,27.015344969235922],[-108.48880914999995,27.016279379235915],[-108.49730042999994,27.013408749235953],[-108.49779430999997,27.010423059236004],[-108.50157205999996,27.008397949236073],[-108.50086771999997,27.004437059236118],[-108.50219884999997,27.004071049236128],[-108.50443853999997,27.00718387923608],[-108.50625147999996,27.002903019236182],[-108.50448592,27.002337509236174],[-108.50176105999999,26.996661179236263],[-108.50418976999998,26.992432979236355],[-108.50248611999996,26.987357029236456],[-108.42427082999997,26.976229829236633],[-108.46697767999996,26.970701849236793],[-108.51803631999996,26.880423919238535],[-108.51942274999999,26.879008229238572],[-108.52004386,26.88023319923856],[-108.52205834999997,26.879677649238566],[-108.53512991999997,26.8409751992393],[-108.53919994999997,26.836730119239352],[-108.54214591999995,26.835839259239403],[-108.54704268999996,26.828556769239512],[-108.55405047999994,26.8267131192396],[-108.55704313999996,26.82375331923963],[-108.55786491999999,26.81731211923976],[-108.55535239999996,26.811584079239854],[-108.54766397999998,26.805825919239997],[-108.53791876999999,26.804124709240025],[-108.53644211999995,26.801748109240062],[-108.53691208999999,26.798428709240135],[-108.54190437999995,26.792865689240223],[-108.54982442,26.787559679240356],[-108.55147273999997,26.781535429240474],[-108.55403379999996,26.779856979240463],[-108.56477007999996,26.778483289240523],[-108.57520454999997,26.79321656924019],[-108.58084942999994,26.78957657924032],[-108.57598039999999,26.777764749240546],[-108.57794031999998,26.77653547924057],[-108.57874029,26.772687089240602],[-108.57832947999998,26.76277708924082],[-108.58161497999998,26.759098629240874],[-108.59418888999996,26.759173429240874],[-108.59885724999998,26.75030690924108],[-108.59721439999998,26.743223739241238],[-108.60102394999996,26.727222509241514],[-108.61625427999998,26.72646339924154],[-108.61772891,26.722003019241615],[-108.628385,26.71838711924169],[-108.63146610999996,26.706974049241904],[-108.63119687999996,26.70143682924201],[-108.63599430999994,26.69051534924224],[-108.63179834999995,26.687200429242324],[-108.62986756999999,26.680490339242446],[-108.63369771999999,26.67956847924246],[-108.63036634999997,26.676573449242486],[-108.65768056999997,26.669129179242624],[-108.66726222999996,26.65260134924297],[-108.67898790999999,26.642889449243164],[-108.67883073999998,26.58701508924425],[-108.71059047999996,26.5870576492443],[-108.71074089099994,26.593627539244146],[-108.73429288999996,26.59356808924418],[-108.77659033999998,26.5801094892444],[-108.77708914,26.57092605924457],[-108.78417502999997,26.568806479244618],[-108.78772371999999,26.565255749244713],[-108.79551168999996,26.565627119244688],[-108.79721774999996,26.56784025924462],[-108.80642284999999,26.570603649244614],[-108.87315214999995,26.55107142924497],[-108.89131753999999,26.48959530924618],[-108.91466994999998,26.4795400192464],[-108.85674001999996,26.480515139246346],[-108.85065162999997,26.486362339246238],[-108.84747991999996,26.487217449246256],[-108.83779505999996,26.476857109246417],[-108.83776201999996,26.472523309246526],[-108.84909948999996,26.46722387924665],[-108.87610762999998,26.447576429247],[-108.86033954999999,26.432770149247343],[-108.88139244999996,26.406252479247833],[-108.91011501999999,26.421714519247516],[-108.90918497999998,26.416585259247622],[-108.93652231,26.390180259248197],[-109.00405408999995,26.40008549024795],[-109.00644348899999,26.402369890247904],[-109.07421422999994,26.35353005024892],[-109.08121822899994,26.337738979249213],[-109.08540548999999,26.33649518124927],[-109.08754144999996,26.330818510249387],[-109.08727054899998,26.32560754124947],[-109.09336028899997,26.320503200249576],[-109.09668034899994,26.312124451249705],[-109.10011273999999,26.312928580249693],[-109.11965674899994,26.303077570249936],[-109.12100791999995,26.298910169249996],[-109.12523821899998,26.297014340250065],[-109.12744796999999,26.298648820249976],[-109.133123739,26.29785878025003],[-109.13539941999994,26.30159952024996],[-109.14959948999996,26.306400020249853],[-109.15427554999997,26.30715072024981],[-109.15694136999998,26.305374370249844],[-109.16494313899994,26.306847340249814],[-109.16694742899995,26.310391981249765],[-109.17126041999997,26.311350170249767],[-109.17402507899999,26.313893820249717],[-109.17457896999997,26.318969569249568],[-109.1780098,26.320357649249576],[-109.18203513899999,26.327091801249413],[-109.19027196899998,26.332845860249325],[-109.18882446099997,26.332988451249317],[-109.18912710899997,26.335529630249255],[-109.19312984899996,26.34093485924917],[-109.19856481899997,26.341669141249145],[-109.202537739,26.34445255024911],[-109.20390221899999,26.341826819249135],[-109.21011168899997,26.343170019249115],[-109.21360588999995,26.339993829249153],[-109.215639449,26.334532261249265],[-109.24678790899998,26.316035179249624],[-109.25832413999997,26.319928430249576],[-109.25189163,26.31217826024972],[-109.28791877199995,26.278135781250406],[-109.29097637999998,26.271390009250556],[-109.29573024899997,26.236283981251233],[-109.31028754899995,26.2024946892519],[-109.36869314499995,26.107427538253855],[-109.37333309399997,26.10414388225391],[-109.385277988,26.088118212254194],[-109.388829296,26.087429825254247],[-109.40312061499999,26.06486421525469],[-109.40521501599996,26.05813605125485],[-109.406642693,26.0588356132548],[-109.430822747,26.00715271725585],[-109.44385138699994,25.95940523825681],[-109.44369983399997,25.9418553082572],[-109.43413976899996,25.91189354225782],[-109.42485663899998,25.895945688258102],[-109.42156142799996,25.870730356258647],[-109.42194417899998,25.85266329225898],[-109.43227687199999,25.805945482259983],[-109.42127472199998,25.78384185726042],[-109.41160221299998,25.75891700326094],[-109.40502300299994,25.73125576826146],[-109.39970662999998,25.68539790926242],[-109.39658499699999,25.677960213262573],[-109.39248604999996,25.677072429262612],[-109.39049999999999,25.66960000126274],[-109.39214800099997,25.642822381263333],[-109.397104874,25.63849726626337],[-109.39240903599995,25.637646227263406],[-109.38428893499999,25.63954237926334],[-109.37116620799999,25.63960781426335],[-109.33288067999996,25.646520148263193],[-109.29788794499996,25.645392238263238],[-109.273769728,25.64116631526334],[-109.22805552299998,25.626784853263626],[-109.21102809999998,25.61794277626381],[-109.18671952599999,25.598830945264233],[-109.17676386199997,25.588009156264423],[-109.16754107099996,25.574798389264725],[-109.16174470399994,25.56176846026496],[-109.11922311999996,25.544999310265297],[-109.11786486499994,25.541456383265405],[-109.08701402999998,25.51133022726605],[-109.08081638799997,25.49981030326625],[-109.07963091899995,25.496038680266352],[-109.08067990499997,25.492746636266382],[-109.06646601999995,25.485724681266564],[-109.05483419899998,25.4726116372668],[-109.04348892899998,25.462774946267036],[-109.03639753899995,25.462179949267057],[-109.02510634199996,25.440918049267466],[-109.02103030899997,25.438291918267524],[-108.96272367899996,25.431749720267685],[-108.92775359899998,25.424921170267808],[-108.88379999899998,25.41100000026809],[-108.82923931899997,25.385081950268656],[-108.80147155499999,25.373640587268874],[-108.78580605999998,25.369333709268947],[-108.75153859899996,25.36851832626898],[-108.75256901999995,25.366949029269005],[-108.75158908599997,25.364872989269045],[-108.74537584299999,25.361942131269085],[-108.73014253399998,25.36151382826912],[-108.69594967899997,25.35537481826927],[-108.64691240299999,25.342096944269517],[-108.58334913399996,25.32016945326999],[-108.54398962199998,25.304723293270303],[-108.53328360299997,25.297045678270482],[-108.49826269599998,25.284282249270735],[-108.49566884999996,25.282567119270787],[-108.49516683199995,25.280117216270828],[-108.47166880499998,25.270204138271026],[-108.45028157999997,25.256603599271326],[-108.43507662999997,25.243602170271608],[-108.42743833299996,25.234833553271766],[-108.40378204899997,25.20691363027238],[-108.38901428099997,25.18553845927279],[-108.38462494899994,25.18730250927277],[-108.35745287999998,25.169193830273127],[-108.35814582999997,25.16728167927317],[-108.35580971999997,25.1659625092732],[-108.334372025,25.1247851892741],[-108.34243371099996,25.119203487274188],[-108.34376108599999,25.11499619127427],[-108.34229223999995,25.11149673527437],[-108.33323769699997,25.107843214274453],[-108.32690357199999,25.099607899274577],[-108.29755292,25.083534640274934],[-108.27845774599997,25.069614793275267],[-108.25092738199999,25.045118242275752],[-108.22783687299996,25.01825381327633],[-108.21561596099998,25.00066483827667],[-108.20557658399997,24.981794458277125],[-108.18870467599999,24.957028025277616],[-108.13649031499996,24.872123374279425],[-108.12372304399999,24.84756054327993],[-108.11799579699999,24.82857745928037],[-108.10657468899997,24.82027662028055],[-108.09078952099998,24.816136036280604],[-108.06991125899998,24.78514103028126],[-108.07162730699997,24.78430396328131],[-108.06946308199998,24.779869286281393],[-108.04600159699999,24.760167349281833],[-108.02621158399995,24.736254864282312],[-108.02022013699997,24.724070926282593],[-108.02125996299998,24.698238769283133],[-108.01892528399998,24.681640868283477],[-108.00292145499999,24.657434120284012],[-107.984796556,24.639825001284407],[-107.96067211999998,24.622581399284766],[-107.88051074699996,24.57394055828581],[-107.84995846799995,24.557115389286153],[-107.84079278399999,24.55031251028634],[-107.83090186399994,24.53988251628651],[-107.82845554999996,24.52148377928693],[-107.82313285799995,24.522419179286914],[-107.81706811599997,24.51649370728703],[-107.82204627999995,24.513964339287075],[-107.82524665499994,24.507956200287243],[-107.82461503899998,24.50379507528735],[-107.82058184799997,24.50068990128737],[-107.75863124600001,24.471214546288017],[-107.64944950799998,24.40699550928942],[-107.475009819,24.292200290291884],[-107.47085494999999,24.288685749292007],[-107.47104610799994,24.287291538291996],[-107.44010022899994,24.265579860292483],[-107.42954514999997,24.25710755629266],[-107.42670506899998,24.25290083129273],[-107.42248117099996,24.251200419292783],[-107.42087627099995,24.249777555292805],[-107.42167924799998,24.247806094292862],[-107.41972552599998,24.24381843629299],[-107.40521081899999,24.232013939293232],[-107.320323547,24.182449766294287],[-107.23729432299996,24.129717407295438],[-107.21899562499999,24.121427868295648],[-107.2067952,24.11017115029587],[-107.19560317999998,24.103410018296007],[-107.19923010099996,24.09956457129615],[-107.20168329299997,24.103226841296017],[-107.20310552099994,24.101862082296087],[-107.19621335299996,24.09361669929624],[-107.16492568999996,24.07365939629666],[-107.12175037599997,24.041865580297358],[-107.01159999999999,23.952799999299312],[-106.89329999999995,23.841699999301813],[-106.88739999999996,23.829999999302057],[-106.88505925999999,23.81191961930244],[-106.88256756999999,23.8048885393026],[-106.88378357999994,23.80100925930272],[-106.88176456999999,23.795284749302855],[-106.87169393999994,23.786098549303063],[-106.84478099999995,23.755267219303732],[-106.84311614999996,23.750881919303804],[-106.84368213999994,23.74641631930391],[-106.84439999999995,23.74259999930399],[-106.84700384999996,23.740091399304045],[-106.81982387,23.714798622304606],[-106.80493320299996,23.698051975304992],[-106.79571041199995,23.683204139305328],[-106.79462196299995,23.675513949305483],[-106.79563121999998,23.67002239930562],[-106.79874414299996,23.666098215305677],[-106.80439663399996,23.66758496030567],[-106.80369231399999,23.66412522430578],[-106.80530297099995,23.659625901305866],[-106.81159999999994,23.658099999305875],[-106.81003284199994,23.653733378306],[-106.81092325799995,23.652739741306007],[-106.80784423499995,23.65145483230604],[-106.80866752899999,23.65035076230607],[-106.80646917999998,23.648001289306087],[-106.804665275,23.647124213306117],[-106.80266137899999,23.648268705306123],[-106.79022191299998,23.640415564306295],[-106.78902788999994,23.637233429306338],[-106.78501505199995,23.634917895306398],[-106.78585262200001,23.631881703306444],[-106.78119999999997,23.631199999306478],[-106.77126567999994,23.624016889306667],[-106.76417477999996,23.613223619306872],[-106.75359999999995,23.609099999307006],[-106.72915881999997,23.595157319307297],[-106.69546528799998,23.569658982307885],[-106.684366836,23.55474209730822],[-106.68402565999999,23.552127999308244],[-106.68595631599999,23.55031630030831],[-106.68228956599997,23.544182049308457],[-106.68221818299999,23.540984054308478],[-106.67219999999999,23.535399999308613],[-106.63953779099995,23.508597210309226],[-106.627802289,23.496804601309503],[-106.62641030399999,23.49190767130958],[-106.62912467399998,23.490408015309647],[-106.63038281399997,23.487026206309714],[-106.62698910799998,23.47815319630991],[-106.62249787499997,23.47740664030995],[-106.59907535399998,23.456638705310382],[-106.59360782999994,23.44965450931058],[-106.56969999999995,23.431299999310998],[-106.54341024299998,23.40665574731152],[-106.527056207,23.388938280311915],[-106.50546973699994,23.360184873312544],[-106.50238045999998,23.354084459312688],[-106.48547918899999,23.33376028731318],[-106.48072175699998,23.32543131431337],[-106.48034034999996,23.314543619313604],[-106.48386891299998,23.30902689431371],[-106.48740708999998,23.307644879313756],[-106.49406331499996,23.30953447731372],[-106.49389913199998,23.30403078331386],[-106.49060936999997,23.30286044531389],[-106.47865971499999,23.291139221314115],[-106.47043479999998,23.28079193931435],[-106.46624665999998,23.27162454931459],[-106.46865820999996,23.267170791314687],[-106.46657272399995,23.260571538314842],[-106.45815494999994,23.252703013315017],[-106.45356112599995,23.24142386231524],[-106.44185813899999,23.236405292315396],[-106.430655636,23.22809145531558],[-106.42478312699997,23.222057142315673],[-106.42189723199999,23.215911277315865],[-106.42288516499997,23.20963122431599],[-106.42542271199994,23.207647839316024],[-106.42632067999996,23.209611549315962],[-106.42930073199994,23.208509235316015],[-106.42875438199997,23.205467942316055],[-106.43098122599997,23.202938322316154],[-106.43024031,23.199633149316234],[-106.42681162399998,23.195987722316264],[-106.42869694299998,23.192981467316336],[-106.42831364999995,23.18950574931641],[-106.42461745999998,23.185988399316503],[-106.42999041999997,23.17657836931675],[-106.42572323599997,23.176398194316732],[-106.42362098199999,23.179492683316635],[-106.42036441999994,23.179454049316668],[-106.41864004499996,23.177708089316717],[-106.41407747499996,23.178018071316696],[-106.41173965499996,23.18030592231665],[-106.41328785099996,23.182050349316604],[-106.41103295499995,23.186409240316486],[-106.40610746999995,23.186883942316495],[-106.39818743399996,23.183932221316585],[-106.38765772499994,23.177181393316722],[-106.34135879999997,23.140550679317546],[-106.31300631599998,23.115058102318113],[-106.29219864999999,23.092686229318613],[-106.25175338999998,23.06340423331933],[-106.18197585599995,22.998558028320772],[-106.09963761999997,22.90949994932283],[-106.05669788199998,22.859354632324003],[-106.03449730099999,22.829658311324664],[-106.02684444699999,22.831392376324615],[-105.95820521999998,22.78610254932568],[-105.91791571999994,22.752428619326434],[-105.87426511099994,22.71137918032739],[-105.84274238499995,22.678442317328166],[-105.80937414999995,22.637049384329128],[-105.79172806699995,22.609737931329715],[-105.77346808399994,22.57645878933053],[-105.76892974899994,22.555991822331],[-105.76364566899997,22.55061784333111],[-105.76049431399997,22.550968999331122],[-105.75811531099998,22.543189555331306],[-105.75961972399996,22.537573645331424],[-105.7560878,22.537849149331418],[-105.75293862999996,22.540859999331364],[-105.75021207999998,22.539336079331388],[-105.73977982999997,22.520154749331848],[-105.72701967999997,22.49101774933247],[-105.71411625999997,22.474946059332858],[-105.70118724999998,22.46769017933303],[-105.69247681999997,22.46717693933306],[-105.67703579999994,22.468135109333026],[-105.67264930999995,22.474094979332918],[-105.67110577999996,22.481562419332718],[-105.67523487999995,22.507200379332104],[-105.69303869,22.545173539331252],[-105.69913044999998,22.554638599331003],[-105.70007210999995,22.563898229330825],[-105.69856170999998,22.568380719330698],[-105.69004982999996,22.56838913933068],[-105.68748216999997,22.571890549330607],[-105.68174547999996,22.57218910933063],[-105.67639990999999,22.57678536933049],[-105.67415602999996,22.575756019330512],[-105.66997004999996,22.576881219330534],[-105.66678702999997,22.57956259933042],[-105.66428312,22.58482853933032],[-105.66056202999995,22.58636297933028],[-105.65732384999995,22.583533849330347],[-105.65488430999994,22.583545689330343],[-105.65401971999997,22.58075313933043],[-105.63921297999998,22.576984579330503],[-105.64270157,22.58555116933028],[-105.64215842,22.59388864933011],[-105.63094951999994,22.592980149330156],[-105.63140862999997,22.58875376933022],[-105.62203645999995,22.57142551933063],[-105.61766897999996,22.5682382593307],[-105.61211262999996,22.568158969330728],[-105.60630065999999,22.56400641933081],[-105.60535076999999,22.56116617933086],[-105.60047657999996,22.558887799330908],[-105.59990948999996,22.544404519331263],[-105.60165613999999,22.542193579331315],[-105.59828823,22.53667113933146],[-105.59257644999997,22.53623947933146],[-105.58990773999996,22.533771029331476],[-105.58389316999997,22.533484229331517],[-105.57595113999997,22.535149749331502],[-105.57619050999996,22.538021489331427],[-105.57364433999999,22.53925116933138],[-105.56038174999999,22.537298229331416],[-105.55251691999996,22.539126769331382],[-105.53993476999995,22.535593339331463],[-105.54003834999999,22.531326549331588],[-105.53837496999996,22.53040156933158],[-105.53359631999996,22.515031229331925],[-105.52958424999997,22.51595879933195],[-105.52936951999999,22.518907979331843],[-105.52193805999998,22.520995279331782],[-105.51729476999998,22.520183079331805],[-105.51582462999995,22.518026279331895],[-105.51342231999996,22.51848497933185],[-105.51317435,22.517022089331917],[-105.50956657999997,22.51696270933188],[-105.50317934999998,22.527681859331633],[-105.50205648999997,22.525142109331693],[-105.49319802999997,22.52342244933176],[-105.49201565999999,22.519448379331823],[-105.48379648999997,22.51771281933188],[-105.48066135,22.513929979331973],[-105.48159593999999,22.508768259332108],[-105.47933074999997,22.507843249332133],[-105.47834811999996,22.50497714933219],[-105.47485262,22.50545824933218],[-105.47406028799998,22.502900429332236],[-105.47105288999997,22.505564319332198],[-105.46644831999998,22.505387878332183],[-105.46321234999999,22.510606629332038],[-105.46083679999998,22.508568110332092],[-105.45448356899999,22.518762660331852],[-105.44491887899994,22.521579060331806],[-105.44172468999996,22.524268430331727],[-105.44403048,22.5300142893316],[-105.44007828999997,22.53171430933154],[-105.43629462999996,22.538321489331395],[-105.43462553999996,22.54998419933112],[-105.43765133999996,22.555739629331008],[-105.43527990999998,22.559699999330935],[-105.43872757999999,22.565236259330796],[-105.43759982299999,22.584911820330312],[-105.44232019999998,22.59036445933019],[-105.45237007999998,22.595323629330075],[-105.45598639999999,22.59873908932999],[-105.45442683,22.60521124932981],[-105.44811137999996,22.61012281932976],[-105.45045861999995,22.626755479329333],[-105.4687196,22.6250783093294],[-105.47268061999995,22.627184999329334],[-105.47419888999998,22.63281073932918],[-105.47021319999999,22.640141769329052],[-105.46485551999996,22.64610882932891],[-105.46039093999997,22.647549939328854],[-105.46396310999995,22.659238309328575],[-105.49806384999994,22.651390749328804],[-105.51151230999994,22.685249309328015],[-105.52289345999999,22.7243347993271],[-105.51526283,22.73946988932676],[-105.51408222999999,22.759328449326276],[-105.51936819999997,22.759002259326277],[-105.52477222999995,22.774769889325952],[-105.52258137999996,22.775566259325927],[-105.51990557999994,22.77277399932595],[-105.51651202000001,22.780557829325822],[-105.51912129,22.7838904893257],[-105.51494959999998,22.785724549325682],[-105.51499416999997,22.787875749325636],[-105.51158874999999,22.789061059325597],[-105.51144467999995,22.790909979325548],[-105.50916488999998,22.7922305193255],[-105.50897807999998,22.794399139325478],[-105.51130530999995,22.794043649325477],[-105.51118202999999,22.79691048932544],[-105.50645730999999,22.797749539325384],[-105.50521034999997,22.803083219325295],[-105.50619036999997,22.804615779325257],[-105.50495344999997,22.8065127193252],[-105.50278633999994,22.80631547932518],[-105.50240927999995,22.809776779325126],[-105.50048756999996,22.809417379325147],[-105.49890641999997,22.811142799325065],[-105.49496885999999,22.810518889325085],[-105.49490224999995,22.81298422932504],[-105.49648075,22.814041059324996],[-105.49336731999995,22.815225709324984],[-105.49586477999998,22.817364279324938],[-105.49285176999996,22.821357279324832],[-105.49340671999994,22.82615528932471],[-105.49019239999997,22.82444242932476],[-105.48774812,22.82601233932473],[-105.48878301999997,22.829607969324652],[-105.48658753999996,22.831628149324604],[-105.48770824999997,22.830951749324647],[-105.48825224999997,22.83234256932459],[-105.48569527999996,22.835262689324516],[-105.48719730999994,22.839111169324422],[-105.48196285999997,22.842088829324357],[-105.47917782999998,22.841991969324365],[-105.47692193999997,22.849963229324214],[-105.47458862999997,22.85141601932417],[-105.48420128999999,22.85870296932397],[-105.47533285999998,22.880624429323504],[-105.47121990999995,22.883285949323458],[-105.49865357999994,22.933561149322273],[-105.49610424999997,22.93422182932227],[-105.50126391999999,22.958560049321726],[-105.45331134999999,22.977401799321274],[-105.43259456999999,23.023968799320183],[-105.40895033999999,23.023640819320185],[-105.41316181999998,23.0370547493199],[-105.41012517999997,23.039082259319862],[-105.41156782999997,23.041163919319793],[-105.40985959999995,23.044358089319747],[-105.41204911999995,23.04827084931965],[-105.41040250999998,23.0600957493194],[-105.41310822999998,23.064293399319293],[-105.41299648999995,23.074099199319047],[-105.39221999999997,23.085157479318838],[-105.39956761999997,23.089746249318733],[-105.39913216999999,23.09231961931867],[-105.40123322999996,23.096175249318556],[-105.39879551999996,23.102210949318405],[-105.40853302000001,23.10320045931838],[-105.41311242999996,23.10952810931824],[-105.41303231999996,23.112505219318194],[-105.41589234999998,23.11689733931808],[-105.42442737999995,23.12029231931799],[-105.43408085999994,23.12046142931799],[-105.44036619999997,23.11669645931811],[-105.44618797,23.119629279318012],[-105.45531917999995,23.117335659318062],[-105.50403374999996,23.127729419317827],[-105.50777450999999,23.12506245931789],[-105.51786043,23.124914179317937],[-105.52510861999998,23.119888709318026],[-105.53121628999997,23.11806131931804],[-105.53162362999996,23.11336304931815],[-105.53744444999995,23.107647709318293],[-105.53707397999995,23.10454107931836],[-105.54620936999999,23.10329647931839],[-105.54861211999997,23.10441770931839],[-105.54933593999999,23.100371259318447],[-105.55430907999994,23.098886659318506],[-105.55894082999998,23.10368850931838],[-105.56167714999998,23.104053859318412],[-105.56934276999999,23.11005750931824],[-105.57104971999996,23.108691399318275],[-105.57016825999995,23.106717919318314],[-105.57537673999998,23.104966889318387],[-105.57621682999998,23.107583889318303],[-105.57470597999999,23.11005688931826],[-105.58035761999997,23.109354649318256],[-105.58424808999997,23.11286030931817],[-105.59032744999996,23.109293719318245],[-105.59456531999996,23.111166919318244],[-105.59764085999997,23.109149619318256],[-105.60142032,23.114093169318142],[-105.60377264999994,23.112925519318154],[-105.60583394999998,23.115987049318115],[-105.60904624999995,23.1166353793181],[-105.60817859999999,23.118396459318046],[-105.60579097,23.118246689318045],[-105.60695991999995,23.121788679317984],[-105.61698321999997,23.12198776931796],[-105.61643382999996,23.125649659317915],[-105.61875504999995,23.126303479317855],[-105.62396957,23.12238808931799],[-105.62994489,23.130881969317794],[-105.64399074999994,23.14176807931755],[-105.64617925999995,23.148890579317367],[-105.64580539999997,23.15150151931732],[-105.63687587999999,23.155915969317167],[-105.63886685999995,23.167615719316952],[-105.63375427999995,23.171017539316846],[-105.63303893999996,23.17344899931682],[-105.64071790999999,23.185451179316505],[-105.63433517999995,23.18977587931644],[-105.63522647999997,23.196922649316253],[-105.63367570999999,23.19985556931622],[-105.62971251999994,23.20229451931616],[-105.63034094999995,23.207495769316008],[-105.63574405999998,23.214747349315864],[-105.62967277999998,23.219235549315773],[-105.63156231999996,23.224955909315646],[-105.63031734999998,23.235581089315385],[-105.63439670999999,23.238106999315352],[-105.64234394999995,23.23807601931534],[-105.63918182999998,23.24501737931516],[-105.64684311999997,23.253365799314974],[-105.64747339999998,23.261550139314807],[-105.64279397999996,23.265969689314737],[-105.64546107999996,23.26936834931461],[-105.6432084,23.27647908931448],[-105.65366488999996,23.28171939931434],[-105.65828453999995,23.282194019314353],[-105.66370825999998,23.28742014931423],[-105.66536508999997,23.28632167931426],[-105.66355682999995,23.283938259314322],[-105.66484342999996,23.282659649314304],[-105.67264621999999,23.281636889314374],[-105.67512699999997,23.28216088931434],[-105.67704470999998,23.285776029314228],[-105.68480974,23.285742109314256],[-105.68708410999994,23.2875200193142],[-105.69077114999999,23.294615969314055],[-105.69016131999996,23.297802829313945],[-105.69397228999998,23.301312219313903],[-105.68738014999997,23.307143819313794],[-105.69174579999998,23.30513621931383],[-105.69947062999996,23.307719119313763],[-105.69833893999999,23.310232309313708],[-105.69299837999995,23.309813179313714],[-105.69233117999995,23.3109748193137],[-105.69371584999999,23.32036777931345],[-105.70077716999998,23.324240339313413],[-105.69884273999999,23.328229249313292],[-105.70217914999996,23.3326506493132],[-105.69400473999997,23.34056921931305],[-105.69707854999996,23.341763089312966],[-105.70351107999994,23.340097369312996],[-105.70517136999996,23.348731739312836],[-105.70839645999997,23.350394619312766],[-105.71515639999997,23.350217769312778],[-105.71541782999999,23.352621979312733],[-105.71189304999996,23.355972649312694],[-105.71224505999999,23.3642813693125],[-105.72324881999998,23.372125649312302],[-105.73068965999995,23.374897289312226],[-105.72921726,23.378107379312194],[-105.7232858,23.37657222931223],[-105.71733188999997,23.37859477931218],[-105.71729254999997,23.38003701931211],[-105.72246459999998,23.383761539312022],[-105.72241871999996,23.386035679312013],[-105.71709427999997,23.392692879311817],[-105.71207954999994,23.39255047931186],[-105.71180124999995,23.3977824493117],[-105.70859379999996,23.403879689311594],[-105.71025348999996,23.40813394931148],[-105.70400234999994,23.41126299931144],[-105.70028874999998,23.42017057931122],[-105.70710941999995,23.425853489311102],[-105.72197630999996,23.42644819931107],[-105.72833090999995,23.428984459311003],[-105.73056211999995,23.43400907931093],[-105.72840322999997,23.439588399310786],[-105.73886462999998,23.445205509310657],[-105.73833748999999,23.44838121931058],[-105.73388450999995,23.45217861931049],[-105.73014888999995,23.452842819310487],[-105.72934859999998,23.45785284931038],[-105.72465721999998,23.4608092293103],[-105.72806348999997,23.466817259310147],[-105.72344477999997,23.474840139309965],[-105.72980354999999,23.48232661930981],[-105.73415425999998,23.482382979309843],[-105.73935464999995,23.485340569309763],[-105.74049211999994,23.48927345930966],[-105.74863042999999,23.49367173930954],[-105.75103754999999,23.500274979309395],[-105.76033857999995,23.50295928930934],[-105.76007777999996,23.50913936930924],[-105.75662502999997,23.515548569309097],[-105.75686734,23.524897259308855],[-105.75965225999994,23.526876059308837],[-105.75893427999996,23.53200810930871],[-105.76037570999996,23.53510614930864],[-105.76912351,23.54193933930848],[-105.76800562999995,23.545661709308398],[-105.76927017999999,23.54854785930833],[-105.76755953999998,23.551545279308254],[-105.76930222999994,23.556465309308184],[-105.77265471,23.55785673930811],[-105.77291202999999,23.56099768930809],[-105.77829507999998,23.564135049308],[-105.77966588999999,23.566829739307927],[-105.78590351999998,23.56947108930785],[-105.78433184999994,23.573242029307806],[-105.78537976999998,23.574989999307753],[-105.78983845999994,23.57852404930766],[-105.79342405999996,23.578036449307696],[-105.79672802999994,23.583391709307556],[-105.80066953999996,23.584744289307533],[-105.80209848999999,23.587713489307475],[-105.80664677999994,23.588873019307442],[-105.81164388999997,23.611028549306965],[-105.84551601999999,23.603255539307142],[-105.84518581999998,23.58369482930757],[-105.85359601999994,23.597287599307258],[-105.88431791,23.590393859307408],[-105.89265537799997,23.55264528030821],[-105.90890536699999,23.588269552307427],[-105.92663374899998,23.684135662305316],[-105.91655570699999,23.715355771304623],[-105.91590582799996,23.726424752304382],[-105.90613417699997,23.73714631230412],[-105.90609334699998,23.73939885230409],[-105.92306290799998,23.74775377230389],[-105.92294847699999,23.752240112303763],[-105.91974710699998,23.757807111303627],[-105.92331814799996,23.761299682303598],[-105.92666768799997,23.76152235030358],[-105.92948213999995,23.765517019303502],[-105.92479881999998,23.771476199303372],[-105.92953137999996,23.78096481930316],[-105.92878491999994,23.786581889303015],[-105.93217459999994,23.794695999302842],[-105.93933022999994,23.791430229302932],[-105.96126556999997,23.840742149301814],[-105.95366197999999,23.908584579300296],[-105.88329816999999,23.878549339301],[-105.86724131999995,23.875242979301063],[-105.86477325999999,23.87515622930109],[-105.86290459999998,23.877922179300988],[-105.86549368999995,23.880718579300947],[-105.86323873999999,23.881098119300926],[-105.86264951,23.885274829300855],[-105.86110002999999,23.88483037930084],[-105.86109525999996,23.88741868930081],[-105.86326922999997,23.889448309300736],[-105.85851225,23.89308591930064],[-105.85758795,23.89929614930053],[-105.85884393999999,23.902134599300478],[-105.86413994999998,23.905323599300377],[-105.86527737999997,23.908221619300353],[-105.86388644999994,23.912824019300256],[-105.86597639999998,23.91607105930014],[-105.87899230999994,23.926066309299948],[-105.88155350999996,23.93281961929976],[-105.89991939999999,23.943921289299542],[-105.94541505999996,23.948025689299463],[-105.90846157999995,23.983426629298673],[-105.90871790999996,23.986630169298625],[-105.91292548999996,23.992008399298456],[-105.91213584999998,23.997533859298347],[-105.91708619999999,24.000100019298298],[-105.92301367999994,23.99804556929833],[-105.92887036999998,23.999288309298326],[-105.93763202999997,24.004990939298175],[-105.94234293999995,24.014317919297998],[-105.94598273999999,24.012199179298026],[-105.94690384999996,24.01515754929795],[-105.94871254999998,24.011774749298024],[-105.95025811000001,24.014818829297948],[-105.95981087999996,24.01740334929792],[-105.96097084999998,24.0219226592978],[-105.95981164999996,24.02383497929778],[-105.96541344999999,24.0270688492977],[-105.96655337999995,24.03183610929758],[-105.97304319999995,24.03273810929756],[-105.97950584999997,24.041962369297412],[-105.98185554999998,24.041560769297387],[-105.98426687999995,24.038677879297428],[-105.98903136999998,24.042000429297357],[-105.99185336999996,24.041448969297374],[-105.99410222999995,24.044581279297322],[-105.99788087999997,24.042520399297374],[-105.99871973999997,24.043383139297358],[-105.99950144999998,24.049708949297194],[-105.99671724999997,24.054222229297118],[-105.99986441999995,24.0550659792971],[-106.00023333999997,24.058082769297034],[-106.00248657999998,24.059464019297014],[-106.00118168999997,24.063092949296923],[-106.00294847999999,24.066060909296834],[-106.00660822999998,24.067185859296817],[-106.00788344999995,24.072506629296743],[-106.00364042999996,24.076172049296602],[-106.00070931,24.076056149296637],[-106.00269984999994,24.083167309296503],[-106.00059796999994,24.08639141929639],[-106.00206888999998,24.088086829296387],[-105.99941579999997,24.090110289296327],[-105.99632048999996,24.08936019929633],[-105.99400697999994,24.093566919296258],[-105.99562807999996,24.098293939296166],[-105.99346711999999,24.099168849296134],[-105.99320311999999,24.10122496929607],[-105.98944090999998,24.10235811929608],[-105.99107847999994,24.105644419295967],[-105.98907722999998,24.10799767929592],[-105.98972399999997,24.114390169295778],[-105.99664961999997,24.114455679295776],[-106.00404636999997,24.12053279929565],[-106.00367257999994,24.125271949295573],[-106.00124039999997,24.12831519929547],[-106.00419810999995,24.12995810929548],[-106.00398753999997,24.137664489295307],[-106.00198894999994,24.138686889295247],[-106.00397116999994,24.140026279295206],[-106.00321076999995,24.14684102929511],[-106.00653137999996,24.148705259295042],[-106.00616631999999,24.150931909294997],[-106.01097645999995,24.156847659294844],[-106.01205345999995,24.161238479294784],[-106.01819794999996,24.164454619294716],[-106.02107525999998,24.17318182929448],[-106.02855725999996,24.180332289294316],[-106.02680785999998,24.18652850929423],[-106.03398248999997,24.191892399294066],[-106.03638205999994,24.204023419293833],[-106.04416042999999,24.21170474929363],[-106.04388356999999,24.220850349293446],[-106.06994834999996,24.220200579293458],[-106.07129605999995,24.249572569292837],[-106.07453954,24.269422089292384],[-106.07715356999995,24.272562829292312],[-106.08131834999995,24.27335341929229],[-106.08690468999998,24.277692229292242],[-106.08981676999998,24.285362429292075],[-106.15253961999998,24.338770369290916],[-106.16997519999995,24.333650179291016],[-106.19440565999999,24.3517851092906],[-106.26886942,24.374755289290114],[-106.32784825999995,24.36106299929042],[-106.33632981999995,24.355695319290536],[-106.34410076999995,24.348805649290654],[-106.34614527999997,24.34493397929078],[-106.35262368999999,24.31646814929137],[-106.35919765999995,24.307469889291568],[-106.36754465999998,24.301940799291714],[-106.42947008999995,24.285074309292042],[-106.46965465999995,24.277856949292214],[-106.50909659999998,24.29113930929194],[-106.51709354999997,24.286984259292023],[-106.52799122,24.29512373929186],[-106.53324437999999,24.30267285929166],[-106.53408891999999,24.309547779291535],[-106.58595861999999,24.379000309290003],[-106.58346565999994,24.390269919289764],[-106.59528836999999,24.409472199289343],[-106.60158830999995,24.414565849289232],[-106.56927601999998,24.43702057928873],[-106.56763216999997,24.442172549288664],[-106.56926650999998,24.44619082928855],[-106.56832153999994,24.453099179288404],[-106.56283841999999,24.458784279288274],[-106.55945257999998,24.469645049288065],[-106.56001579999999,24.47271061928798],[-106.56483094999999,24.473397229287972],[-106.56711262999995,24.475878859287896],[-106.57316969,24.477626939287884],[-106.57619576999998,24.481877969287773],[-106.57866196999998,24.482224199287813],[-106.58006484999999,24.48724416928767],[-106.58375865999996,24.490759909287608],[-106.58712448999995,24.492639769287553],[-106.59157391999997,24.491431089287577],[-106.59365274,24.495058739287508],[-106.59736956999996,24.49092468928758],[-106.59909230999996,24.490994569287597],[-106.59845637999997,24.48711816928766],[-106.60011490999996,24.486614289287672],[-106.60036171999997,24.48321081928778],[-106.60999493999998,24.49785127928748],[-106.62477499999994,24.500236049287416],[-106.63006707999996,24.506503139287272],[-106.62260699999997,24.524896679286854],[-106.63223782999997,24.52998950928677],[-106.64546065999998,24.5289794592868],[-106.68360859999997,24.598530479285305],[-106.68905039999999,24.623753719284718],[-106.70594837,24.66526165928385],[-106.71512530999996,24.672081879283713],[-106.78425428999998,24.741456429282188],[-106.79301072,24.743910339282174],[-106.79612870999995,24.753361139281946],[-106.86585287999998,24.822955339280487],[-106.90294887999994,24.82838784928038],[-106.91927677999996,24.813953119280676],[-106.93066257,24.820916679280497],[-106.93806093999997,24.835251019280204],[-106.94648781999997,24.839753169280115],[-106.94313668999997,24.843057459280068],[-106.94396111999998,24.85152736927985],[-106.94639324899998,24.858507919279692],[-106.95083181999996,24.85794768927974],[-106.95141810899997,24.859023719279694],[-106.92708025899998,24.866624379279575],[-106.93286288999998,24.871479289279417],[-106.93061611999998,24.873473109279423],[-106.93450764999994,24.88053584927926],[-106.94627807899998,24.88895173927906],[-106.95100944999996,24.887996659279093],[-106.97324941999995,24.909614689278648],[-107.00057542999997,24.928241019278218],[-107.02105287999996,24.909908279278596],[-107.02514667899999,24.928380509278245],[-107.01834390999994,24.933617369278096],[-107.06041979999998,25.00242742927668],[-107.06201416999996,25.01244956927646],[-107.06650428999995,25.020396879276305],[-107.06642190899998,25.02291499927625],[-107.063571289,25.025255349276197],[-107.06739899999997,25.030155199276052],[-107.12989162999999,25.053138799275597],[-107.12491854899997,25.18663982927278],[-107.12901368999997,25.188401369272757],[-107.14877479899997,25.224548139271956],[-107.13202136999998,25.22671179927193],[-107.13042321999995,25.22948274927188],[-107.13167505899997,25.232202229271813],[-107.12105711899994,25.24311121927161],[-107.14541301999998,25.257846459271295],[-107.15720274999995,25.261764979271216],[-107.20781656999998,25.33156422926972],[-107.17155079999999,25.326357879269853],[-107.21013222999996,25.417100509267982],[-107.18487439999996,25.43681579926754],[-107.16472874999994,25.43964016926752],[-107.15869054999997,25.441992139267416],[-107.16095725999998,25.444800519267393],[-107.15579567999998,25.446871579267345],[-107.15656179999996,25.45642365926715],[-107.15054284999997,25.45804444926711],[-107.15313074999996,25.461091769267068],[-107.15185499999997,25.46349379926699],[-107.15302219999995,25.46606614926697],[-107.15122416999999,25.467217149266943],[-107.15263236999999,25.46969633926686],[-107.15064516999998,25.4739494292668],[-107.15111742999996,25.4766978892667],[-107.14724184999996,25.479270429266666],[-107.14619194999995,25.483469309266574],[-107.14062369,25.486171749266525],[-107.13929497,25.489564859266444],[-107.13982230999996,25.496620889266307],[-107.14768422999998,25.50502721926614],[-107.16629028999995,25.50299531926617],[-107.17210581999996,25.507389969266114],[-107.17811731999996,25.51517636926595],[-107.17513519999996,25.520236999265837],[-107.17597279999997,25.52270674926578],[-107.17201082999998,25.52384337926577],[-107.17425437999998,25.529101289265622],[-107.16950639999999,25.532467799265593],[-107.17344908999996,25.533714079265547],[-107.17373765999999,25.53886242926545],[-107.17688045999995,25.540819629265393],[-107.17616751999998,25.54440384926532],[-107.17182888999997,25.542798939265378],[-107.17158639999997,25.546108079265313],[-107.17516502999997,25.549198319265255],[-107.17261468999999,25.551702049265213],[-107.17387948999999,25.5565525692651],[-107.16919479999996,25.557723879265026],[-107.17006990999994,25.559546819265],[-107.13874934999997,25.560095089265015],[-107.13935419999997,25.553198369265157],[-107.13826404999999,25.552198429265154],[-107.13255248999997,25.552694689265177],[-107.13117441999998,25.55021925926523],[-107.12456485999996,25.55041437926522],[-107.11953428999999,25.55422170926511],[-107.12112721899996,25.556411309265073],[-107.11308093999999,25.56106028926499],[-107.10998841999998,25.560556459264987],[-107.03415931999996,25.59632319926423],[-106.97329045999999,25.62957042926358],[-106.99439585999994,25.661794819262923],[-106.96693982,25.66833081926277],[-106.96594617999996,25.677095019262573],[-106.96915241999994,25.68300567926248],[-106.96532268999994,25.697878579262184],[-106.99029874999997,25.714924059261804],[-106.99140739999996,25.710489879261925],[-107.00056197999999,25.707035369261956],[-107.00476675,25.70313401926206],[-107.00552008999995,25.698713479262135],[-107.01061713999997,25.698368019262134],[-107.01068002999995,25.691459379262273],[-107.02001782999999,25.692223969262272],[-107.02529299999998,25.696202569262173],[-107.03159782999997,25.69788239926215],[-107.04312661999997,25.697698779262186],[-107.04689959999996,25.700579199262112],[-107.04807945999994,25.710826919261905],[-107.06037661999994,25.71529399926178],[-107.06422370999998,25.719074089261724],[-107.06196078,25.722942149261648],[-107.06537973999998,25.725203369261582],[-107.06474224999994,25.732777969261438],[-107.06049828999996,25.739996199261313],[-107.06249482999999,25.74266522926126],[-107.06101427999994,25.743034859261222],[-107.06137391,25.744443349261193],[-107.06364390999995,25.744329719261216],[-107.06468344999998,25.748164219261117],[-107.06174211999996,25.753850279261012],[-107.05790477,25.757367969260965],[-107.19457701999994,25.85230781925903],[-107.20439934999997,25.856703219258918],[-107.20886553999998,25.856312769258917],[-107.20694913999995,25.863919419258767],[-107.21312327999999,25.861894419258817],[-107.22903294999998,25.869741749258655],[-107.23938225399996,25.880382512258407],[-107.24148128999998,25.881010749258394],[-107.24512345999995,25.877153629258512],[-107.24482508999996,25.878141219258453],[-107.24651001999996,25.877774489258474],[-107.24574477999995,25.883499149258366],[-107.24322197999999,25.88523219925837],[-107.24450042999996,25.88741071925828],[-107.24247065999998,25.892369649258182],[-107.29612821999997,25.924793399257542],[-107.28703477999994,25.95398482925691],[-107.28003708999995,25.958095879256835],[-107.28221577,25.96219296925676],[-107.28009313999996,25.97023387925658],[-107.2825686,25.97537611925654],[-107.28048936999994,25.980701649256417],[-107.28244491999999,25.985741399256298],[-107.28062870999997,25.988400519256206],[-107.28237776999998,25.989924819256213],[-107.28175424999995,25.99228147925615],[-107.27834564999995,25.99419557925613],[-107.27634625999997,26.001976539255963],[-107.30669171999995,26.048784149255052],[-107.30488979999996,26.07640242925444],[-107.32703513999996,26.090889849254168],[-107.34652779999999,26.109523119253797],[-107.41611822999994,26.141220249253163],[-107.43234745999996,26.13824576925319],[-107.43104268999998,26.142859919253112],[-107.45096904999998,26.137616859253214],[-107.46000314999998,26.138314949253214],[-107.46956116999998,26.12885211925338],[-107.47791628999995,26.123452219253508],[-107.47775322999998,26.120957019253563],[-107.48545201999998,26.119698799253573],[-107.48526137999995,26.11542137925368],[-107.49059247999999,26.113659309253723],[-107.49217115,26.11146265925373],[-107.49683933999995,26.11128942925376],[-107.50390668999995,26.115917319253658],[-107.50611521999997,26.11578747925367],[-107.51018642999999,26.111100579253737],[-107.513341171,26.110938859253743],[-107.51694624999999,26.108404939253827],[-107.52001997999997,26.104227169253903],[-107.52394021999999,26.107230119253835],[-107.52214331,26.108552109253818],[-107.52212945999997,26.111820449253727],[-107.52421347999996,26.113174179253704],[-107.52811256999996,26.12138068925353],[-107.52626704999994,26.127747649253436],[-107.53459464999997,26.130938279253378],[-107.53738776999997,26.137661859253207],[-107.54368017999997,26.137319569253233],[-107.53999656999997,26.14080436925318],[-107.54327739999997,26.146348939253052],[-107.54794419999998,26.14744110925303],[-107.55395716999999,26.151750249252967],[-107.55567733999999,26.159623059252795],[-107.56538925999998,26.164641339252693],[-107.57028401999997,26.163342119252693],[-107.57752879999998,26.164695709252683],[-107.58202727999999,26.17064011925254],[-107.58976331999999,26.169801829252567],[-107.59318321999996,26.166042799252683],[-107.62076996999997,26.162645689252702],[-107.63574956999997,26.15457804925289],[-107.64608201999995,26.15828897925283],[-107.65276429,26.163640969252732],[-107.65971641999994,26.1626497692527],[-107.66895430999996,26.1645119992527],[-107.67941168999995,26.164395109252673],[-107.68084841999998,26.16285717925273],[-107.68726461999995,26.16539188925264],[-107.69631927999997,26.165473649252643],[-107.69919351999995,26.17073650925255],[-107.70613881999998,26.170067679252565],[-107.70825894999996,26.173675399252485],[-107.71107550999996,26.174413059252508],[-107.71325537999998,26.173052119252485],[-107.71460011999994,26.16730550925264],[-107.71743153999996,26.16474157925268],[-107.72488901999999,26.163171459252723],[-107.73523292,26.168084629252647],[-107.73871602999998,26.167239689252614],[-107.74007456999999,26.162289479252706],[-107.73787310999997,26.156947119252823],[-107.74519514999999,26.15564887925288],[-107.74759714999999,26.153793169252882],[-107.74792016999999,26.143494249253113],[-107.75517214999996,26.134512449253283],[-107.78069045999996,26.13693757925324],[-107.78892390999994,26.1686137792526],[-107.79301796999995,26.168359949252586],[-107.79625359999994,26.17266333925251],[-107.80453597999998,26.17480193925249],[-107.81027676999997,26.18368142925228],[-107.81824576999998,26.18345448925229],[-107.82275476999997,26.187629089252194],[-107.82401507999998,26.184113779252314],[-107.83808091999998,26.182416979252302],[-107.84090919999994,26.183554019252284],[-107.85401850999995,26.19651937925204],[-107.85626456999995,26.226035119251463],[-107.97411782999995,26.388634309248207],[-107.97302544999998,26.39252697924815],[-108.00058628999996,26.422162149247566],[-108.01279702,26.43904805924721],[-107.96963910999995,26.4701678592466],[-107.98562259999994,26.472099769246547],[-107.97051939999994,26.489068829246218],[-107.95726530999997,26.493743949246134],[-107.95806982,26.496855079246046],[-107.95546031999999,26.505983689245877],[-107.96199137999997,26.517804579245663],[-107.96101674999994,26.526955399245487],[-107.96400127999999,26.527449879245463],[-107.97043691,26.53289177924534],[-107.97750851999997,26.536112749245255],[-107.97969099999996,26.543184599245162],[-107.98167701999996,26.542880649245124],[-107.98364393999998,26.546036969245076],[-107.98759542,26.54589842924506],[-107.98974482999995,26.548039799245014],[-107.99204591999995,26.562283449244763],[-107.99764611999996,26.56470542924472],[-107.99707581999996,26.56709684924466],[-108.00100213999998,26.572555509244527],[-108.01248402,26.57964301924441],[-108.01077777999997,26.588377909244272],[-108.01217488999998,26.591395509244176],[-108.02028147999995,26.597001379244077],[-108.02709957999998,26.59849850924407],[-108.03251362999998,26.603182219243962],[-108.03543622999997,26.609714999243824],[-108.03180953999998,26.61592434924371],[-108.03746210999998,26.61970534924364],[-108.04515005999998,26.6197134892436],[-108.04453293999995,26.624968169243516],[-108.05158235,26.629835849243445],[-108.05389951999996,26.627173709243515],[-108.05867062999994,26.62658754924351],[-108.06125608999999,26.6272352492435],[-108.06299137999997,26.63042637924345],[-108.06881670999996,26.631448249243412],[-108.07172382999994,26.626918279243473],[-108.07455837999998,26.627993749243444],[-108.07606536999998,26.63022874924344],[-108.07388611999994,26.63369094924338],[-108.07442714999998,26.63644799924327],[-108.08160344999999,26.64199382924319],[-108.07792739999996,26.646174419243085],[-108.07673819999998,26.64531844924312],[-108.07279019999999,26.647182289243084],[-108.07129837999999,26.646050049243097],[-108.06643232,26.648262649243065],[-108.06464627999999,26.647370509243068],[-108.06019619999996,26.65157374924301],[-108.05627902999998,26.65189508924298],[-108.05501882,26.654753919242957],[-108.05595125999997,26.656467779242927],[-108.05297528999995,26.6563787492429],[-108.05300810999995,26.65831891924287],[-108.05028439999995,26.659634059242823],[-108.04653355,26.659794679242843],[-108.04313370999996,26.6632320292428],[-108.04269482999996,26.666758259242705],[-108.03172357999995,26.667981249242658],[-108.03032498,26.674261739242585],[-108.02848017999999,26.673527169242572],[-108.02545877999995,26.67836010924245],[-108.01462785999996,26.68571451924231],[-108.01491676999996,26.687593279242286],[-108.01174662999996,26.689482429242258],[-108.01171602999996,26.693609089242173],[-108.00789662999996,26.69933045924207],[-108.00896885999998,26.701580719242003],[-108.00678548999998,26.705531339241933],[-108.00677937999995,26.71548754924173],[-108.00929048999997,26.72398514924156],[-108.01923096999998,26.730666749241475],[-108.01524184999994,26.737054029241296],[-108.01372171999999,26.750312539241065],[-108.00570073999995,26.76104879924084],[-108.01426423,26.773152939240617],[-108.03764904999997,26.769780799240657],[-108.02682085,26.798466369240096],[-108.09410724999998,26.87046367923872],[-108.14424734999994,26.867649319238765],[-108.13960045999994,26.89547948923826],[-108.14200096999998,26.897757229238163],[-108.14151661999996,26.90585311923805],[-108.14310154999998,26.90788413923801],[-108.14754804999997,26.90850713923797],[-108.15591325999999,26.895216509238256],[-108.16855839999994,26.89507094923825],[-108.17174977099997,26.892336399238275],[-108.17143861999996,26.88393456923847],[-108.17454862999996,26.881464829238485],[-108.17758442999998,26.88220044923847],[-108.18109550999999,26.896539139238232],[-108.18391556999997,26.89973799923817],[-108.19008050999997,26.89587213923822],[-108.19766697999997,26.902670739238115],[-108.20739017999995,26.906000079238044],[-108.20277959999999,26.890618709238353],[-108.20352659899999,26.88767217923838],[-108.20620857999995,26.88554957923841],[-108.20971748999995,26.885437649238405],[-108.21444156999998,26.888008749238363],[-108.22067444999999,26.89780124923818],[-108.23023690999999,26.905724579238008],[-108.22734431999999,26.914397539237854],[-108.22780150999996,26.91802839923777],[-108.22502091999996,26.9228769492377],[-108.22625105999998,26.929533579237575],[-108.23101628999997,26.932804549237527],[-108.22877468999997,26.938566579237385],[-108.23139334999998,26.94070754923737],[-108.22925484999996,26.942665379237308],[-108.23102904999996,26.943477429237277],[-108.23050650999994,26.947964819237214],[-108.23549319999995,26.953472349237085],[-108.23501570999998,26.958619849236996],[-108.22629970999998,26.963644199236892],[-108.21837356999998,26.964786999236896],[-108.21897519999999,26.971904289236743],[-108.21532924999997,26.970398779236774],[-108.21582782999998,26.97768290923664],[-108.21088845999998,26.977990399236646],[-108.21085141999998,26.980381909236595],[-108.20905211999998,26.980457489236585],[-108.20737812,26.98311091923654],[-108.20797247999997,26.98106456923657],[-108.20471162999998,26.980293459236577],[-108.20126884999996,26.98302471923655],[-108.19690724999998,26.98112356923654],[-108.19705004999999,26.983795259236555],[-108.18789331,26.98636111923644],[-108.18849631999996,26.98888417923644],[-108.18627705999995,26.99311377923634],[-108.18152402,26.99410991923631],[-108.18362425999999,26.99530988923629],[-108.18028259999994,27.000160659236204],[-108.18391925999998,27.006682459236064],[-108.18359691999996,27.009063619236045],[-108.18728402999994,27.010270379236022],[-108.18675416899998,27.01216621923596],[-108.18948101999997,27.014538939235898],[-108.19016057,27.019740849235838],[-108.19406646,27.023179689235768],[-108.19486184999995,27.02622679923572],[-108.19181851999997,27.02589171923571],[-108.19445209099996,27.028925629235662],[-108.19427439999998,27.03195334923557],[-108.19876559999994,27.035193659235542],[-108.20283616999996,27.030660089235585],[-108.20542727999998,27.03257168923558],[-108.20954781999995,27.0322943992356],[-108.21156620000001,27.034448889235566],[-108.21472062999999,27.03021613923562],[-108.22585404999997,27.02722134923569],[-108.23214274999998,27.031602049235605],[-108.24121869,27.041846049235406],[-108.24294056999997,27.042047999235372],[-108.24616656999996,27.038810659235427],[-108.250447599,27.04103148923539],[-108.25858562999997,27.035269109235543],[-108.25818904999996,27.033710119235526],[-108.26085456999999,27.03312879923556],[-108.26046289,27.02932456923562],[-108.26302771999998,27.02894916923563],[-108.26293129,27.0267555992357],[-108.26987907999995,27.02512059923571],[-108.27313022,27.022493889235804],[-108.27474916999995,27.018199289235845],[-108.28160536999997,27.013165519235933],[-108.28601013999997,27.012470649235986],[-108.29093227999999,27.014830309235908],[-108.28891423,27.02657991923573],[-108.29463353999996,27.02586824923569],[-108.30338765999996,27.036620349235527],[-108.30742630999998,27.03485279923555],[-108.31655804999997,27.034488349235545],[-108.32271354999995,27.027665019235652],[-108.32598136999998,27.020492949235813],[-108.32224524999998,27.014458719235932],[-108.32202601999995,27.008936549236033],[-108.32490734999999,27.006206489236096],[-108.32761230999995,27.007730139236035],[-108.33332621999995,27.00459630923613],[-108.33853411999998,27.008959799236056],[-108.34099088,27.013670369235946],[-108.34764687999996,27.01836019923587],[-108.35010994,27.022554429235793],[-108.37163739999994,27.02301182923575],[-108.40964044999998,27.013404949235944],[-108.40992836999999,27.01607507923591],[-108.41372745999998,27.020158419235806],[-108.41945105999997,27.020482519235802],[-108.42524341999996,27.02395534923574],[-108.44310159999999,27.029498059235628],[-108.45479105999999,27.027035859235703],[-108.45778304999999,27.028944749235652],[-108.45895250999997,27.034619649235513],[-108.46430896999999,27.040099909235423],[-108.46952887999998,27.0358739992355],[-108.46994156999996,27.031282949235603],[-108.47193874999999,27.03059862923562],[-108.47551445999994,27.03994519923543]]],[[[-106.41316797399999,23.173076811316786],[-106.41292115299996,23.173295216316784],[-106.41321543999999,23.173327663316808],[-106.41316797399999,23.173076811316786]]],[[[-106.40282073999998,23.17972930131667],[-106.40447281299998,23.179950715316664],[-106.40394693699994,23.178402060316678],[-106.40282073999998,23.17972930131667]]],[[[-106.43914115199999,23.184321947316555],[-106.4406077,23.18467608631656],[-106.44063514099999,23.18377678931653],[-106.43914115199999,23.184321947316555]]],[[[-106.43667692699995,23.187179544316493],[-106.43587750799999,23.187535612316452],[-106.43657562299995,23.1877489813165],[-106.43667692699995,23.187179544316493]]],[[[-106.467224709,23.222319277315684],[-106.46299593099998,23.225243796315645],[-106.46354967599997,23.227724891315543],[-106.467224709,23.222319277315684]]],[[[-106.46328353499997,23.23665751931537],[-106.46731488499995,23.239182913315286],[-106.47130203199998,23.234100925315424],[-106.46620218799995,23.231299045315495],[-106.46680657099996,23.230352020315493],[-106.46403309699997,23.22779587931555],[-106.46231414899995,23.23090786231548],[-106.46328353499997,23.23665751931537]]],[[[-106.47518103099998,23.258430976314873],[-106.479389772,23.25666063531491],[-106.47949718899999,23.25035559831505],[-106.473557364,23.251549572315007],[-106.47276912899997,23.255999876314952],[-106.47518103099998,23.258430976314873]]],[[[-108.36606825099994,25.156512804273405],[-108.36648636499996,25.161285062273297],[-108.36240850299998,25.166438644273182],[-108.36303015399994,25.168616160273153],[-108.371692135,25.157132418273406],[-108.37719635499997,25.16365141527326],[-108.37603983699996,25.164529500273257],[-108.37597894799995,25.162231841273286],[-108.37317953699996,25.160791683273334],[-108.37170091299998,25.162831308273304],[-108.37389415899997,25.16617413727319],[-108.37671766099999,25.165875541273206],[-108.37528998499994,25.167620867273158],[-108.377060729,25.167000396273185],[-108.37885024799999,25.164127336273218],[-108.37778449799998,25.158204037273393],[-108.37630656899995,25.156925359273405],[-108.37349591999998,25.153087938273494],[-108.37200966499996,25.152197190273483],[-108.36873185599997,25.148869484273565],[-108.36043936699997,25.153145554273465],[-108.35412716099997,25.16184509527329],[-108.35471465699999,25.16313776027326],[-108.36126795599996,25.1569394702734],[-108.36606825099994,25.156512804273405]]],[[[-108.37888256899998,25.16946295627315],[-108.38094348999999,25.18163458327288],[-108.38622693299999,25.175473117273032],[-108.38273015199998,25.170388409273112],[-108.38405548799996,25.16024217027334],[-108.368867965,25.14882056827359],[-108.37210361700001,25.152149977273528],[-108.37299563599998,25.15257525227351],[-108.37432649299996,25.15387667327347],[-108.37766889799997,25.15776394627337],[-108.37854528799994,25.160136243273342],[-108.38069671399997,25.161207325273327],[-108.37675847399998,25.16814323627316],[-108.37753071499998,25.170166506273112],[-108.37888256899998,25.16946295627315]]],[[[-108.37492965299998,25.173483891273044],[-108.37658197999997,25.17769461727295],[-108.38027107699997,25.180080791272943],[-108.37976675299996,25.18365082627286],[-108.38068630999999,25.180585856272902],[-108.37862115699994,25.174734005273034],[-108.37917145099999,25.17150765427308],[-108.37731485299999,25.173001218273086],[-108.376117449,25.167922052273166],[-108.37492965299998,25.173483891273044]]]]}}]}
