{"type":"FeatureCollection","features":[{"type":"Feature","properties":{"cve_ent":"27","cvegeo":"27","nombre_inegi":"Tabasco","nombre_catalogo":"Tabasco"},"geometry":{"type":"Polygon","coordinates":[[[-92.46507274999999,18.63458784942812],[-92.46879001999997,18.65096494942769],[-92.53112594199996,18.633398687428148],[-92.58939511199998,18.620937036428455],[-92.63100632199996,18.614352462428627],[-92.67218036699995,18.611360835428744],[-92.67702308999998,18.612630739428667],[-92.68664933999997,18.619324749428483],[-92.69155709599994,18.618041269428538],[-92.69249150299999,18.614292535428635],[-92.70173194999995,18.603709289428906],[-92.70057422399998,18.60091183542896],[-92.70291744999997,18.589712219429252],[-92.71336116399999,18.575272853429652],[-92.71228864499994,18.575120578429654],[-92.72263394999999,18.558842289430075],[-92.74474058199996,18.533127180430782],[-92.77365579199994,18.505149477431534],[-92.803389537,18.482977659432112],[-92.82943511699995,18.468301144432477],[-92.85939825099996,18.455340514432812],[-92.89798969799995,18.44315165143313],[-92.92684661099997,18.437595610433295],[-92.95087574099996,18.43500740743335],[-92.99099687999997,18.432176387433454],[-93.03594618899996,18.43191227443344],[-93.07104307699996,18.436045600433314],[-93.08863376099998,18.44218529043315],[-93.09990808399994,18.443207996433145],[-93.15939854999999,18.441736879433194],[-93.16295130999998,18.441914722433143],[-93.16411195799998,18.44370058943312],[-93.16456270499998,18.441867576433157],[-93.17084644599998,18.441558192433174],[-93.17217466099999,18.44273559343315],[-93.17667346299999,18.44155065243316],[-93.17792400199994,18.443132400433157],[-93.17910479499994,18.441776406433195],[-93.17923076499994,18.443122480433136],[-93.17973614599998,18.441274528433187],[-93.18320407099998,18.44121060843319],[-93.18401288099994,18.442627568433117],[-93.18507768599996,18.44125668843319],[-93.18881441999997,18.443003109433157],[-93.18878073699995,18.446866402433045],[-93.18977197999999,18.44859475043297],[-93.19836290899997,18.45316499943289],[-93.18950008099995,18.44755658743303],[-93.19033437999997,18.437878719433293],[-93.18369712399999,18.437675854433287],[-93.18369275899994,18.433292155433396],[-93.18679885999995,18.433356110433362],[-93.18679279899999,18.43116224543345],[-93.18897729799994,18.431171706433435],[-93.18873847099997,18.43319391743337],[-93.19432077399995,18.43335891843341],[-93.19275878199994,18.443638472433147],[-93.19342629799996,18.440608180433223],[-93.19675184499994,18.438787681433258],[-93.20154817799994,18.43847059043326],[-93.20227072499995,18.441555104433206],[-93.20092070399994,18.434574283433367],[-93.20520199199996,18.430915701433456],[-93.21052747099998,18.430471804433438],[-93.21036092199995,18.431896675433443],[-93.20684764799995,18.432497489433434],[-93.20501046599998,18.441211670433212],[-93.20643219399994,18.439228985433235],[-93.21416137799997,18.441203995433213],[-93.21386599099998,18.446966626433042],[-93.21476863599997,18.442274397433156],[-93.23226362299994,18.43990088543321],[-93.31584749099996,18.43817074043324],[-93.38888493699996,18.434084237433346],[-93.43986956699996,18.427237318433537],[-93.51005408999998,18.412432306433967],[-93.58551981999994,18.392095079434473],[-93.80965122299995,18.315591840436518],[-93.83186202199994,18.308779025436664],[-93.84622444799999,18.306102132436727],[-93.84486220699995,18.303059991436825],[-93.84606383499994,18.300198689436908],[-93.84450872399998,18.301001988436873],[-93.84768170999996,18.298150569436995],[-93.85051057899996,18.29855462143694],[-93.84958488499996,18.302971115436833],[-93.85017499099996,18.300610690436876],[-93.93858362999998,18.27401133943762],[-94.02377384999994,18.24604788143832],[-94.12588607599997,18.21645300543914],[-94.13002516999995,18.21285119943922],[-94.12915442999997,18.175140419440226],[-94.12785301999998,18.169877179440387],[-94.12563851099998,18.16669099944047],[-94.12029964999994,18.164959169440483],[-94.10946071999996,18.173411319440298],[-94.10606571999995,18.174212679440235],[-94.10142693999995,18.172465229440302],[-94.09790801999998,18.168358579440426],[-94.09388791999999,18.155370249440722],[-94.09825637999997,18.14809168944095],[-94.10100254999998,18.131851709441356],[-94.10044356999998,18.1259159394415],[-94.09613331999998,18.111891489441913],[-94.08158825999999,18.099914289442243],[-94.08245965999998,18.09142313944247],[-94.09527694999997,18.08403794944263],[-94.09720541999997,18.079729679442774],[-94.09428191999996,18.07360127944291],[-94.08461744999994,18.06933974944302],[-94.07927657999994,18.062310979443232],[-94.07439936999998,18.0589478594433],[-94.07801559999996,18.043075909443704],[-94.08355705999998,18.033903649443996],[-94.07985270999995,18.022327459444288],[-94.08366307999997,18.00612517944469],[-94.08116839999997,18.004522017444746],[-94.07273274999996,18.010140849444586],[-94.06652362999995,18.009396199444602],[-94.06424602999994,18.00233836944484],[-94.06699227999998,17.992537139445048],[-94.06548725,17.990030229445157],[-94.06140030999995,17.988124339445214],[-94.06851631999996,17.979592649445394],[-94.07119730999995,17.980908689445368],[-94.07129896999999,17.986881662445246],[-94.07353268999998,17.987770579445225],[-94.07623831999996,17.98226413944534],[-94.08250047999998,17.9779535094455],[-94.08014431999999,17.972397799445634],[-94.08074627999997,17.968339199445737],[-94.08888842999994,17.97062022944567],[-94.09199011999999,17.9619319394459],[-94.08714876999996,17.95839593944599],[-94.08719594999997,17.95176201944616],[-94.09023310999999,17.946886709446307],[-94.08864136999995,17.940922079446466],[-94.09132710999995,17.936572339446574],[-94.08994645999996,17.92693428944685],[-94.08622614999997,17.92182764944698],[-94.08497336999994,17.915530579447136],[-94.08800991999999,17.906480819447395],[-94.08182211999997,17.899911019447547],[-94.08513513999998,17.892874089447766],[-94.07930881999994,17.891045849447803],[-94.08288376999997,17.885771969447937],[-94.08308959999994,17.881194059448035],[-94.08142159999994,17.878069829448158],[-94.08386554999998,17.872945349448287],[-94.08343074999999,17.869868489448343],[-94.07627257999997,17.868756909448383],[-94.07230093999999,17.86555885944844],[-94.06511344999996,17.868453779448377],[-94.06484813999998,17.86414641944851],[-94.06260454999995,17.863087799448557],[-94.05374877999998,17.867648629448446],[-94.05198237999997,17.87074319944833],[-94.04742156999998,17.87058062944834],[-94.04287642999999,17.8674399094484],[-94.04162425999999,17.868305349448416],[-94.04289808999994,17.873506429448284],[-94.03315847999994,17.87255721944827],[-94.03315859999998,17.87033808944837],[-94.03799322999998,17.86997208944833],[-94.03753442999994,17.862658779448555],[-94.03268201999998,17.86212641944854],[-94.03286496999999,17.85491997944873],[-94.02982281999994,17.85330984944882],[-94.02855610999995,17.850638549448863],[-94.02944750999995,17.845669539449027],[-94.02303867999996,17.846257249449],[-94.02279679999998,17.844186479449075],[-94.02632659999995,17.841932369449104],[-94.02594742999997,17.840380619449167],[-94.02226290999994,17.84112227944911],[-94.01702710999996,17.83955496944916],[-94.01755996999998,17.843109479449083],[-94.01634294999997,17.844492379449058],[-94.00622607999999,17.839954779449126],[-94.00296837999997,17.84225513944912],[-93.99792662999994,17.83710428944925],[-93.99561230999996,17.83661807944924],[-93.99387305999994,17.839495719449168],[-93.99763750999995,17.839520339449148],[-93.99461467999998,17.846020109448975],[-93.99035974999998,17.83547344944927],[-93.98787081999996,17.834358249449288],[-93.98626850999995,17.836348199449233],[-93.98823917999994,17.84472084944902],[-93.98596039999995,17.844392919449064],[-93.98317261999996,17.839857149449163],[-93.98116908999998,17.84603333944902],[-93.98164461999994,17.847202549448983],[-93.98624362,17.84705893944899],[-93.98456725999995,17.85157493944882],[-93.97594836999997,17.8503722494489],[-93.97317925999995,17.842335919449074],[-93.96778616999995,17.845252339449022],[-93.96562364999994,17.841404259449117],[-93.96858739999999,17.838915079449187],[-93.96787885999998,17.83704665944923],[-93.96289504999999,17.834308049449316],[-93.95983876999998,17.837271049449203],[-93.95595002999994,17.833395179449298],[-93.95744271999996,17.82531527944954],[-93.95915547999994,17.826154019449515],[-93.95844454999997,17.830243849449406],[-93.96499468999998,17.829967549449428],[-93.96311776999994,17.824042449449564],[-93.95832777999999,17.819728999449698],[-93.96246677999994,17.81839933944972],[-93.96712142999996,17.819423949449696],[-93.96799616999994,17.81787167944975],[-93.96339844999996,17.812715649449867],[-93.95680096999996,17.810640249449953],[-93.95782751999997,17.80557344945008],[-93.96316787999996,17.799502259450247],[-93.96060173999996,17.798299289450256],[-93.96006344999995,17.80154499945016],[-93.95770688999994,17.802439739450183],[-93.95063139999996,17.800412419450208],[-93.95222861999997,17.79850917945027],[-93.95533971999998,17.799586149450228],[-93.95294708999997,17.786687949450567],[-93.95610381999995,17.781720179450698],[-93.94924721999996,17.773178289450925],[-93.94949856999995,17.769488779451063],[-93.94084801999998,17.76510601945119],[-93.93988661999998,17.762258309451237],[-93.94114362999994,17.759849719451285],[-93.93525945999994,17.75909684945131],[-93.93772199999997,17.755782279451413],[-93.94142982999995,17.75558007945143],[-93.94010726,17.753169909451476],[-93.93330425999994,17.751761079451516],[-93.92912550999995,17.753256799451464],[-93.92461376999995,17.75091342945151],[-93.92709681999997,17.74809437945162],[-93.92393930999998,17.74838028945161],[-93.92231462999996,17.746328339451658],[-93.92011561999999,17.7497042294516],[-93.91428734999994,17.749827849451552],[-93.91329630999996,17.75366859945143],[-93.91011941999994,17.75469101945143],[-93.90795019999996,17.75463524945142],[-93.90787088999998,17.75292627945149],[-93.90433336999996,17.75012248945153],[-93.90172377999994,17.75193139945151],[-93.90106887999997,17.75566931945139],[-93.89907136999994,17.753512259451455],[-93.89220573999995,17.753677349451443],[-93.89068557999997,17.75112690945153],[-93.89386324999998,17.75143844945149],[-93.89388491999995,17.749646259451602],[-93.89128016999996,17.748080779451623],[-93.88665891999995,17.75101579945155],[-93.88790339999997,17.75377307945144],[-93.88534876999995,17.757224719451386],[-93.88309825999994,17.75657468945137],[-93.88488735,17.754268289451428],[-93.88123702999997,17.75129821945151],[-93.87704877999995,17.756563579451363],[-93.87744531999994,17.753640339451472],[-93.87423610999997,17.755290199451416],[-93.87003316999994,17.750609649451555],[-93.87466808999994,17.747206309451617],[-93.87040245999998,17.743893249451723],[-93.86960850999998,17.73932330945183],[-93.87263521999995,17.740884819451843],[-93.87432614999994,17.739929089451813],[-93.87376016999997,17.734662969451964],[-93.87712084999998,17.735585909451956],[-93.878224,17.73751879945188],[-93.88366159999998,17.735533779451927],[-93.87616259999999,17.733298939452023],[-93.88039516999999,17.728840679452155],[-93.88072221999994,17.726277619452222],[-93.87749351999997,17.72440814945224],[-93.87586297999997,17.726528879452193],[-93.87441639999997,17.717888479452434],[-93.86999707999998,17.713536029452552],[-93.86640881999995,17.714073029452543],[-93.86721757999999,17.716146279452456],[-93.86461927999994,17.71671567945245],[-93.86918279999998,17.717978719452443],[-93.86499602999999,17.72218662945233],[-93.85867857999995,17.72089053945232],[-93.86040493999997,17.7178314794524],[-93.85928591999999,17.71685271945248],[-93.85617631999997,17.719503479452403],[-93.84858130999999,17.72070888945232],[-93.84819756999997,17.718000619452436],[-93.85040267999995,17.716656219452467],[-93.84699616999997,17.7140932594525],[-93.84589041999999,17.717187259452455],[-93.84302008999998,17.711366579452616],[-93.83883585999996,17.71149005945262],[-93.83991213999997,17.714900449452536],[-93.83738056999994,17.713611079452566],[-93.83490716999995,17.716549739452475],[-93.83045721999997,17.71370168945254],[-93.82849647999996,17.718470569452382],[-93.82658642999996,17.719191619452406],[-93.82671591999997,17.714738739452486],[-93.82864664999995,17.712940149452574],[-93.82351079999995,17.709428599452625],[-93.82599556999998,17.705959399452745],[-93.82288677999998,17.704100049452762],[-93.82234067999997,17.699576509452903],[-93.82145337999998,17.70108359945289],[-93.81932611999997,17.699467939452898],[-93.81254059999998,17.706923169452708],[-93.81066328999998,17.70617470945272],[-93.81260942999997,17.702517939452854],[-93.80698907999994,17.70591902945277],[-93.80516485,17.70337344945283],[-93.80724050999999,17.69725981945299],[-93.80515465999997,17.689355509453183],[-93.79889114999997,17.687403319453235],[-93.79626193999997,17.6899042894532],[-93.79784967999997,17.69224457945308],[-93.79204511999995,17.692619049453132],[-93.79106522999996,17.694737179453057],[-93.78708279999995,17.694246549453073],[-93.78478630999996,17.69090248945314],[-93.78123222999994,17.693237509453112],[-93.78222413999998,17.690060059453177],[-93.78052297999994,17.688672349453203],[-93.77793508999999,17.68992794945315],[-93.77830185999996,17.69242984945311],[-93.77608233999996,17.690345449453165],[-93.77256987999999,17.692708979453123],[-93.77293285999997,17.68765353945323],[-93.77035811999997,17.686784109453285],[-93.76820179999999,17.687954179453257],[-93.76504125999998,17.674573249453577],[-93.76329782999994,17.67507791945356],[-93.76535739999997,17.680522029453453],[-93.75976807999996,17.685116709453304],[-93.75755594999998,17.68362699945335],[-93.75469930999998,17.685919859453307],[-93.75178888999994,17.683986549453333],[-93.75269070999997,17.682213629453365],[-93.75653471999999,17.682624349453356],[-93.75671913999997,17.676872459453506],[-93.75319396999998,17.680171779453413],[-93.75183631999994,17.67656356945353],[-93.75103274999998,17.67932433945346],[-93.74907597999999,17.679245419453448],[-93.74783533999994,17.675384319453542],[-93.73851085999996,17.67937014945348],[-93.73969388999996,17.67519934945359],[-93.74223087999997,17.67523234945357],[-93.74396376999994,17.6707277994537],[-93.74707930999995,17.668350569453736],[-93.74562028999998,17.662220339453896],[-93.74241167999998,17.666539939453816],[-93.74108124999998,17.66478242945386],[-93.74287502999994,17.660728689453958],[-93.74658265999994,17.660114709453993],[-93.74482502999996,17.657129999454057],[-93.74250397999998,17.657095079454038],[-93.74089090999996,17.649405709454264],[-93.73743396999998,17.65169734945422],[-93.73269194999995,17.649162219454276],[-93.72999173999995,17.64128973945448],[-93.73718788999997,17.63743024945456],[-93.73798754999996,17.63495047945465],[-93.73773462999998,17.631619649454752],[-93.73528021999994,17.63008187945477],[-93.73234519999994,17.635850279454637],[-93.73102468999997,17.635833339454617],[-93.73357937999998,17.629153259454828],[-93.73288259999998,17.625760229454873],[-93.72911916999999,17.62986524945477],[-93.72634335,17.626592939454863],[-93.72354656999994,17.626206339454903],[-93.72344053999996,17.62315262945498],[-93.71833177999997,17.622954889454995],[-93.71472816999994,17.620853079455056],[-93.71251430999996,17.622008309455026],[-93.71206105999994,17.62384473945495],[-93.71355077,17.62281301945495],[-93.71318233999995,17.62550721945489],[-93.71552784999994,17.62620911945489],[-93.71917041999997,17.63346351945473],[-93.7131836,17.630670029454755],[-93.71325164999996,17.628701319454834],[-93.71023491999996,17.627289459454847],[-93.70849268999996,17.623415849454982],[-93.71047297999996,17.61408079945524],[-93.70969133999995,17.61163297945526],[-93.70699681999997,17.61225344945525],[-93.70413096999994,17.610299139455325],[-93.69965744999996,17.613685619455246],[-93.70132414999995,17.607761539455403],[-93.69946416999994,17.596023889455672],[-93.69333431999996,17.589555169455867],[-93.69140391999997,17.590716489455826],[-93.69320857999998,17.593495399455765],[-93.68720936999995,17.593694369455754],[-93.68494233999996,17.592433799455783],[-93.68627777999997,17.59030865945587],[-93.68541884999996,17.587086349455934],[-93.67761031999999,17.585869519456],[-93.67731084999997,17.584720779456006],[-93.67963273999999,17.585899479455954],[-93.68081337999998,17.58492761945599],[-93.67727777999994,17.579164619456137],[-93.67731027999997,17.575766749456264],[-93.67109973999999,17.576252819456226],[-93.67121857999996,17.569560619456425],[-93.66785633999996,17.569756879456413],[-93.65916927999996,17.56548633945653],[-93.65943391999998,17.559073369456666],[-93.65654205999994,17.55523807945679],[-93.65456350999995,17.555499339456777],[-93.65369005999999,17.55997269045666],[-93.64942837899997,17.557761429456708],[-93.64848233999999,17.555345649456793],[-93.64382968799998,17.55559907645681],[-93.64237927899995,17.558107660456745],[-93.63829179899994,17.555288280456814],[-93.63177967899998,17.556879940456735],[-93.62887495399997,17.554173884456848],[-93.63133881899995,17.549981980456916],[-93.62501373899994,17.54873590945699],[-93.61949064999999,17.554295289456807],[-93.61524659999998,17.55511178045681],[-93.613497022,17.552207687456907],[-93.621529599,17.544826219457104],[-93.61818474899997,17.54210497045717],[-93.61956474899995,17.537558600457288],[-93.62469184899999,17.538263525457246],[-93.62726324999994,17.531682219457423],[-93.62788125999998,17.528546139457536],[-93.62512217999995,17.526283169457592],[-93.62665605999996,17.523997369457668],[-93.62502076999999,17.51463707945791],[-93.62934321999995,17.513091579457917],[-93.63093285999999,17.51037673945799],[-93.63734107999994,17.509813629458034],[-93.63455384999997,17.50721642945807],[-93.62903701999994,17.506477519458098],[-93.62607154999996,17.504421279458153],[-93.62545394999995,17.50099834945824],[-93.62916994999995,17.502025049458222],[-93.62990925999998,17.500876629458272],[-93.62410484999998,17.49345722945846],[-93.63124776999996,17.48693219945866],[-93.63164194999996,17.481973979458797],[-93.63696347999996,17.47387294945899],[-93.63570124999995,17.468063679459163],[-93.63995645999995,17.464631029459273],[-93.63934251999996,17.45958519945938],[-93.64044351999996,17.458820829459384],[-93.64771241999995,17.46174408945931],[-93.65041402999998,17.4588546594594],[-93.64949226,17.457101179459453],[-93.6473936,17.459188629459362],[-93.64463156999994,17.458597969459387],[-93.64414141999998,17.456414139459472],[-93.64686236999995,17.45423090945951],[-93.64415711999999,17.452171199459592],[-93.64294805999998,17.452348419459604],[-93.64246233999995,17.456069969459467],[-93.63659739999999,17.455276879459483],[-93.63513511999997,17.451247029459598],[-93.64132650999994,17.44912162945965],[-93.64398062999999,17.446556369459735],[-93.64279053999996,17.443437059459836],[-93.64517987999994,17.442401579459816],[-93.64213830999995,17.43941645945995],[-93.63717467999999,17.43912425945991],[-93.63820631999994,17.43608625945999],[-93.64534573999998,17.4329681194601],[-93.64562701999996,17.430326489460146],[-93.64930974999999,17.432471379460097],[-93.65355414999999,17.42140741946039],[-93.65294985999999,17.419630319460474],[-93.65573828999999,17.419912369460484],[-93.65757928999994,17.416906739460536],[-93.66021768999997,17.416255939460545],[-93.66127504999997,17.419265019460486],[-93.66308390999995,17.41970384946049],[-93.66573973999994,17.41600053946053],[-93.66706453999997,17.420007049460445],[-93.67073974999994,17.418826489460507],[-93.67299630999997,17.41991830946048],[-93.67384634999996,17.418196739460488],[-93.67173781999998,17.417451419460555],[-93.67341873999999,17.412273339460675],[-93.67713084999997,17.410253219460746],[-93.67899604999997,17.410966859460668],[-93.68373936999996,17.4044566194609],[-93.68190227999997,17.40157187946096],[-93.68353873999996,17.395628179461134],[-93.68504047999994,17.394016169461143],[-93.68712611999996,17.39557473946109],[-93.68877250999998,17.39321245946115],[-93.68796959999999,17.391440449461236],[-93.69492021999997,17.38780436946129],[-93.69181059999994,17.385201799461406],[-93.69170302999999,17.382292689461462],[-93.68948376999998,17.38233216946146],[-93.69009331999996,17.37954781946152],[-93.68580773999997,17.37712945946161],[-93.68460230999995,17.378192679461574],[-93.68314697999995,17.3764130894616],[-93.68297064999996,17.373563779461698],[-93.68428782999996,17.376097599461627],[-93.68574717999996,17.372367569461737],[-93.63495854999996,17.33770185946267],[-93.63956407999996,17.33497945946276],[-93.63967761999999,17.33275593946279],[-93.64174525999994,17.331246089462837],[-93.64514899999995,17.330734309462844],[-93.64533454999997,17.327773229462945],[-93.64216256999998,17.323443999463063],[-93.64298217999999,17.3218398194631],[-93.64150288999998,17.317953139463206],[-93.63586808999999,17.314354519463304],[-93.62743196999998,17.31284314946335],[-93.62503311999996,17.31588190946325],[-93.62649187999995,17.316207689463273],[-93.62662041999994,17.31828644946323],[-93.62438667999999,17.322481309463107],[-93.61855474999999,17.321726419463115],[-93.60793981599994,17.314930020463304],[-93.52604008999998,17.426785879460283],[-93.52410442999997,17.429646140460175],[-93.52532004999995,17.430802289460136],[-93.52435267999994,17.43288423046011],[-93.52044473999996,17.434685290460052],[-93.51943122899996,17.43952298045992],[-93.51544148899995,17.44033317945989],[-93.51380471999994,17.44280526045984],[-93.51368534999995,17.44553634945976],[-93.51101154999998,17.448369370459705],[-93.51226304999994,17.452473860459563],[-93.51163297999994,17.45954385045936],[-93.50838288899996,17.462571149459276],[-93.50713174999999,17.466488169459193],[-93.50832539899994,17.469006949459132],[-93.50702024999998,17.470438419459093],[-93.50816302899995,17.46996222045911],[-93.50796317899994,17.47206728045901],[-93.50940433899996,17.470902350459085],[-93.50983741999994,17.473994679458976],[-93.50720925999997,17.474071550459],[-93.50913477899996,17.475844630458926],[-93.50604141999997,17.477491200458932],[-93.50849586,17.47951867945886],[-93.50759281899997,17.48117320045879],[-93.51155990999996,17.483242689458752],[-93.51117850899999,17.485667229458674],[-93.51402234999995,17.486344400458655],[-93.51287945999997,17.48842002945859],[-93.51487859899999,17.49032281945858],[-93.51199902899998,17.491446940458527],[-93.50916682999997,17.490481050458577],[-93.50765857899995,17.49344964945848],[-93.50961894999995,17.493860399458477],[-93.50858901899994,17.49608658045839],[-93.50734216899997,17.496703800458356],[-93.50637622999994,17.49380795045847],[-93.50501539999999,17.49542131945841],[-93.50439937999994,17.49753164945834],[-93.50755819999995,17.50140405045826],[-93.50334724899994,17.501288229458265],[-93.50474645999999,17.499720950458276],[-93.50252127999994,17.499522579458333],[-93.50230859999994,17.507247429458108],[-93.49914541999999,17.511413259457964],[-93.50135417899997,17.51302565045796],[-93.49928474999996,17.51414263045788],[-93.49978245899996,17.51793359945781],[-93.49856067999997,17.51657985945783],[-93.49974508999999,17.51930505045778],[-93.49712447999997,17.521514659457697],[-93.49880691899995,17.522249460457694],[-93.49561682899997,17.522728969457688],[-93.49428113999994,17.53125609045744],[-93.49062642999996,17.535129050457357],[-93.48414581999998,17.54987654945692],[-93.48156122899996,17.55199219945687],[-93.47297524999999,17.55349367945683],[-93.45864953899996,17.54561417945704],[-93.45170704899994,17.546484229457015],[-93.44796987899997,17.58076043045611],[-93.44594561999997,17.585985689455956],[-93.42735924999994,17.587364340455952],[-93.42048990899997,17.59004794045583],[-93.41451074999998,17.60265037945553],[-93.40959928999996,17.619297859455095],[-93.40410339999995,17.624142259454935],[-93.39918114999995,17.625850749454884],[-93.39658619999994,17.629594419454794],[-93.38496828999996,17.63417610945467],[-93.38478871999996,17.64437793945437],[-93.36196219999994,17.646287919454377],[-93.35627776999996,17.648037449454314],[-93.36050385999994,17.66489407945387],[-93.35378456999996,17.681074749453416],[-93.35672216999995,17.68715073945325],[-93.35594402999999,17.69286059945312],[-93.35322982999998,17.696750379452972],[-93.35579253999998,17.699766449452888],[-93.35357522999999,17.701742879452844],[-93.35440954999996,17.704020909452794],[-93.35323596999996,17.70466802945278],[-93.35403785999995,17.706168739452753],[-93.35292825999994,17.70584911945274],[-93.35377981999994,17.707396489452723],[-93.35519568999996,17.70639364945273],[-93.35646774999998,17.710623459452595],[-93.35430234999995,17.71288217945257],[-93.35869534999995,17.71694161945246],[-93.36005447999997,17.722466649452315],[-93.36156473999995,17.72348942945225],[-93.36270545999997,17.72201779945232],[-93.36397441999998,17.723490519452266],[-93.36239994999994,17.7234109494523],[-93.36449844999999,17.72666684945221],[-93.36255184999999,17.728687979452165],[-93.36809791999997,17.72759937945219],[-93.36956461999996,17.729164489452142],[-93.36950537999996,17.733006059452006],[-93.37394656999999,17.732994769452038],[-93.37071216999999,17.734657819451982],[-93.36984887999995,17.737383049451907],[-93.38156611999995,17.748539649451605],[-93.39054782999995,17.773399709450924],[-93.38965914899995,17.77595537945084],[-93.38657054999999,17.777565289450813],[-93.38439334999998,17.773085290450926],[-93.38106885899998,17.77450567945092],[-93.37728479999998,17.771523799451003],[-93.37541994999998,17.76679801945113],[-93.35281967999998,17.763736199451184],[-93.34913508999995,17.767085279451113],[-93.34311187999998,17.787516679450587],[-93.35850307999999,17.788396319450552],[-93.36375853999994,17.782312569450696],[-93.36441870999994,17.77908431945077],[-93.37347062999999,17.781312379450693],[-93.37956814999995,17.78057509045075],[-93.38094848899999,17.783164950450683],[-93.37829473999994,17.784793569450617],[-93.37640877999996,17.79585234045034],[-93.37393122999998,17.795941819450334],[-93.37351028999996,17.793609980450377],[-93.37048596999995,17.794037429450402],[-93.36550025999998,17.79955565045023],[-93.36661094999994,17.802923319450144],[-93.36260110999996,17.80198531945014],[-93.35209247999995,17.795423459450348],[-93.34058597999997,17.79812054945025],[-93.34931076999999,17.815427599449833],[-93.34695854999995,17.82369904944962],[-93.33949368999998,17.83567411944924],[-93.33920396999997,17.840927969449126],[-93.34095290999994,17.84323502944909],[-93.33527351999999,17.846208829448962],[-93.33429510999997,17.85169888944881],[-93.33656314999996,17.856408479448696],[-93.34971271999996,17.8679627994484],[-93.35058276999996,17.876066029448197],[-93.34997485999997,17.882592349448],[-93.34429750999999,17.888464089447872],[-93.34459847999995,17.893787999447696],[-93.34126191999997,17.90314396944744],[-93.33602244999997,17.904986549447404],[-93.33930564999997,17.91494861944718],[-93.33884384999999,17.920485279446986],[-93.34076673999994,17.92364022944691],[-93.34089684999998,17.93033065944673],[-93.33667019999996,17.936601249446543],[-93.33073008999997,17.932294049446696],[-93.32855004999999,17.928781579446806],[-93.32583285999999,17.92791350944681],[-93.31353273999997,17.930864049446704],[-93.30770387999996,17.935870219446567],[-93.30295242999995,17.93582313944657],[-93.29800968999996,17.938581779446515],[-93.29536101999997,17.941788909446455],[-93.29838059999997,17.947861739446278],[-93.29547090999995,17.949704819446193],[-93.29354982999996,17.95712941944603],[-93.28770745999998,17.96101488944593],[-93.28300761999998,17.96749937944574],[-93.28141850999998,17.98235928944533],[-93.27832268999998,17.98528780044525],[-93.27821988899996,17.982579119445322],[-93.27336267899994,17.981966879445373],[-93.26815959899994,17.97428914944557],[-93.26146779999999,17.97013654044567],[-93.26048916799994,17.966069739445757],[-93.25671490999997,17.96304318044586],[-93.24530942999996,17.960090139445924],[-93.24092097999994,17.950094689446225],[-93.22997951999997,17.94904482944623],[-93.21699059999997,17.95710890944602],[-93.21265874999995,17.95722057944604],[-93.20735876999998,17.960637939445906],[-93.20074339999996,17.956371429446033],[-93.19200157999997,17.956135719446078],[-93.18845910999994,17.953634986446115],[-93.18314388999994,17.94030904944648],[-93.17899231899997,17.938902820446515],[-93.17266370999994,17.93973707944648],[-93.16731053999996,17.935235979446627],[-93.15787125999998,17.936362780446597],[-93.14968861799997,17.934899172446634],[-93.14507802899999,17.932352969446704],[-93.14486767999995,17.926040119446846],[-93.14707005899999,17.92378774944689],[-93.14598207899996,17.919926659447015],[-93.13693277999994,17.91835893944708],[-93.12912888999995,17.90785237944735],[-93.12240705999994,17.906822719447355],[-93.11499745999998,17.90898647944733],[-93.10497502899995,17.907419321447367],[-93.10082004899994,17.906034965447386],[-93.10137222999998,17.903080659447472],[-93.09734127999997,17.901090019447494],[-93.09598713999998,17.89848654944757],[-93.09137593999998,17.897561249447584],[-93.08970462999997,17.892674949447752],[-93.09195928999998,17.886575879447925],[-93.11156479999994,17.876583219448168],[-93.11362399999996,17.87709236944818],[-93.11425424999999,17.8753795394482],[-93.12137621999996,17.876645309448193],[-93.12362597999999,17.874450379448216],[-93.12470401999997,17.868176889448385],[-93.12360825999997,17.86777091944843],[-93.12943142899998,17.858757310448635],[-93.13027219999998,17.85288057944879],[-93.13180031999997,17.852316419448805],[-93.12902788899999,17.844741849449022],[-93.12040465999996,17.83388405944932],[-93.11564074999995,17.82221262944961],[-93.10164545999999,17.84582833944898],[-93.09408987999996,17.84117174944912],[-93.05870782999995,17.84419068944905],[-93.04312630899994,17.842577309449055],[-93.04445005999997,17.84059639944912],[-93.04130616999998,17.838287619449222],[-93.04027648999994,17.840934479449118],[-93.02543627999995,17.825418449449515],[-93.02725887999998,17.820324569449653],[-93.02046525999998,17.81419668944987],[-93.01948273999994,17.809366999449995],[-93.01641374899998,17.808134200449985],[-93.01955036999999,17.80312454945016],[-93.01591677999994,17.801148059450206],[-93.01573525899994,17.79809902945028],[-93.01224704999998,17.798490769450268],[-93.01217022999998,17.796168709450352],[-93.01401377999997,17.794940419450352],[-93.01201339999994,17.793669029450392],[-93.01394585999998,17.794266369450394],[-93.01477611999996,17.792202979450455],[-93.01870299999996,17.79070811945045],[-93.01733264999996,17.789372769450512],[-93.01837857999999,17.787052029450567],[-93.01591205999995,17.78534713945062],[-93.01892825999994,17.784126659450628],[-93.02001236999996,17.78065062945072],[-93.02385067999995,17.779119319450785],[-93.02341439999998,17.776591509450864],[-93.02662793999997,17.776448019450832],[-93.02600736999995,17.774578479450913],[-93.02780050999996,17.771644949450987],[-93.03722617999995,17.768989179451076],[-93.03659042999999,17.766354119451144],[-93.03951168999998,17.76674282945113],[-93.03986113999997,17.76992642945104],[-93.04263827999995,17.768411509451102],[-93.04316311999997,17.763910859451205],[-93.04534227999994,17.762229089451242],[-93.04437053999999,17.760484709451305],[-93.04776713999996,17.75835276945134],[-93.04568801999994,17.75604170945138],[-93.04606414999995,17.75306727945146],[-93.04869201999998,17.751089219451526],[-93.04661407999998,17.750059059451583],[-93.04686917,17.74843211945163],[-93.04951110999997,17.74750171945165],[-93.05001790999995,17.745204859451704],[-93.05199022999994,17.745593539451704],[-93.05135911999997,17.743072829451776],[-93.05280462999997,17.743886889451733],[-93.05427956999995,17.74240174945177],[-93.05233728999997,17.741731999451808],[-93.05419708999995,17.738286109451877],[-93.05304494999996,17.73687005945192],[-93.05522856999994,17.734702829451983],[-93.05411322999998,17.732039739452055],[-93.05539321999998,17.730370459452114],[-93.05412010999999,17.729314979452095],[-93.05724370999997,17.723439549452255],[-93.05535293999998,17.721777349452296],[-93.05772470999995,17.72048874945238],[-93.05347173999996,17.71878179945239],[-93.05501334999997,17.71706753945247],[-93.05362068999995,17.716116539452454],[-93.05478625999996,17.713199319452563],[-93.05384316999994,17.711415999452587],[-93.04978479999994,17.714187419452504],[-93.04798264999994,17.71107888945263],[-93.04436797999995,17.713387949452517],[-93.04205547999999,17.710330169452654],[-93.04333496999999,17.708797339452662],[-93.04478156999994,17.711077019452613],[-93.04479591999996,17.707975049452713],[-93.04149745999996,17.70748114945269],[-93.04314481999995,17.70437022945279],[-93.04075684999998,17.704125819452806],[-93.03885153999994,17.706817749452693],[-93.03940044999996,17.704504049452762],[-93.03775807999995,17.704919649452748],[-93.03711607999998,17.703381909452844],[-93.03754525999994,17.700999709452912],[-93.04023193999996,17.701042419452854],[-93.03788382999994,17.698607279452926],[-93.03993067999994,17.69810234945296],[-93.04080468999996,17.693562309453085],[-93.04027657999995,17.692551289453096],[-93.03714625999999,17.693669079453088],[-93.03840179999997,17.692505859453096],[-93.03792674999995,17.688364509453216],[-93.03911842999997,17.69196299945311],[-93.04111981999995,17.690492279453156],[-93.04203105999994,17.68638524945328],[-93.03854482999998,17.68421128945334],[-93.03797085999997,17.682592119453354],[-93.04070233999994,17.682310479453395],[-93.03790304999995,17.680657079453436],[-93.04181596999996,17.680677919453426],[-93.04040144999999,17.674681049453593],[-93.04442991999997,17.6734062494536],[-93.04042382999995,17.668497319453735],[-93.04110824999998,17.667106139453793],[-93.04504622999997,17.667311629453764],[-93.04338214999996,17.662923599453904],[-93.04365959999996,17.660020539453996],[-93.04545764999995,17.659105449453975],[-93.04514929,17.640017679454495],[-93.04260294999995,17.626112519454892],[-93.04414908999996,17.620045949455076],[-93.04088590999999,17.61526130945519],[-93.04194167999998,17.61355345945523],[-93.04023911999997,17.61200862945526],[-93.04052533999999,17.609828149455335],[-93.02952416999996,17.597751259455652],[-93.01496665999997,17.591469579455797],[-93.01065294999995,17.580491679456088],[-93.00709973999994,17.581495579456067],[-93.00448753999996,17.579587649456162],[-93.00581296999997,17.578890289456176],[-93.00435164999999,17.5776311394562],[-93.00592341999999,17.576688259456198],[-93.00424287999994,17.575875949456265],[-93.00614901999995,17.571408569456395],[-93.00448884899998,17.569173819456427],[-93.00711521899996,17.565647599456508],[-93.00575734999995,17.56434625045658],[-93.00769397999994,17.561331319456617],[-93.00581001999996,17.559282770456676],[-93.00556524999996,17.555248019456766],[-93.00006205999995,17.551931429456868],[-92.98834047999998,17.550005949456967],[-92.98938219999997,17.544006659457086],[-92.98837059999994,17.54135222945715],[-92.98048967999995,17.53756282945729],[-92.97975736999996,17.535730859457335],[-92.98219067999997,17.533443399457404],[-92.99085031999994,17.531943369457398],[-92.99264831999994,17.530015719457477],[-92.98299668999994,17.51891391945778],[-92.98563477999994,17.515170219457904],[-92.98487341999999,17.51130785945797],[-92.97865914999994,17.512591029457965],[-92.97839411999996,17.51481233945789],[-92.97488808999998,17.51695387945786],[-92.97506457999998,17.518638739457764],[-92.96804211999995,17.517972719457802],[-92.96570101999998,17.51040313945801],[-92.96269342999994,17.507178539458085],[-92.96257831999998,17.503265549458185],[-92.95900757999999,17.497397859458346],[-92.95806751999999,17.49197422945849],[-92.94811982999994,17.482743019458745],[-92.94465848999994,17.48331147945875],[-92.94448104999998,17.48726659945864],[-92.94155364999995,17.490781089458533],[-92.94179844999996,17.496631149458377],[-92.93969153999997,17.49835676945833],[-92.94029742999999,17.499940379458295],[-92.93850239999995,17.499813879458276],[-92.93919942999997,17.502447309458212],[-92.92046113999999,17.502677799458237],[-92.91629467999998,17.498902879458335],[-92.91293753999997,17.49821305945836],[-92.91034841999999,17.49948354945829],[-92.91065596999994,17.502372419458208],[-92.90729190999997,17.50520274045817],[-92.90455030999999,17.503272739458207],[-92.89806204999996,17.503001689458234],[-92.88735616999998,17.510463539457994],[-92.86618974999999,17.504327309458183],[-92.85980874999996,17.500281549458297],[-92.85568948999997,17.478965939458835],[-92.84987591999999,17.46897813945912],[-92.83610014999994,17.47487221945898],[-92.83429497999998,17.4774311694589],[-92.83584984999999,17.48052450945883],[-92.83390199999997,17.48218764945879],[-92.83155247999997,17.480857169458794],[-92.82831756999997,17.470500339459093],[-92.82690888999997,17.453627199459522],[-92.82225572,17.45220162945958],[-92.81963084999995,17.432745949460084],[-92.82227976999997,17.427110249460267],[-92.82582474999998,17.42378421946037],[-92.85619101999998,17.4188762194605],[-92.85426445999997,17.411197629460702],[-92.83807427999994,17.403530109460917],[-92.82921631999994,17.39630048946109],[-92.82758173999997,17.398953849461023],[-92.83064290999994,17.405006799460825],[-92.82939959999999,17.40859933946073],[-92.80627730999998,17.41056213946068],[-92.80016373999996,17.413844519460618],[-92.79105428999998,17.41501013946058],[-92.78579470999995,17.41752728946053],[-92.78564828999998,17.41458722946061],[-92.79079422999996,17.40498513946087],[-92.77436801999994,17.392252539461218],[-92.76830899999999,17.385504119461398],[-92.76705654999995,17.381237889461474],[-92.77066330999997,17.36039631946208],[-92.75873741999999,17.35819777946215],[-92.75832859999997,17.349113139462368],[-92.75418019999995,17.34329865946255],[-92.72950833999994,17.348128509462388],[-92.70851933999995,17.363407539461953],[-92.70408959999997,17.36360179946195],[-92.69706059999999,17.36974339946182],[-92.67876502999997,17.378493569461575],[-92.67770273999997,17.379988619461546],[-92.67851537999996,17.397749349461034],[-92.67623874999998,17.411619419460653],[-92.66790536999997,17.425954829460267],[-92.66818514999994,17.456694569459433],[-92.66579585999995,17.45684674945947],[-92.65940827999998,17.444284739459807],[-92.65453248999995,17.455662599459487],[-92.64886585999994,17.46069941945934],[-92.64135902999999,17.46349213945925],[-92.62433802999999,17.46586339945921],[-92.60582513999998,17.477375739458918],[-92.59406365999996,17.492952229458496],[-92.59990142999999,17.500800019458264],[-92.59391433999997,17.505109649458177],[-92.59234301999999,17.509617249458053],[-92.59230736999996,17.512891599457937],[-92.59698968999999,17.520359649457735],[-92.57141091999995,17.549608619456976],[-92.55994259999994,17.544794429457056],[-92.55803053999995,17.540225419457215],[-92.53007341999995,17.54999841945696],[-92.51998488999999,17.57304976945634],[-92.50859259999999,17.5739548294563],[-92.49719636999998,17.57224914945635],[-92.48468836999996,17.574920739456264],[-92.47381147999994,17.574569799456295],[-92.46761690999995,17.577118859456203],[-92.45622439999994,17.5730242794563],[-92.44504987999994,17.57433219945631],[-92.43677564999996,17.570096879456408],[-92.42123687999998,17.57724370945622],[-92.41781177999997,17.576364799456197],[-92.40821958,17.580620059456127],[-92.40207859999998,17.57804010945621],[-92.40085813999997,17.586032549455947],[-92.35067370999997,17.617934059455102],[-92.35119542999996,17.62473942945492],[-92.35627970999997,17.6360050294546],[-92.35802893999994,17.636295999454642],[-92.35813167999999,17.64195913945445],[-92.35585768999994,17.642013369454446],[-92.35494144999996,17.654056059454167],[-92.34915948999998,17.654727519454124],[-92.34989702999997,17.70278471945285],[-92.34588934999994,17.701557149452857],[-92.34380102999995,17.702074349452825],[-92.34365119999995,17.704066259452794],[-92.34012921999994,17.70375797945279],[-92.33823065999997,17.70623364945275],[-92.33734725999994,17.71208962945257],[-92.32955930999998,17.710712859452624],[-92.32808996999995,17.71373002945251],[-92.32158924999999,17.709804109452637],[-92.31527811999996,17.709671059452656],[-92.31331591999998,17.70451181945279],[-92.30867153999998,17.70628477945272],[-92.29835468999994,17.703236939452836],[-92.29480094999997,17.69992941945291],[-92.28868153999997,17.702667339452848],[-92.27462288999999,17.692258049453145],[-92.22933756999998,17.74558085945171],[-92.19449939999998,17.776641179450877],[-92.18848714999996,17.768134629451115],[-92.17195017999995,17.786567849450574],[-92.15245401999994,17.779065569450783],[-92.15170816999995,17.764568879451186],[-92.13082541999995,17.766080349451123],[-92.12991342999999,17.766974419451117],[-92.13204721999995,17.770278149450995],[-92.13255447099993,17.77506394045088],[-92.13597188999995,17.779012309450778],[-92.12713807999995,17.7858983794506],[-92.14662262999997,17.81241956944987],[-92.14658276999995,17.814675999449854],[-92.12048162999997,17.795972689450323],[-92.10553517999995,17.81293871944986],[-92.10460130999996,17.827626019449454],[-92.09939825999999,17.834633569449295],[-92.10646288999999,17.838127049449177],[-92.10203334999994,17.85088016944885],[-92.09049762999996,17.85072777944887],[-92.09046881999996,17.856599489448723],[-92.06829519999997,17.84868984944891],[-92.05630821999995,17.84675444944897],[-92.05342868999998,17.8484939394489],[-92.05339768999994,17.85267933944883],[-92.04940707999998,17.854772029448757],[-92.04844937999997,17.85803805944869],[-92.05245797999999,17.867246109448427],[-92.06054174999997,17.871871679448272],[-92.06730768999995,17.870352919448365],[-92.07206828999995,17.87451822944821],[-92.07179704999999,17.87767364944817],[-92.06707322999995,17.8764057694482],[-92.02969893999995,17.88914393944784],[-92.01970790999997,17.887823919447897],[-92.02060819999997,17.891803999447763],[-92.01924965999996,17.895472079447664],[-92.01554662999996,17.897501119447636],[-92.00335505999999,17.89051817944783],[-92.00050161999997,17.898736939447577],[-91.99840254999998,17.89896577944756],[-91.99128973999996,17.919612309447025],[-91.99988788999997,17.94334464944637],[-91.99567108999997,17.94258996944639],[-91.99048981999994,17.936021779446563],[-91.98515524999999,17.920389059447004],[-91.97845256999994,17.91368864944717],[-91.96993096999995,17.91039525944725],[-91.94498617999994,17.91025950944729],[-91.93959784999998,17.906293059447375],[-91.93943417999998,17.90111494944749],[-91.95683276999995,17.87992990944808],[-91.95708156999996,17.870640259448354],[-91.95260864999995,17.865408049448472],[-91.94840916999999,17.863308349448545],[-91.93759204999998,17.864488399448472],[-91.92806133999994,17.87082250944831],[-91.92390556999999,17.88238519944801],[-91.92549682999999,17.891934169447786],[-91.92343341999998,17.895580919447667],[-91.91812768999995,17.89951964944757],[-91.91247056999998,17.89980765944752],[-91.90296681999996,17.896034229447654],[-91.89416147999998,17.88750025944786],[-91.87068930999999,17.890780719447815],[-91.85793714999994,17.884649169447954],[-91.84968628999997,17.88286459944802],[-91.83540556999998,17.886592819447888],[-91.81618437999998,17.900146339447545],[-91.81252125999998,17.900372029447524],[-91.80994311999996,17.898248279447618],[-91.80887416999997,17.883556219448003],[-91.80436873999997,17.868866449448362],[-91.79796679999998,17.86213104944858],[-91.78187293899998,17.854288220448762],[-91.77969045999998,17.851298579448844],[-91.78068342999995,17.847130169448977],[-91.79038699999995,17.835416719449295],[-91.79237157999995,17.82451693944954],[-91.79082421999999,17.814187419449844],[-91.78222099999994,17.791952259450454],[-91.78225311999995,17.782484629450707],[-91.78859434999998,17.75651547945142],[-91.79115888999996,17.756539029451396],[-91.79204591999996,17.750128169451543],[-91.79016173999997,17.74601810945164],[-91.79836865999994,17.744183479451735],[-91.81032502999994,17.751323339451535],[-91.83066168999994,17.737677229451872],[-91.82131813999996,17.731960779452066],[-91.81843394999999,17.727432229452152],[-91.79542961999994,17.722742850452324],[-91.78651587999997,17.71902567945242],[-91.78401453999999,17.71674120045246],[-91.78273711999998,17.710592799452606],[-91.78053168999998,17.70781947945271],[-91.77595616999997,17.709158320452694],[-91.77660257999997,17.71543168045248],[-91.77149259999999,17.70998659945263],[-91.76785261999999,17.703115450452806],[-91.75391477999995,17.705347320452745],[-91.74824396999998,17.700177019452916],[-91.74437524999996,17.706724459452712],[-91.73880622999997,17.710808649452613],[-91.73855211999995,17.706884969452698],[-91.74138351999994,17.705774029452748],[-91.73793217999997,17.705393149452778],[-91.73824761999998,17.70284694945282],[-91.73652125999996,17.700574579452862],[-91.73403342999995,17.70019373945287],[-91.73329399999994,17.69658034045302],[-91.72476353999997,17.69206388945311],[-91.71921291999996,17.69327067945311],[-91.71985741999998,17.697509229452955],[-91.71754541999996,17.69840922945294],[-91.71847344999998,17.694768249453038],[-91.71464082999995,17.695014049453043],[-91.71724048999994,17.69277624945311],[-91.71707748999995,17.68774650945325],[-91.71272436999999,17.68933647945321],[-91.70823174999998,17.688130059453226],[-91.70452454999997,17.68985991045317],[-91.70403576999996,17.692225089453085],[-91.70103767999996,17.68967964945321],[-91.70095797999994,17.678939780453472],[-91.69669877999996,17.679606679453464],[-91.69914188999996,17.68276034045338],[-91.69694867999999,17.683181139453357],[-91.69655781999995,17.685391510453275],[-91.69371122999996,17.685001200453286],[-91.68302110999997,17.67557424945358],[-91.68321708999997,17.672665599453666],[-91.68137725999998,17.67013371945368],[-91.67842999999999,17.671255630453693],[-91.67922928999997,17.67446408045359],[-91.67688501999999,17.675294550453557],[-91.67299248999996,17.68347242945335],[-91.66582253999997,17.683518550453375],[-91.66451431999997,17.682053260453355],[-91.66573244999995,17.679997849453457],[-91.66099993999995,17.67876588945345],[-91.65854411999999,17.674809630453602],[-91.65474350999995,17.676157119453524],[-91.65930756999995,17.67030198045368],[-91.65900757999998,17.665935229453837],[-91.66433928999999,17.666660629453776],[-91.66039150999995,17.665524399453822],[-91.66057221999995,17.663595689453857],[-91.66244754999997,17.664189059453882],[-91.66360745999998,17.66215482945395],[-91.66141022999994,17.6626899094539],[-91.66057921999999,17.660280749453943],[-91.66324727999995,17.658040459454035],[-91.65865877999994,17.65645470945407],[-91.65878033999996,17.65418690945416],[-91.66064248999999,17.652936850454175],[-91.65976448999999,17.649194769454287],[-91.65649508999996,17.649533229454242],[-91.65405456999997,17.645229430454407],[-91.65526370999999,17.643004200454445],[-91.65673317999995,17.64563119945434],[-91.65652668999996,17.64313994945441],[-91.65851304999995,17.642464519454432],[-91.65878759999998,17.63970798045454],[-91.65594968999994,17.64192917945445],[-91.65601467999994,17.639554029454533],[-91.65281125999996,17.638570739454536],[-91.65325211999999,17.635829339454627],[-91.65617539999994,17.63601648045465],[-91.65444956999994,17.633962000454684],[-91.65808111999996,17.634539339454676],[-91.65790653999994,17.63199042045475],[-91.65431824999996,17.633016570454696],[-91.65591604999997,17.631838569454754],[-91.65490494999995,17.630548199454804],[-91.65989857999995,17.630447460454803],[-91.65672413999994,17.627779379454843],[-91.65703687999996,17.62543232045492],[-91.65219148999995,17.624837020454944],[-91.65182014999993,17.625909200454913],[-91.64456748999999,17.621924550455013],[-91.64732061999996,17.620999120455046],[-91.64674236999997,17.617901460455098],[-91.64789617999998,17.61901082945507],[-91.64971621999996,17.6177531194551],[-91.64970442999999,17.619312049455104],[-91.65219367999998,17.61975917045507],[-91.65079059999994,17.61725748045511],[-91.65699559999996,17.61533665945516],[-91.65679621999999,17.61220398045527],[-91.65948196999994,17.613633769455223],[-91.66356319999994,17.612167139455263],[-91.66063776999994,17.6112732604553],[-91.66222865999998,17.610571320455318],[-91.66219177999994,17.60856286045536],[-91.65672908999994,17.605823319455464],[-91.65694730999996,17.603994799455506],[-91.65285296999997,17.603213019455517],[-91.65308488999995,17.5986652804556],[-91.64922593999995,17.598003260455627],[-91.64768851999997,17.594177280455746],[-91.64462074999994,17.595703800455723],[-91.64391511999997,17.593715629455794],[-91.64708010999999,17.592402969455776],[-91.64433334999995,17.591453310455837],[-91.64714776999995,17.59019130945583],[-91.64470779999994,17.586823919455924],[-91.64403014999994,17.587879780455893],[-91.64234553999995,17.586748909455935],[-91.64324962999996,17.58420818045603],[-91.64139974999995,17.585012429456004],[-91.64066662999994,17.582183739456084],[-91.63882739999997,17.58146942945607],[-91.64055653999998,17.572638030456336],[-91.63877788999997,17.570831750456406],[-91.64161302999997,17.566342429456537],[-91.64009187999994,17.56099175045666],[-91.64103107999995,17.55801402945671],[-91.63965341999995,17.555304629456778],[-91.63804017999996,17.556657219456742],[-91.63776545999997,17.55202951945692],[-91.63476968999998,17.55050143045692],[-91.63497514999995,17.548222140456986],[-91.63791245999994,17.547092549457027],[-91.63704697999998,17.546168629457057],[-91.63578004999994,17.54742194945702],[-91.63482087999995,17.54511482045704],[-91.63681393999997,17.54587105945703],[-91.63728793999996,17.543121949457138],[-91.63569104999999,17.54270077945716],[-91.63918919999998,17.541593539457185],[-91.63751981899998,17.541428030457194],[-91.63894491999997,17.540649079457175],[-91.63657328999994,17.53957448045722],[-91.63697173999998,17.537846450457273],[-91.63428773999999,17.534624260457335],[-91.63749299999995,17.53205322045745],[-91.64005011999996,17.53313129045742],[-91.63918919999998,17.529610879457504],[-91.64043407999998,17.528222519457515],[-91.64249111999999,17.52901664945753],[-91.64141759999995,17.527159379457572],[-91.64289359999998,17.524921279457626],[-91.64063259999995,17.521233150457707],[-91.64182130999995,17.51892202945778],[-91.64431914999994,17.51722912045784],[-91.64907716999994,17.5177727404578],[-91.64802777999995,17.516255260457825],[-91.64919465999998,17.51572316945787],[-91.64924854999998,17.51135139945795],[-91.64659988999995,17.509141540458064],[-91.64831397999995,17.508982229458063],[-91.64800847999999,17.507195370458067],[-91.64994570999994,17.505785050458122],[-91.64825517999998,17.5058937404581],[-91.64725531999994,17.504046060458187],[-91.65059911999998,17.502588749458198],[-91.65031359999995,17.50015042945832],[-91.65244388999997,17.500405709458274],[-91.65007308999998,17.4956850794584],[-91.65192230999997,17.497475049458355],[-91.65447451999995,17.496694970458393],[-91.65279839999994,17.495657570458395],[-91.65416167999996,17.494706140458437],[-91.65207576999995,17.49381219945845],[-91.65221748999994,17.492193510458485],[-91.65584848999998,17.490427939458574],[-91.65715999999998,17.491251119458546],[-91.65678847999999,17.488509510458623],[-91.65811347999994,17.489018819458607],[-91.65917777999994,17.488067139458614],[-91.65768802999997,17.486655059458627],[-91.66102684999998,17.48737285945863],[-91.66281676999995,17.479816739458826],[-91.66432507999997,17.481692399458776],[-91.66601225999995,17.480291970458815],[-91.66685759999996,17.4821206004588],[-91.66785421999998,17.478210089458898],[-91.66941619999994,17.47974322945884],[-91.67106099999995,17.47871545945886],[-91.67020894999996,17.476400319458918],[-91.67263799999995,17.478141879458892],[-91.67091399999998,17.474498460458985],[-91.67467107999994,17.47403365945897],[-91.67463497999995,17.47153879945909],[-91.67678861999997,17.475882429458963],[-91.67672211999997,17.474126580459007],[-91.68190565999998,17.469447970459083],[-91.68989257999999,17.475063379458962],[-91.69204922999995,17.47294431945904],[-91.69209319999999,17.467021949459188],[-91.70013742999998,17.467517799459173],[-91.67296053999996,17.4618087994593],[-91.67163124999996,17.464493749459233],[-91.66520559999998,17.461660229459337],[-91.67204313999997,17.444058819459816],[-91.64332642999995,17.430987979460152],[-91.64273961999999,17.432007739460154],[-91.63733734999994,17.42995717946017],[-91.63488733999998,17.43649491945998],[-91.62020767999996,17.43170044946013],[-91.61748593999994,17.42624248946028],[-91.60894816999996,17.42549982946029],[-91.60689817999997,17.416891379460516],[-91.57968831999995,17.40734381946079],[-91.55879353999995,17.400529579460983],[-91.55785668999994,17.422244149460383],[-91.55243331999998,17.421506279460427],[-91.55209322999997,17.42256693946035],[-91.53724421999999,17.419736169460432],[-91.53684713999996,17.407362679460807],[-91.53032304999994,17.405499739460836],[-91.52727501999999,17.402356749460896],[-91.51724424999998,17.39823271946105],[-91.51508457999995,17.39482341946111],[-91.50993553999996,17.392202709461213],[-91.50500476999997,17.399482449461],[-91.50050033999997,17.398330079461044],[-91.49781602999997,17.39505291946114],[-91.48427307999998,17.38806159946133],[-91.45649562999995,17.375721539461626],[-91.45271588999998,17.375823169461643],[-91.44717644999997,17.38289936946148],[-91.43929845999997,17.384287369461408],[-91.43032070999999,17.377712949461582],[-91.41983261999997,17.374070679461685],[-91.41437588999997,17.359185509462073],[-91.41677087999994,17.352055219462308],[-91.41677534999997,17.34562711946249],[-91.40510405999999,17.342696319462565],[-91.39699741999999,17.33794505946266],[-91.38473368999996,17.319642319463192],[-91.38366421999996,17.31118310946341],[-91.38773773999998,17.305185369463572],[-91.38854999999995,17.300115799463722],[-91.39031871999998,17.299349119463713],[-91.41259250999997,17.3075489994635],[-91.41868174999996,17.303475509463613],[-91.42518087999997,17.302305309463648],[-91.42749634999996,17.276583619464343],[-91.43969685999997,17.250966879465004],[-90.98745919999999,17.25102488946504],[-90.98766254699996,17.875356549448203],[-90.99563736399995,17.8754894594482],[-90.99550641499997,17.902156649447488],[-90.98766599799995,17.901350679447525],[-90.98795171699999,17.96254504944591],[-91.12020030399998,17.963375258445836],[-91.11358064699994,17.975850480445537],[-91.13066914499996,17.98225019844538],[-91.13318225699999,17.958009720446],[-91.15112296499996,17.96267344944589],[-91.14472673699998,17.975159860445554],[-91.17260485599996,17.978049198445472],[-91.17645428599997,17.974868780445558],[-91.18094922499995,17.976678718445516],[-91.18211216599997,17.97413453944554],[-91.18560784499994,17.972950169445593],[-91.19271357599996,17.97821044844549],[-91.19498673399994,17.97808671844545],[-91.19512614599995,17.97629129044552],[-91.19838648499996,17.977393859445506],[-91.20012834599999,17.974509319445552],[-91.20262390399995,17.976358197445528],[-91.20481794599999,17.974553091445575],[-91.20622864599994,17.97617088844552],[-91.21110893499997,17.976055309445517],[-91.21234321599997,17.974347029445557],[-91.21745954599999,17.974986851445525],[-91.22375484699995,17.981325798445372],[-91.23084876599995,17.982124201445323],[-91.24001308499999,17.98700368944522],[-91.24346281499999,17.990308489445162],[-91.24352481499994,17.994939030445025],[-91.24832137499999,18.000694939444877],[-91.24837128499996,18.004534659444754],[-91.25014087799997,18.00679301844469],[-91.28141925499995,18.02400625944421],[-91.28382605599995,18.029313351444074],[-91.29248265599995,18.035252108443952],[-91.29674319599997,18.041940318443764],[-91.31020274599996,18.04804351944357],[-91.31840034499999,18.04938045944358],[-91.32334834599999,18.05329436844348],[-91.32441564599998,18.054737489443404],[-91.32341379699994,18.059101478443306],[-91.32594654499997,18.05971838044327],[-91.32702431599995,18.062665349443183],[-91.34716479999997,18.06395028944316],[-91.35942641999998,18.070372169443004],[-91.36420365999999,18.069331089443025],[-91.36759476999998,18.066185059443136],[-91.36946133999999,18.06757851944307],[-91.37459267999998,18.067200059443103],[-91.37881774999994,18.064180629443182],[-91.38442534999996,18.06406504944319],[-91.38967785999995,18.06647090944314],[-91.39268694999998,18.070448079443022],[-91.39294699999994,18.07509691944291],[-91.39859150999996,18.080005019442744],[-91.41188136999995,18.078995539442776],[-91.41713256999998,18.081576719442694],[-91.42411693999998,18.08020907944272],[-91.43336622999999,18.082097819442698],[-91.43828031999999,18.084481049442598],[-91.44417976999995,18.09507573944233],[-91.44927896999997,18.09473742944236],[-91.45259351999994,18.097839049442285],[-91.45675934999997,18.098274819442242],[-91.45715681999997,18.10059422944222],[-91.46389745999994,18.102231089442142],[-91.46532191999995,18.104159289442098],[-91.47016181999999,18.103621799442116],[-91.47577414999995,18.108330459441987],[-91.47732302999998,18.112795459441855],[-91.48435301999996,18.11275779944188],[-91.48599327999995,18.116344889441788],[-91.48948416999997,18.11644473944181],[-91.48886790999995,18.118075029441755],[-91.49444953999995,18.11676313944177],[-91.49504737999996,18.115352949441803],[-91.49647117999996,18.116380999441777],[-91.49814034999997,18.115237119441833],[-91.50140231999995,18.11768754944172],[-91.50403590999997,18.116459139441808],[-91.50423297999998,18.118438219441703],[-91.50177534999995,18.118363489441723],[-91.50359910999998,18.1203666794417],[-91.50194291999998,18.122349059441614],[-91.50482871999998,18.12339988944157],[-91.50266085999993,18.126257549441526],[-91.50530585999996,18.127224049441487],[-91.50573211999995,18.130002709441413],[-91.51653217999996,18.130485249441413],[-91.51521284999995,18.154952479440777],[-91.50233428999996,18.15434888944077],[-91.50186353999999,18.15556871944077],[-91.50485304999995,18.161229919440586],[-91.50324385999994,18.16507873944051],[-91.50679528999996,18.17024433944037],[-91.50933733999995,18.171054749440334],[-91.50963367999998,18.169510229440398],[-91.51280117999994,18.168887599440406],[-91.51336507999997,18.170266169440353],[-91.51583256999999,18.169876019440363],[-91.51727093999995,18.165209179440467],[-91.52046499999994,18.163404849440553],[-91.52012054999994,18.160513949440606],[-91.52452276999998,18.15989710944061],[-91.53450513999996,18.14617436944098],[-91.55276105999997,18.158176229440656],[-91.55565424999998,18.156571999440704],[-91.56462457999999,18.15879550944066],[-91.56608404999997,18.15780344944071],[-91.56705534999998,18.15917636944067],[-91.57274873999995,18.156707179440726],[-91.57802988999998,18.15895808944065],[-91.57996601999997,18.15817979944066],[-91.58104837999997,18.15332976944078],[-91.58272925999995,18.152461399440824],[-91.57219911999994,18.142015139441117],[-91.58739808999997,18.12918262944145],[-91.59199967999996,18.130501709441393],[-91.59178339999994,18.128854969441477],[-91.59534693999996,18.12517507944157],[-91.59508814999998,18.122552799441614],[-91.59161145999997,18.11993139944168],[-91.59196827999995,18.11746242944175],[-91.58990741999997,18.11501351944181],[-91.58975314999998,18.108009369442],[-91.59244248999994,18.10667994944205],[-91.59773776999998,18.108655219442],[-91.60176822999995,18.106875919442025],[-91.60322417999998,18.107744149441988],[-91.60519410999996,18.102858149442124],[-91.60950467999999,18.098438399442287],[-91.61095505999998,18.094980109442357],[-91.60916433999995,18.093856399442384],[-91.61030336999994,18.091802369442423],[-91.60885331999998,18.092074419442454],[-91.60964428999995,18.08919865944247],[-91.60732011999994,18.08791062944255],[-91.60616928999997,18.083975659442615],[-91.60757853999996,18.07450527944289],[-91.60897321999994,18.070487379442984],[-91.61496881999994,18.067698879443036],[-91.61929490999995,18.060803689443272],[-91.61874904999996,18.056297339443404],[-91.61470582999999,18.053921149443457],[-91.61357521999997,18.051408879443514],[-91.61226901999999,18.045020979443695],[-91.61527559999996,18.035932569443933],[-91.61451976999996,18.028685369444123],[-91.61752265999996,18.024224519444257],[-91.61636613999997,18.021236249444343],[-91.61926585999998,18.017511059444423],[-91.61973584999998,18.007594049444656],[-91.61708187999994,18.004293249444757],[-91.61824801999995,18.003002979444815],[-91.61582113999998,17.989084059445155],[-91.61998964999998,17.97644028944548],[-91.61918202999999,17.972854219445598],[-91.62151254999998,17.96158731944589],[-91.61977337999997,17.957574109446014],[-91.62078027999996,17.95281177944613],[-91.62474037999999,17.94907184944624],[-91.62204679999996,17.942574749446422],[-91.61962487999995,17.91918961944704],[-91.61271359999995,17.912919029447224],[-91.61936321999997,17.90921230944729],[-91.63308921999999,17.90501602944743],[-91.63154237999998,17.898149449447608],[-91.62910141999998,17.89712788944761],[-91.63431821999995,17.88509637944795],[-91.63274893999994,17.884196369447952],[-91.63880593999994,17.87395377944822],[-91.71282722999996,17.91892721944705],[-91.71240405999998,17.921642859447],[-91.72510105999999,17.924494619446925],[-91.72508714999998,17.926671219446845],[-91.73869384999995,17.936182519446575],[-91.73953704999997,17.935213949446606],[-91.76048730999997,17.957625679445993],[-91.76138936999996,17.946001369446307],[-91.75710068999996,17.93973364944648],[-91.76226653999998,17.939014279446496],[-91.76800602999998,17.94854757944622],[-91.77118527999994,17.94436691944636],[-91.80464421999994,17.972550509445632],[-91.86720785999995,17.98326634944534],[-91.88811013999998,18.006337579444697],[-91.90035476999998,18.012146999444532],[-91.90972267999996,18.013786309444516],[-91.93535562999995,18.010202449444627],[-91.94012157999998,18.01256396944452],[-91.96674770999994,18.01598844944447],[-91.96961307999999,18.025229149444183],[-91.97877857999998,18.042829719443738],[-91.98280124999997,18.043104459443725],[-91.98736247999994,18.03888084944385],[-91.99215459999994,18.03925690944385],[-92.00734437999995,18.049981799443568],[-92.01442873999997,18.052613319443463],[-92.01693370999999,18.058089479443314],[-92.02286516999999,18.06470554944315],[-92.02824216999994,18.077172049442833],[-92.04209542999996,18.078318819442796],[-92.04246913999998,18.081261649442713],[-92.03598624999995,18.087363339442533],[-92.03701739999997,18.094954849442328],[-92.03993881999997,18.09795033944229],[-92.05260144999994,18.094085219442395],[-92.05922833999995,18.098494579442228],[-92.06217167999995,18.09816393944228],[-92.06802257999999,18.09211328944242],[-92.07679634999994,18.094286599442345],[-92.07883251999993,18.087937799442557],[-92.08155828999998,18.08568968944259],[-92.08414162999998,18.085861479442606],[-92.09223099999997,18.092049969442442],[-92.11010834999996,18.09440619944235],[-92.11638144999995,18.100959059442175],[-92.12166197699997,18.10175463044218],[-92.12742456999996,18.108657859441987],[-92.12833568999997,18.12014985944166],[-92.14904345999997,18.136730369441256],[-92.14878204999997,18.149296379440923],[-92.16090299999996,18.155424169440757],[-92.16056211999995,18.18866856943987],[-92.16442396999997,18.197865619439643],[-92.14893751999995,18.21040607943928],[-92.18324384999994,18.274063229437573],[-92.17295136999996,18.275337689437592],[-92.17530682999995,18.28753170943725],[-92.17442584999998,18.2933033094371],[-92.17519754999995,18.294043429437057],[-92.17722785999996,18.28874485943723],[-92.18042881999997,18.2898235694372],[-92.17135754999998,18.338954309435913],[-92.18194871999998,18.37590242943491],[-92.17736021999997,18.37588268943488],[-92.17614773999998,18.458233219432746],[-92.20451719999994,18.456857029432758],[-92.2762464,18.45782385943278],[-92.30819190999995,18.45716573943277],[-92.31028747999994,18.45557936943283],[-92.31055568999994,18.460528629432684],[-92.32155227999999,18.467527679432497],[-92.32252893999998,18.47308088943235],[-92.33157508999994,18.460299679432683],[-92.33894677999996,18.4564693494328],[-92.34871364999998,18.443093679433144],[-92.35253831999995,18.442118229433174],[-92.35831793999995,18.444350029433124],[-92.36111427999998,18.448665509433003],[-92.35965782999995,18.45694631943276],[-92.36432450999996,18.463729179432576],[-92.37541604999996,18.46938890943247],[-92.38481722999995,18.478144109432233],[-92.40197090999999,18.479534199432177],[-92.41032937999995,18.483500479432056],[-92.41405171999997,18.487291749431975],[-92.42643102999995,18.51497356943124],[-92.42346974999998,18.532235819430777],[-92.42389044999999,18.549298109430342],[-92.42622964999998,18.557041449430134],[-92.44020741999998,18.58172411942949],[-92.44922114999997,18.594224829429134],[-92.45215291999995,18.60006265942901],[-92.45194424999994,18.60351521942895],[-92.46574504999995,18.616563419428555],[-92.46708899999999,18.62578473942831],[-92.46507274999999,18.63458784942812]]]}}]}
