{"type":"FeatureCollection","features":[{"type":"Feature","properties":{"cve_ent":"28","cvegeo":"28","nombre_inegi":"Tamaulipas","nombre_catalogo":"Tamaulipas"},"geometry":{"type":"Polygon","coordinates":[[[-99.72427799999998,27.674487279223385],[-99.72814673999996,27.679126219223296],[-99.92641827999996,27.549156999225715],[-99.91915362999998,27.49151517922684],[-99.76037881999999,27.436958719227857],[-99.75855250999997,27.389622879228742],[-99.74767041899997,27.277246999230876],[-99.67891874999998,27.102448289234218],[-99.65891165999994,27.088189079234517],[-99.65005282999994,27.065857889234955],[-99.73416811999999,26.92061285923776],[-99.77013149,26.92841821923757],[-99.76666888999995,26.88984190923832],[-99.76464261999998,26.893971449238254],[-99.75921044999996,26.895117879238235],[-99.75212302999996,26.900048319238156],[-99.74766136999995,26.900243819238156],[-99.74614013999997,26.9038230292381],[-99.74733017999995,26.909657819237978],[-99.74434631999998,26.912156369237906],[-99.73933224999996,26.907374349238008],[-99.73146799999995,26.908703849237977],[-99.72399667999998,26.90612594923802],[-99.72380837999998,26.903573779238073],[-99.72790117999995,26.9035153392381],[-99.72596868999995,26.90056511923816],[-99.72681874999995,26.89888525923816],[-99.72110228999998,26.89650373923823],[-99.71044259999996,26.896752399238185],[-99.70998024999994,26.89927590923813],[-99.71368151999997,26.901704449238125],[-99.70992997999997,26.905878999238006],[-99.70692773999997,26.904056629238088],[-99.70347647999995,26.90547342923802],[-99.69788396999996,26.898566859238194],[-99.69706762999999,26.906716419238027],[-99.69402041999996,26.90929933923799],[-99.69114188999998,26.908205919237997],[-99.68553702999999,26.89903430923816],[-99.68722290999995,26.894546999238248],[-99.68100977999995,26.896184999238226],[-99.67629044999997,26.89453777923828],[-99.66700933999995,26.89437321923824],[-99.66340654999999,26.900242319238156],[-99.66139051999994,26.900838519238114],[-99.65382142,26.896219689238244],[-99.64734914999997,26.894407539238234],[-99.64665377999995,26.887719769238373],[-99.64433348999995,26.88556764923842],[-99.63693177999994,26.88726962923839],[-99.63468133999999,26.89114373923834],[-99.63003011999996,26.890290419238337],[-99.62868091999997,26.88858670923834],[-99.63075744999998,26.887379289238407],[-99.63101367999998,26.883853519238468],[-99.62875488999998,26.8812162792385],[-99.62767091999997,26.883932369238426],[-99.62522621999996,26.883001909238498],[-99.62850801999997,26.873799289238676],[-99.62705256999999,26.87045782923874],[-99.62106408999996,26.868414739238755],[-99.61121904999999,26.873475849238638],[-99.59104662999994,26.86254804923887],[-99.58986057999994,26.86072297923891],[-99.59340656999996,26.854536539239007],[-99.58851544999999,26.852458889239053],[-99.58435602999998,26.848095799239175],[-99.58170271999995,26.83417188923942],[-99.58351956999998,26.832028739239473],[-99.58084281999999,26.830112549239484],[-99.58684762999997,26.824821109239622],[-99.58929099999995,26.81961559923974],[-99.58921410999994,26.81459744923982],[-99.59123996999996,26.813493939239834],[-99.59496736999995,26.815038749239786],[-99.59890568999998,26.81456841923982],[-99.59706027999995,26.80960722923989],[-99.60381150999996,26.807923799239916],[-99.60458521999999,26.800050979240087],[-99.60702102999994,26.800024279240102],[-99.60740791999996,26.796660279240125],[-99.61285399999998,26.791630149240273],[-99.61117014999996,26.782489969240423],[-99.61505743,26.778866139240495],[-99.61547773999996,26.775233229240555],[-99.62188845999998,26.77136785924067],[-99.62285247999995,26.769227769240686],[-99.61614357999997,26.75436350924101],[-99.61872093999995,26.737684459241283],[-99.61858145999997,26.72647053924151],[-99.62161747999994,26.723199599241592],[-99.62973253999998,26.71977948924168],[-99.63571891999999,26.710815919241863],[-99.64945074999997,26.702723569241993],[-99.65719482999998,26.69511797924217],[-99.66319661999997,26.682911579242386],[-99.66306582999994,26.678075679242497],[-99.65916445999996,26.670365139242637],[-99.53833524999999,26.664595619242753],[-99.39682481999995,26.59656553924406],[-99.40983214999994,26.442836799247136],[-99.41424297999998,26.444806379247087],[-99.43094657999995,26.35130113924893],[-99.40123611999998,26.304799139249887],[-99.39473722999999,26.306239919249855],[-99.38584901999998,26.31714665924962],[-99.37996964999996,26.31774888924964],[-99.37699368999995,26.32159759924956],[-99.37211585999995,26.321941519249528],[-99.36415025999997,26.329270149249393],[-99.26000156999999,26.25284997925093],[-99.19783596999999,26.25868231925079],[-99.17100182999997,26.094494979254083],[-99.16701941999997,26.07546827925448],[-99.16191642999996,26.07026124925458],[-99.16007747999998,26.061229549254783],[-99.15243327999998,26.062356289254723],[-99.14337124999997,26.061131289254764],[-99.14157596999996,26.059813819254785],[-99.14229457999994,26.055968029254853],[-99.14093302999999,26.052966819254937],[-99.12631181999997,26.054022889254917],[-99.12398279999996,26.056666739254826],[-99.13233748999994,26.064721089254682],[-99.13090665999995,26.068816399254622],[-99.11989236999995,26.066513889254676],[-99.11473417999997,26.0759668892545],[-99.10862314999997,26.07900428925442],[-99.09766885999994,26.080746769254397],[-99.09502602999999,26.080560259254348],[-99.09333677999996,26.07847416925442],[-99.09641210999996,26.072757969254535],[-99.09333161999996,26.070509429254606],[-99.07654207999997,26.071864019254573],[-99.07642070999998,26.076347509254482],[-99.07452334999995,26.078785399254436],[-99.06662539999996,26.077830169254412],[-99.06253534999996,26.08013542925437],[-99.06388877999996,26.08630707925424],[-99.06253933999994,26.090719089254176],[-99.05505854999997,26.092477859254117],[-99.04499205999997,26.098705139254],[-99.03725274999994,26.093470219254094],[-99.02503247999994,26.09342948925413],[-99.02167568999994,26.098413799254022],[-99.02387219999997,26.104102449253865],[-98.90075194999999,25.968322739256667],[-98.82322654999996,26.04764867925506],[-98.74628721999996,26.038041199255247],[-98.74672904999994,26.0351815392553],[-98.74047017,26.03445850925529],[-98.74115048999994,26.037355709255245],[-98.58512605999994,26.017917599255618],[-98.58035628999994,25.637302719263403],[-98.58175157999996,25.489361739266464],[-98.42157607999997,25.48935553926649],[-98.42313165999997,25.44749290926733],[-98.56892254999998,25.341952719269536],[-98.58191837,25.332925619269695],[-98.58284644999998,25.334029429269687],[-98.58525385999997,25.332329629269733],[-98.58425897999997,25.331264619269774],[-98.88812685999996,25.109451049274426],[-98.92380844999997,25.081916419274958],[-98.92529150999998,25.082253259274992],[-98.92902757999998,25.07727030927511],[-98.93371184999997,25.076074249275088],[-98.93227651999996,25.078828449275065],[-98.93428159999996,25.080162979275034],[-98.93416993999995,25.07276317927516],[-98.93765805,25.072909949275186],[-98.94117813999999,25.07085664927522],[-98.94620918,25.076551429275085],[-98.94751659999997,25.07393799927515],[-98.95521413999997,25.076134179275105],[-98.95662804999996,25.07334867927516],[-98.95737579999997,25.07579408927511],[-98.95924993999995,25.0760351392751],[-98.96114945999996,25.073193739275187],[-98.96834337999998,25.07040211927521],[-98.96812324999996,25.07330042927519],[-98.97080048999999,25.074017319275143],[-98.97202751999998,25.072836939275174],[-98.96988422999999,25.071899229275193],[-98.97635604999995,25.06877304927527],[-98.97771268999998,25.06932201927527],[-98.97768665999997,25.07184561927519],[-98.98196825999997,25.070711089275203],[-98.98253547999998,25.07399625927516],[-98.98516745899998,25.074402320275134],[-98.98540814999997,25.070503249275227],[-98.98944457,25.067367979275275],[-98.99111076999998,25.070241939275256],[-98.99773390999997,25.071321819275195],[-99.00022941999998,25.07060984927521],[-98.99911276999995,25.06836888927526],[-99.00016162999998,25.06735216927528],[-99.00751501999997,25.067276549275263],[-99.01496679999997,25.07007773927524],[-99.01905588999995,25.06992530927521],[-99.02241785999996,25.073316819275167],[-99.01754454999998,25.07557757927514],[-99.01957191999999,25.07919462927507],[-99.01418217999999,25.08060711927499],[-99.01671302999995,25.082723509274963],[-99.01566424999999,25.08606811927489],[-99.02105751,25.089203819274807],[-99.02175050999995,25.093702879274716],[-99.02598621999995,25.092617849274767],[-99.02952247999998,25.096392819274687],[-99.03023928999994,25.100991969274585],[-99.03374134999996,25.107063679274468],[-99.02924036999997,25.10778428927443],[-99.02880202999997,25.1103549092744],[-99.03355937999999,25.113468579274343],[-99.03501951,25.120035629274206],[-99.03997033999997,25.1196741092742],[-99.04202008999994,25.12298197927415],[-99.04793285999995,25.120281969274192],[-99.05246813999997,25.127132629274044],[-99.05423816999996,25.12381313927408],[-99.05929959999997,25.121292259274178],[-99.05999230999998,25.11769145927423],[-99.06773727999996,25.116133919274247],[-99.06827905999997,25.114373999274303],[-99.06615637999994,25.1138101192743],[-99.06727722999996,25.110691519274376],[-99.07296611999999,25.108159479274427],[-99.06987245,25.10453847927449],[-99.07059541999998,25.10226522927456],[-99.07786924999999,25.10143354927454],[-99.07729899999998,25.098717349274654],[-99.07244702999999,25.09769385927465],[-99.07145845999997,25.096112109274664],[-99.07314576999995,25.09336856927474],[-99.07876374999996,25.09212039927477],[-99.07502577999998,25.087933149274825],[-99.07561874999999,25.085268969274942],[-99.08028075,25.08342934927497],[-99.07857193999996,25.07976934927503],[-99.08132708999995,25.077681139275064],[-99.08194444999998,25.073711799275177],[-99.08545782,25.07723704927509],[-99.08904842999999,25.075732979275106],[-99.08985957999995,25.078259289275067],[-99.09769521999999,25.07803633927505],[-99.09419170999996,25.074473289275165],[-99.09773224999999,25.073748089275146],[-99.10146442999996,25.069364479275244],[-99.09577187999997,25.06700459927532],[-99.09554142999998,25.065030579275327],[-99.09761310999994,25.063121119275397],[-99.09995234999997,25.06475934927533],[-99.10142719999999,25.06197785927543],[-99.10400122999994,25.061938219275415],[-99.10626985999994,25.059532019275476],[-99.11163734999997,25.05906236927547],[-99.11378673999998,25.056141509275513],[-99.12017008999999,25.05731047927552],[-99.12492531999999,25.054330149275575],[-99.12742199999997,25.055930449275554],[-99.13090817999995,25.05188841927563],[-99.13385627999997,25.053527249275586],[-99.13346157999996,25.051566949275628],[-99.13509279999994,25.05038001927562],[-99.14264953999998,25.05417081927554],[-99.14522157999995,25.052712709275593],[-99.14876421999999,25.05501939927554],[-99.15611853999997,25.056369709275536],[-99.16059193999996,25.055277309275557],[-99.16114641999998,25.0484073792757],[-99.16697757999998,25.046289459275712],[-99.16290591999996,25.043559859275813],[-99.16361117999999,25.03492404927595],[-99.15651650999997,25.027847829276116],[-99.15991865999996,25.025831539276187],[-99.16490474999996,25.02951139927608],[-99.17106894999995,25.024804969276186],[-99.17174207999994,25.019727629276275],[-99.17830811999994,25.017664549276358],[-99.18094953999999,25.011541549276473],[-99.15894290999996,24.91598816927849],[-99.20743334999999,24.861392149279627],[-99.18197125999995,24.776041059281493],[-99.18865311999998,24.780679599281367],[-99.21288547999995,24.771674849281585],[-99.29492848999996,24.804143709280886],[-99.29719561999997,24.794116909281104],[-99.30022016999999,24.79397977928107],[-99.30354551999994,24.791378219281153],[-99.30683088999996,24.792027979281137],[-99.31069385999997,24.787276109281237],[-99.31786776999998,24.789830569281182],[-99.32476891999995,24.78471699928129],[-99.33166529,24.776243109281474],[-99.35418719999996,24.771725019281586],[-99.36437668999997,24.771755459281582],[-99.36788007999996,24.7655605792817],[-99.37221766,24.765590659281695],[-99.37304353999998,24.76277842928174],[-99.3763732,24.76144339928181],[-99.38239331999996,24.749842259282016],[-99.38176079999994,24.747037819282106],[-99.38595024999996,24.745063509282105],[-99.38941242999995,24.73979256928228],[-99.39759459999999,24.73990001928224],[-99.40660457999996,24.734506259282345],[-99.41026379999994,24.736079349282342],[-99.41491232,24.73521551928235],[-99.42294381999996,24.736750369282294],[-99.42499796999994,24.730057939282453],[-99.43072801999995,24.725758339282525],[-99.43579116999997,24.726392199282564],[-99.43671490999999,24.725152679282566],[-99.44259622999999,24.726836309282543],[-99.44807654999994,24.73220642928243],[-99.45076387999997,24.730796019282458],[-99.45063861999996,24.728469459282476],[-99.45270547999996,24.728399859282455],[-99.45556331999995,24.725285719282557],[-99.45946137999994,24.724919249282543],[-99.46496611999999,24.72004293928266],[-99.46700188999995,24.720124709282665],[-99.47104385999997,24.714880879282788],[-99.47773548999999,24.712620969282824],[-99.47689834,24.711608509282883],[-99.48215568999997,24.70824613928291],[-99.48485005999999,24.703490999283023],[-99.48683165999996,24.70325342928306],[-99.48820908999996,24.69989819928311],[-99.49193614999996,24.697698479283144],[-99.49126739999997,24.695300629283228],[-99.49413241999999,24.687995569283363],[-99.49826302999999,24.684234819283414],[-99.50072605999998,24.679171259283518],[-99.50057467999996,24.66598530928384],[-99.49773817999994,24.65773904928399],[-99.49819019999997,24.654129399284077],[-99.49602962999995,24.65103865928414],[-99.49805356999997,24.648309399284226],[-99.49945227999996,24.641257949284373],[-99.51282781999998,24.634481449284518],[-99.52073548999995,24.63406088928453],[-99.52820062999996,24.631644649284578],[-99.53039741999999,24.62801927928464],[-99.53597893999995,24.625786279284704],[-99.53793569,24.622428819284753],[-99.53977034999997,24.626786459284688],[-99.54506301999999,24.626516599284688],[-99.54781067999994,24.624275849284736],[-99.54522603,24.61870450928484],[-99.54777662999999,24.61532536928491],[-99.54622051999996,24.613074769284946],[-99.54981524999994,24.611566309285],[-99.55318854999997,24.61243631928496],[-99.55720610999998,24.608714799285046],[-99.55834072,24.609820179285023],[-99.55736121999998,24.61237233928497],[-99.56852025999996,24.617306399284885],[-99.57010182999994,24.619997659284792],[-99.57371305999999,24.620270259284794],[-99.57607630999996,24.623597119284735],[-99.57943385,24.622166229284783],[-99.58577507999996,24.62239930928476],[-99.58578257999994,24.62435516928473],[-99.59262842999999,24.61937277928483],[-99.59703427999996,24.622670399284765],[-99.60312733999997,24.62130213928481],[-99.60944858,24.622490079284738],[-99.70468567999997,24.575869169285745],[-99.73297777,24.553990779286238],[-99.71980385999996,24.483710429287736],[-99.63637931999996,24.506670249287275],[-99.62858144999997,24.492171349287553],[-99.61153348999994,24.45276076928843],[-99.58993110999995,24.396142369289667],[-99.58934081999996,24.35082059929065],[-99.59428973999998,24.33091321929108],[-99.62021381999995,24.278396489292184],[-99.64311239999995,24.22535610929338],[-99.64781782999995,24.21809504929352],[-99.65708062999995,24.117996579295717],[-99.57090170999999,24.039366909297463],[-99.54189270999996,24.033649169297554],[-99.54091205999998,23.99727162929837],[-99.52002485999998,23.99057813929849],[-99.48693985999996,23.960500619299186],[-99.45687071899994,23.866063049301246],[-99.49379107999994,23.878692979300965],[-99.57668084999995,23.775462059303266],[-99.60216747999999,23.762870879303538],[-99.61948631999998,23.759662399303604],[-99.68337773999998,23.776648199303263],[-99.76901388999994,23.784488119303063],[-99.80551890999999,23.784297919303057],[-99.86065997999998,23.77446248930332],[-99.89111956999996,23.703806579304867],[-99.91580025999998,23.66507833930572],[-99.96118762999998,23.55688976930815],[-99.92125339999997,23.379191339312122],[-99.98250247999994,23.392367259311868],[-100.00913133999995,23.39198845931185],[-100.04717122999995,23.396007079311772],[-100.08026142999996,23.395748199311782],[-100.12072713999999,23.357764819312624],[-100.14495021999996,23.339515179313025],[-100.07804111999997,23.305983909313813],[-100.07958513999995,23.29609397931399],[-100.08564853899998,23.287037429314235],[-100.10189528999996,23.231080400315484],[-100.10381334999995,23.231535379315453],[-100.10974019899999,23.199717860316213],[-100.11828616899999,23.200545310316187],[-100.11898963,23.1524278893173],[-100.11015499899997,23.15106988931729],[-100.11559725999997,23.12598988931786],[-100.06874296899998,23.121156259318017],[-100.06902910999999,23.095941779318547],[-100.01135511999998,23.065359349319262],[-100.01269157999997,23.05889331931939],[-100.02368101999997,23.060474199319366],[-100.02407484999998,23.059103689319368],[-100.02718614999998,23.05874902931942],[-100.02699725999997,23.055845179319494],[-100.03172385999994,23.05341231931955],[-100.04045285999996,23.05182544931956],[-100.04258822999998,23.052730649319553],[-100.04751045999996,23.05064819931962],[-100.05292896999998,23.04591674931972],[-100.05421356999994,23.041968419319797],[-100.06209741999999,23.039843659319825],[-100.06610776999997,23.034860649319942],[-100.06690281999995,23.031446219320067],[-100.06184233999994,23.011979629320468],[-100.06470891,23.012370109320482],[-100.06634491999996,23.010383709320504],[-100.06749836999995,23.00810727932057],[-100.06621645999998,23.00180999932069],[-100.07003307999999,23.00099819932071],[-100.07165577999996,22.99735719932083],[-100.07418368999998,22.996670349320826],[-100.07802893999997,23.00181333932074],[-100.08049250999996,23.002007079320713],[-100.08632577999998,23.011068319320497],[-100.09134279999996,23.011411569320504],[-100.09491513999997,23.013841029320414],[-100.09745530999999,23.01309096932047],[-100.09953207999996,23.007931109320598],[-100.08942101999999,22.968757479321447],[-100.11084694999994,22.975718969321324],[-100.11038362999994,22.916714419322684],[-100.04423907999997,22.917892399322614],[-100.02938419999998,22.824393549324757],[-100.10192039999998,22.762792749326227],[-100.09405993999997,22.75126516932649],[-100.02234325999997,22.72592454932706],[-99.95848933999997,22.749776799326508],[-99.95695813999998,22.75166651932647],[-99.89205910999999,22.74844645932651],[-99.88315370999999,22.748238889326526],[-99.88239697999995,22.749862309326478],[-99.84281899999996,22.73055719932697],[-99.84792356999998,22.67843510932817],[-99.81402898,22.66076577932859],[-99.80548584999998,22.65777313932865],[-99.79801684999995,22.6666500293284],[-99.79731416999994,22.665049109328457],[-99.79474597999997,22.667703019328382],[-99.78503693999994,22.668508979328408],[-99.77939082999995,22.667397119328385],[-99.77019117999998,22.662306969328498],[-99.76412127999998,22.66210905932851],[-99.75477857999995,22.65661064932867],[-99.72408516999997,22.659608399328555],[-99.71836925999997,22.664555319328446],[-99.70176450999998,22.67322808932829],[-99.68253545999995,22.68112470932811],[-99.56063829,22.641220489328983],[-99.53469190999999,22.612764649329648],[-99.51365162999997,22.615061369329602],[-99.49453636999999,22.620868629329507],[-99.51528705,22.664667489328487],[-99.51675745999997,22.664436889328467],[-99.52562328999994,22.694524979327777],[-99.52789255,22.69557961932775],[-99.54432737999997,22.744140149326658],[-99.49678850999999,22.74849794932654],[-99.49244868999996,22.741947979326707],[-99.48109044999995,22.742363349326695],[-99.47712682999997,22.740637219326718],[-99.44832782999998,22.673437319328286],[-99.44205287999995,22.6636157093285],[-99.41991271999997,22.662037539328516],[-99.39654011999994,22.670766799328298],[-99.38843362999995,22.669291049328347],[-99.38555310999999,22.670268459328323],[-99.38537327999995,22.66447176932846],[-99.37766396999996,22.64606913932892],[-99.37320048,22.62907767932928],[-99.32961767999997,22.634887779329144],[-99.32138785999996,22.616730449329562],[-99.33010751999996,22.614844689329615],[-99.32859004999996,22.608702399329744],[-99.31403439999998,22.60989816932975],[-99.29969104999998,22.574305449330573],[-99.28865337999999,22.555824169330997],[-99.27792396999996,22.523676619331756],[-99.27242581999997,22.513262629331972],[-99.26314853999999,22.469791229332994],[-99.25997859999997,22.467810939333038],[-99.25135967999995,22.443979229333575],[-99.24342539999999,22.433370659333836],[-99.23683874999995,22.412861999334346],[-99.12056704999998,22.406636479334455],[-99.11256727999995,22.406761649334495],[-99.06039944999999,22.415268519334255],[-98.93197271999998,22.392775139334773],[-98.93007159999998,22.38255867933502],[-98.92554485999996,22.371746779335258],[-98.91941288999999,22.37110673933531],[-98.91228262999995,22.373797919335264],[-98.90202836999998,22.365906149335434],[-98.89903391999998,22.3658843993354],[-98.89644516999994,22.362299139335512],[-98.89696041999998,22.359146509335602],[-98.88999724999998,22.3550935093357],[-98.88063250999994,22.358297459335628],[-98.87561654999998,22.361974779335487],[-98.87228948999996,22.367412979335377],[-98.85913813999997,22.364740599335462],[-98.85369447999996,22.368196229335336],[-98.84987705999998,22.368126919335385],[-98.83466229,22.360817139335552],[-98.82362456999994,22.358703799335597],[-98.82146731999997,22.35625579933564],[-98.81449977999995,22.358297859335593],[-98.81123144999998,22.361517399335504],[-98.79189150999997,22.361868059335535],[-98.78643128999995,22.365979089335426],[-98.78085456999997,22.366121599335415],[-98.77561997,22.36422356933545],[-98.76896913999997,22.36691307933543],[-98.75893477999995,22.366312739335434],[-98.75167608,22.36902385933533],[-98.74992117999996,22.37655739933514],[-98.74593956999996,22.3808653493351],[-98.73150717999994,22.381256079335092],[-98.72909517999994,22.388317879334892],[-98.72133873999996,22.389824829334888],[-98.72099299999996,22.391457549334813],[-98.71830524999996,22.39081396933485],[-98.71358356999997,22.395635999334708],[-98.70815381999995,22.397252829334708],[-98.70472108999996,22.4002106593346],[-98.70186573999996,22.4001930293346],[-98.70081990999995,22.402572689334573],[-98.69685004999997,22.401773599334604],[-98.69386871999995,22.404237599334518],[-98.69033621999995,22.402738339334565],[-98.68731924999997,22.405107949334507],[-98.67956423,22.40568636933451],[-98.67709919999999,22.40892721933443],[-98.67389397999995,22.405875199334464],[-98.66971010999998,22.404651309334547],[-98.66703183,22.40615334933449],[-98.66798525999997,22.404488849334545],[-98.66578002999995,22.403725019334512],[-98.65762573999996,22.40736844933444],[-98.65555377999999,22.40696170933448],[-98.65493790999996,22.4092292893344],[-98.65328328,22.407942829334413],[-98.64024888999995,22.411418169334357],[-98.63815599999998,22.41452402933429],[-98.63609637999997,22.41368856933429],[-98.63688356999995,22.412161619334352],[-98.63494282,22.410224489334414],[-98.63206890999999,22.410168199334382],[-98.63264193999998,22.407265939334465],[-98.63040282999998,22.40722894933446],[-98.62957059999997,22.404001799334544],[-98.62768519999999,22.403247969334554],[-98.62630908999995,22.404544459334538],[-98.62690123,22.4021609793346],[-98.62119861999997,22.402297949334567],[-98.62028164999998,22.404471599334496],[-98.61375211999997,22.408925049334414],[-98.61226574999995,22.407322519334436],[-98.60803950999997,22.407215339334456],[-98.60943748999996,22.406430679334452],[-98.60718334999996,22.405503819334477],[-98.60597759999996,22.401938149334562],[-98.60298777999998,22.399563109334615],[-98.59880005999997,22.400236649334627],[-98.596728,22.397141969334708],[-98.5944922,22.398669619334676],[-98.59462194999998,22.396999939334698],[-98.59232570999997,22.39531616933475],[-98.59134999999999,22.396304859334712],[-98.58977464999998,22.39443159933477],[-98.58348230999998,22.397288479334687],[-98.57864353999999,22.39475990933477],[-98.57650825999998,22.39581631933472],[-98.57493551999994,22.393945489334786],[-98.57134964999995,22.395567349334748],[-98.57135274999997,22.39839753933468],[-98.56851281999997,22.40157842933456],[-98.56091870999995,22.39947104933463],[-98.54608310999998,22.400189659334593],[-98.54132433999996,22.405743709334466],[-98.52536171999998,22.40678071933445],[-98.52077238,22.41145168933435],[-98.51861014999999,22.410842889334344],[-98.51532711999995,22.413286979334334],[-98.51329037999994,22.41301573933433],[-98.50959714999999,22.416387949334258],[-98.51192114999998,22.422000119334125],[-98.50504010999998,22.429471539333953],[-98.49800668999995,22.426719939334003],[-98.49372154999999,22.426828079334012],[-98.49684961999998,22.424026889334066],[-98.49337591999995,22.42367628933409],[-98.49213827999995,22.41947414933416],[-98.48849459999997,22.424254259334067],[-98.49036922999996,22.427765049333992],[-98.48523250999995,22.425630109334023],[-98.46680757999997,22.428801739333945],[-98.46402941999997,22.42548770933401],[-98.46657444999994,22.414285799334312],[-98.46095911999998,22.41219191933434],[-98.44863317999996,22.419959689334156],[-98.44257016999997,22.432396169333884],[-98.43376608999995,22.43286445933388],[-98.43197179999999,22.431565879333892],[-98.43108341999994,22.42519284933402],[-98.43311725999996,22.413578309334298],[-98.41904627999999,22.412737689334307],[-98.40954341999998,22.399926689334606],[-98.40619828999998,22.40088390933461],[-98.39934330999995,22.408830689334422],[-98.39348065999997,22.42140008933415],[-98.38864388999998,22.424293029334066],[-98.38474513999996,22.42233519933414],[-98.38245961999996,22.415923769334267],[-98.38456833999999,22.40328617933457],[-98.39104284999996,22.395830429334723],[-98.39092639999996,22.392633829334766],[-98.38780919999999,22.389284379334875],[-98.37920570999995,22.3880101193349],[-98.37457787999995,22.389618079334863],[-98.35984904999998,22.405010089334528],[-98.35522534999996,22.40744562933444],[-98.35293057999998,22.40672451933449],[-98.35103621999998,22.40242616933459],[-98.35124731999997,22.399079379334637],[-98.35524645999999,22.398284029334686],[-98.35652924999994,22.39514899933475],[-98.35542374999996,22.39102441933484],[-98.35227251999999,22.388703319334883],[-98.3429106,22.389742169334856],[-98.33329767999999,22.396834689334693],[-98.32769398,22.39868016933464],[-98.32342281999996,22.396699429334713],[-98.31878119999999,22.39073967933481],[-98.31642924999994,22.393342879334757],[-98.31645207999998,22.4047457093345],[-98.31271099999998,22.41427276933426],[-98.31534831,22.419260169334155],[-98.32573568999999,22.423872169334047],[-98.32736144999997,22.426469579334015],[-98.32091248999996,22.44003796933369],[-98.31221517999995,22.44521919933358],[-98.31361064999999,22.456189579333312],[-98.31927054,22.465222489333083],[-98.31682298,22.468562339333037],[-98.30883419999999,22.468461059333016],[-98.30100781999995,22.4612268293332],[-98.29166450999998,22.46779854933305],[-98.28736931899994,22.467028170333045],[-98.28361297899994,22.463383260333142],[-98.27762142899996,22.448948970333475],[-98.27293688999998,22.447291050333508],[-98.25663416999998,22.453406150333354],[-98.25338439899998,22.46646106033311],[-98.25200759899997,22.46920347933299],[-98.24793142899996,22.471656629332944],[-98.24030822899994,22.469721579333015],[-98.23236513899997,22.46133098033321],[-98.22967911899997,22.462148749333167],[-98.22373738,22.469503029333005],[-98.21984364899998,22.471750909332926],[-98.21408577899996,22.469953169332996],[-98.20700247899998,22.46402383033315],[-98.19499521899996,22.469558970332983],[-98.19261542999999,22.465216259333083],[-98.199884679,22.44903587933349],[-98.18974319999995,22.44179051933364],[-98.19045319999998,22.429563720333903],[-98.187485489,22.42386850933405],[-98.17345765899995,22.418348970334208],[-98.16328724999994,22.409984829334388],[-98.15156019999996,22.4129446293343],[-98.11353596999999,22.395303280334733],[-98.11127007899996,22.39207820033482],[-98.11186567899995,22.378152180335167],[-98.10621311899997,22.366712310335426],[-98.10245293899999,22.366695540335424],[-98.09549367899996,22.37269445033524],[-98.08601530899995,22.370153659335298],[-98.07914041899994,22.35832282933563],[-98.07709821899994,22.351640739335764],[-98.07278145899994,22.347161489335893],[-98.06495170899996,22.348641219335832],[-98.05945171899998,22.34637702933586],[-98.05396048999995,22.355540170335644],[-98.03872447899994,22.355764280335674],[-98.02847210999995,22.35839209033559],[-98.024614919,22.35683600033561],[-98.02107445899998,22.352783579335718],[-98.01290141999999,22.35327950933572],[-98.00071010899995,22.34815705033583],[-97.99625125899996,22.348482709335826],[-97.99269751899999,22.351332890335733],[-97.99002024899994,22.350863819335746],[-97.98524296899996,22.341178080336014],[-97.97759419999994,22.339025950336048],[-97.97346013999999,22.333638049336177],[-97.97040542999997,22.332897779336207],[-97.97050973899998,22.32805022033633],[-97.97874751899997,22.317309090336533],[-97.97912322999998,22.313182459336673],[-97.98278594999994,22.311052950336677],[-97.98397990899997,22.30467125933689],[-97.99530573899996,22.31126500033669],[-97.99541927899999,22.313690690336625],[-97.99894939899997,22.31432675033665],[-97.99764661999995,22.302678480336894],[-97.99832661999994,22.29898731033702],[-98.00032404899999,22.297432490337023],[-97.99266414999994,22.29277470933714],[-97.98693884899996,22.301634980336935],[-97.98309396899998,22.298930450336986],[-97.98270782899999,22.302613509336926],[-97.97880259899995,22.301615600336913],[-97.97145810999996,22.29618944933704],[-97.96946557999996,22.297406450337007],[-97.96210628999995,22.294080570337105],[-97.95670761699995,22.29389237033709],[-97.95386293999996,22.287041980337285],[-97.942475679,22.27728471933752],[-97.93166064999998,22.27104657033765],[-97.93182013999997,22.264540619337797],[-97.93540741999999,22.25644377033796],[-97.93421267999997,22.254181620338034],[-97.92567961899995,22.250678570338103],[-97.91862524899996,22.251144249338097],[-97.91679042899996,22.252593090338074],[-97.91717639999996,22.248024569338167],[-97.92028411899997,22.246004220338264],[-97.91728182899999,22.23913053933842],[-97.90241888999998,22.233343449338552],[-97.89783290899999,22.229706719338587],[-97.89496246099998,22.222378437338815],[-97.86026831899994,22.210084199339065],[-97.84488828999997,22.206965829339154],[-97.83968322899996,22.208886280339105],[-97.83769337899997,22.21243375033902],[-97.83722581999997,22.22697733933871],[-97.83211250899996,22.238102710338435],[-97.81164376899994,22.251773679338086],[-97.79241482999998,22.260350600337876],[-97.783589287,22.26261705933782],[-97.78416075999998,22.26420836133779],[-97.77295270699994,22.266863126337768],[-97.78328523199997,22.264777120337804],[-97.80265137599997,22.29100477233718],[-97.81178002099995,22.306893763336802],[-97.82488453899998,22.339284026336063],[-97.84524120699996,22.405372286334483],[-97.85688751299995,22.45250509033338],[-97.85829873699998,22.476158005332834],[-97.85676629699998,22.481791644332706],[-97.83438556999994,22.482213057332736],[-97.85746403099995,22.482175317332686],[-97.85861289199995,22.489510363332553],[-97.85756876799996,22.492577496332494],[-97.833531162,22.493042467332465],[-97.850327156,22.493010626332456],[-97.85484337399998,22.5041110983322],[-97.85739605499998,22.515265358331956],[-97.85911431699998,22.536399833331455],[-97.85932601399998,22.566409720330764],[-97.85314634099996,22.624766363329385],[-97.84497491199994,22.660258894328553],[-97.839899254,22.670562377328338],[-97.84123002999996,22.67148033932833],[-97.83833080699999,22.674227784328227],[-97.83764667899999,22.6731158193283],[-97.83676734399995,22.67276567032826],[-97.83255999099998,22.687320933327975],[-97.82665364999997,22.69755914932773],[-97.82067362799997,22.717336101327252],[-97.80067446599998,22.760490762326263],[-97.78885450299998,22.790604853325554],[-97.77689539899997,22.83609545332449],[-97.76585957199995,22.89499041632314],[-97.76500214299995,22.943165679322043],[-97.76234963699996,22.963565700321585],[-97.76076374599997,22.997258158320836],[-97.76171089999998,23.051534999319593],[-97.76036541599997,23.05543547631949],[-97.76164169599998,23.055470094319475],[-97.76881370999998,23.244795621315156],[-97.77001161599999,23.323247546313407],[-97.76852849399995,23.37768737031217],[-97.75695231799995,23.520163139308956],[-97.74235995599999,23.662142662305808],[-97.73825807999998,23.75459664030372],[-97.73598895099997,23.76594907830349],[-97.73495456899997,23.76768096630344],[-97.73312602299995,23.76714371430344],[-97.73399999899999,23.76780000030346],[-97.73177705999996,23.771697538303368],[-97.73445151299995,23.773458007303297],[-97.73585463299997,23.79621417430281],[-97.73744136699997,23.942890490299586],[-97.72733836699996,24.09203089129625],[-97.70659209699994,24.317108204291383],[-97.68691738099996,24.45056099328847],[-97.67972359199996,24.47708806728791],[-97.67644836499996,24.47785599628789],[-97.68101783999998,24.47764434528786],[-97.68063284599998,24.479923226287806],[-97.67744525899997,24.480090309287814],[-97.67920133899997,24.480876343287786],[-97.67908355499998,24.487365133287685],[-97.67534125799995,24.509323989287196],[-97.64787513899995,24.623605040284765],[-97.59118136699999,24.82459517728043],[-97.58608456099995,24.839128925280136],[-97.58385749999997,24.84248957028005],[-97.58123163799996,24.84199694428008],[-97.58625405999999,24.843283999280033],[-97.58548177999995,24.845169502279973],[-97.580641314,24.844025101280014],[-97.582614091,24.844667063280035],[-97.58229931499996,24.85083206627989],[-97.57207714999998,24.887685158279105],[-97.53869242199995,24.985369866277004],[-97.53174102299994,25.0008055922767],[-97.52988028499999,25.0006951452767],[-97.53246520999994,25.0015762132767],[-97.53089658999994,25.006098865276588],[-97.53039184899995,25.003707611276614],[-97.52919859499997,25.002722107276664],[-97.53031903799996,25.004927747276618],[-97.52855823699997,25.01111653527646],[-97.50771028799994,25.06449019327533],[-97.44146298699997,25.210883057272262],[-97.43387191599999,25.223887505271996],[-97.425433797,25.2333656712718],[-97.41302661399999,25.230621759271887],[-97.42777743299996,25.234445879271792],[-97.42497554699997,25.237203283271697],[-97.41196212999995,25.23409456827178],[-97.42054049699999,25.23643294627171],[-97.42019951499998,25.243694423271613],[-97.41713344699997,25.25379277327136],[-97.406390323,25.2756042802709],[-97.33752926999995,25.399826330268322],[-97.262548586,25.523227252265787],[-97.20745917799998,25.621802480263714],[-97.20098584299996,25.628339260263612],[-97.20237790999994,25.62839790026357],[-97.20139864699996,25.631673331263528],[-97.18233564999997,25.678789724262558],[-97.16893159599994,25.72304179226165],[-97.16425443099996,25.74564426726118],[-97.15009640299996,25.835951535259323],[-97.14473978999996,25.89260195525821],[-97.14436345999997,25.919167429257662],[-97.14637374999997,25.9548869092569],[-97.15157084999998,25.951028939257007],[-97.15877151999996,25.948814629257072],[-97.16024221999999,25.95135016925702],[-97.15853964999997,25.961752999256777],[-97.16704839999994,25.960265849256793],[-97.17621764999996,25.96564553925667],[-97.17754939999999,25.961768479256772],[-97.18680927999998,25.95842574925686],[-97.18671422999996,25.954889169256926],[-97.18862467999998,25.953721849256965],[-97.19708724999998,25.95794437925688],[-97.20495567999997,25.957984049256865],[-97.20630296999997,25.963149949256767],[-97.20863165999998,25.963870319256756],[-97.21986322,25.957278219256857],[-97.22657221999998,25.959294109256813],[-97.23876899999999,25.955734079256924],[-97.24749436999997,25.948030549257066],[-97.26095193999998,25.950998459257],[-97.27643361999998,25.952168089256972],[-97.28396567999994,25.95932799925681],[-97.28925282999995,25.954010369256928],[-97.28377026,25.949012279257023],[-97.27806493999998,25.947040429257108],[-97.28096748999997,25.94427164925716],[-97.27695517999996,25.93923408925727],[-97.27682199999998,25.935197629257328],[-97.29168522999998,25.93640562925727],[-97.29564211999997,25.93327101925737],[-97.29784465999997,25.933933919257377],[-97.29952510999999,25.93703361925726],[-97.30320470999999,25.93698056925729],[-97.30483010999997,25.928016859257493],[-97.30948931999995,25.926341799257496],[-97.31362187999997,25.93101734925741],[-97.31827691999996,25.931148109257382],[-97.32460999999995,25.92494376925751],[-97.32457144999997,25.918602509257628],[-97.32609590999999,25.917544079257667],[-97.33085710999995,25.917903029257673],[-97.33301334999999,25.926154819257533],[-97.33422224999998,25.920289049257633],[-97.33787799999999,25.92038856925763],[-97.33684248999998,25.929684459257412],[-97.34265957999997,25.928828569257462],[-97.34791539999998,25.93131030925742],[-97.35049496999994,25.92468944925755],[-97.35476013999994,25.919785619257603],[-97.36119968999998,25.915913779257696],[-97.36913662999996,25.915134769257754],[-97.36809934999997,25.909770109257856],[-97.37503187999995,25.908292489257875],[-97.37427982999998,25.90574768925793],[-97.36601561999998,25.90235301925802],[-97.36753117999997,25.89413077925817],[-97.366496,25.890545219258215],[-97.35818102999998,25.889683089258256],[-97.35640127999996,25.887761949258262],[-97.35880779999997,25.885886829258332],[-97.36760397999996,25.884640749258374],[-97.37417293999994,25.880277379258445],[-97.37328448999996,25.878249769258446],[-97.36418985999997,25.877772649258485],[-97.35943442999996,25.87980447925847],[-97.35942930999995,25.872682619258573],[-97.35665905999997,25.867350519258707],[-97.35901681999997,25.86582084925872],[-97.35901707999994,25.868890969258675],[-97.36145201999994,25.86947557925864],[-97.36938434999996,25.857756749258925],[-97.37618624999999,25.85559293925895],[-97.37584705999996,25.853975279258968],[-97.36632870999995,25.85345196925897],[-97.36421188999998,25.850867149259038],[-97.36459021999998,25.849603369259082],[-97.36786759999995,25.85067759925903],[-97.37099324999997,25.84959488925907],[-97.37263077999997,25.840125149259276],[-97.38191431999998,25.839625539259263],[-97.38704505999999,25.84390884925918],[-97.38911801999997,25.839321179259287],[-97.39338831999999,25.8372913392593],[-97.39899404999994,25.838947649259246],[-97.40615059999999,25.83789596925928],[-97.40690785999999,25.840036799259277],[-97.40053267999997,25.841363979259214],[-97.40070624999998,25.846401259259125],[-97.39865714999996,25.85033650925903],[-97.40196637999998,25.852236549258997],[-97.40481297999999,25.849020849259063],[-97.40558593999998,25.845205969259148],[-97.40789336999995,25.845215059259147],[-97.41055410999998,25.849566909259096],[-97.40791647999998,25.85464490925896],[-97.40923727999996,25.857541279258932],[-97.40778239999999,25.86152159925883],[-97.40945471999999,25.862269949258792],[-97.41217908999995,25.860263049258872],[-97.41397750999994,25.85599833925892],[-97.41463545999994,25.84747290925914],[-97.41236936999996,25.841136979259232],[-97.42445179999999,25.84044002925922],[-97.43611108,25.849987649259067],[-97.44404987999997,25.848613629259077],[-97.44588110999997,25.851184779259015],[-97.44401071999994,25.854867029258948],[-97.44508141999995,25.856372079258897],[-97.45405657899994,25.854280849258984],[-97.45204467999997,25.858693800258898],[-97.44824474999996,25.85931448025889],[-97.44770736999999,25.863444520258806],[-97.44461268899994,25.867806579258676],[-97.449041719,25.872287369258586],[-97.45350822999997,25.867405059258708],[-97.45674459999998,25.86864622925864],[-97.45488373999996,25.878469849258465],[-97.45551745999995,25.88411924925834],[-97.46397498,25.882126579258376],[-97.47057787999996,25.87535821925855],[-97.47447557,25.876846319258483],[-97.47474273999995,25.87972087925844],[-97.46839745999996,25.883966649258358],[-97.46898941999996,25.888918749258284],[-97.48445027999998,25.878823079258492],[-97.48780648999997,25.879214419258453],[-97.48626299999995,25.883496979258396],[-97.48790791999994,25.88545193925833],[-97.49224997999995,25.881236379258453],[-97.49715021999998,25.87986742925844],[-97.49635199999996,25.895946219258114],[-97.49819021999998,25.89916267925808],[-97.50542284999995,25.891173739258225],[-97.51090091999998,25.887542619258266],[-97.52127162999996,25.886323749258306],[-97.52333817999995,25.889175849258265],[-97.52374781999998,25.898994059258065],[-97.52714597999994,25.902579169257944],[-97.52853911999995,25.906781739257884],[-97.53325757999995,25.90844337925787],[-97.53387942999997,25.911732079257778],[-97.52992561999997,25.916975739257694],[-97.53000554999996,25.919866119257637],[-97.54305214999994,25.920112819257618],[-97.53729525999995,25.927178029257487],[-97.53731444999994,25.930809549257415],[-97.54367590999999,25.92336111925755],[-97.54517256999998,25.924375169257562],[-97.54617508999996,25.934220859257326],[-97.55234594999996,25.937183779257285],[-97.55585257999998,25.937237949257284],[-97.55772422999996,25.93539290925735],[-97.55937342999994,25.926711139257513],[-97.56172404999997,25.92567779925754],[-97.56797884999997,25.92777790925745],[-97.56593188999994,25.93185010925737],[-97.56697211999995,25.93372404925732],[-97.57459931999995,25.935187399257345],[-97.58098631999997,25.93256007925735],[-97.58327422999997,25.93321647925737],[-97.58403496999995,25.935731179257314],[-97.58219362999996,25.938633689257266],[-97.56639764999996,25.944740969257133],[-97.56596436999996,25.947941109257055],[-97.56790757999994,25.952513859256978],[-97.57446745999994,25.953947029256938],[-97.57288051999996,25.946230679257084],[-97.57480817999999,25.943252319257166],[-97.57811704999995,25.942093619257165],[-97.58312399999994,25.954975459256946],[-97.58212151999999,25.962378249256748],[-97.59384207999994,25.961640849256767],[-97.59847097999995,25.95674782925687],[-97.60209519999995,25.957355459256856],[-97.61060333999995,25.965961659256713],[-97.60777062999995,25.971805979256587],[-97.60790761999999,25.976810519256496],[-97.61668058,25.97905797925644],[-97.62008077999997,25.98436274925632],[-97.61974531999994,25.987610509256232],[-97.62164144999997,25.9891464592562],[-97.63043376999997,25.987885369256272],[-97.63444962999995,25.99003676925623],[-97.63329104999998,25.994614029256105],[-97.63103674999998,25.996456419256095],[-97.62580287999998,25.99515799925611],[-97.62339730999997,25.991695889256192],[-97.62048367999996,25.99216690925614],[-97.61845470999998,25.995032049256125],[-97.61836105999998,26.002315279255974],[-97.62025396999996,26.002314089255936],[-97.62320597999998,25.99719301925607],[-97.62731827999995,25.996540309256087],[-97.62840257999994,25.997555859256035],[-97.62629730999998,26.003050179255954],[-97.62713381999998,26.006113049255905],[-97.63102131999996,26.00468774925593],[-97.63240456999996,26.000934999255964],[-97.63566784999995,26.00013961925597],[-97.64929498,26.010443679255783],[-97.64903651999998,26.012593119255776],[-97.64160266,26.011639719255793],[-97.63777093999994,26.013755659255754],[-97.63711979999994,26.019659059255602],[-97.63992094999999,26.023950829255522],[-97.64483136999996,26.02777645925543],[-97.64638870999994,26.02738756925543],[-97.65043179999998,26.023714679255544],[-97.65008719999997,26.017801579255618],[-97.65161891999998,26.015868259255676],[-97.65773839999997,26.02004499925559],[-97.66813728999995,26.019425309255592],[-97.66741208899998,26.024536619255517],[-97.66061342999997,26.031440429255355],[-97.66261399999998,26.038076479255217],[-97.66415924999997,26.03687953925524],[-97.66450507999998,26.031432749255405],[-97.66724085999995,26.02888277925543],[-97.66903541999994,26.02939217925542],[-97.67089697999995,26.033973119255304],[-97.67484448999996,26.03281950925531],[-97.67599102999998,26.0297725192554],[-97.67324922999997,26.028036029255457],[-97.67565611999999,26.0258249492555],[-97.68756942999994,26.027302879255448],[-97.69327068999998,26.03235845925537],[-97.69342508999995,26.026540889255458],[-97.68996005999998,26.022354599255532],[-97.69155987999994,26.01881782925563],[-97.69755859999998,26.023906539255506],[-97.69697917999997,26.030645939255393],[-97.70222557999995,26.030816709255394],[-97.70416036999995,26.035430419255302],[-97.70712007999998,26.037734569255253],[-97.70922071999998,26.03459948925532],[-97.70949636999995,26.02618319925546],[-97.72045545999998,26.023023119255544],[-97.72157397999996,26.024074149255515],[-97.71820271999997,26.02886017925541],[-97.72138539999999,26.031270309255348],[-97.73469154999998,26.032006049255376],[-97.73527102999998,26.028441509255426],[-97.74277701999995,26.029694179255387],[-97.74800317999996,26.026113079255495],[-97.74931101999995,26.027020909255445],[-97.74883059999998,26.030320419255407],[-97.75219274999995,26.031539219255386],[-97.76153861999997,26.025561339255475],[-97.76419453999995,26.028371289255432],[-97.76267037999997,26.041574479255168],[-97.76803548999999,26.047258909255035],[-97.77678439999995,26.044317739255117],[-97.77569573999995,26.039535859255217],[-97.76929888999997,26.03594108925527],[-97.77418896999995,26.03365907925534],[-97.77789885,26.029208059255396],[-97.78183893999994,26.033772569255326],[-97.79172777999999,26.03379597925531],[-97.79728451999996,26.0393483792552],[-97.79779348999995,26.042547419255165],[-97.79543842999999,26.046715089255095],[-97.78940250999996,26.047398119255014],[-97.78882184999999,26.04944711925498],[-97.79277259999998,26.053229029254947],[-97.79887808999996,26.05283987925497],[-97.80109270999998,26.060210169254795],[-97.80802961999996,26.05812262925484],[-97.81126736999994,26.055256149254877],[-97.81241270999999,26.049074879254984],[-97.81098948999994,26.045439309255094],[-97.81241117999997,26.04406557925511],[-97.81645917999998,26.045402679255087],[-97.81468394999996,26.053233999254903],[-97.81928570999999,26.056584309254866],[-97.82584631999998,26.055822779254857],[-97.82869202999996,26.050267859255023],[-97.83426177999998,26.045602219255066],[-97.83613794999998,26.050850859254954],[-97.83920262999999,26.053108539254925],[-97.85052919999998,26.051927739254964],[-97.86100165,26.052961419254903],[-97.86235811999995,26.060976399254788],[-97.85942485,26.06668856925467],[-97.86139661999994,26.070029249254596],[-97.86407851999998,26.068234259254634],[-97.86897625999995,26.05677773925483],[-97.87682671,26.064623349254678],[-97.88709222999996,26.066596749254636],[-97.88840341999997,26.062006169254772],[-97.89104411999996,26.06030831925478],[-97.90099816999998,26.061134279254752],[-97.91049791999995,26.056468449254876],[-97.91955773999997,26.057988859254806],[-97.92708521999998,26.0548392592549],[-97.93057250999999,26.06449730925468],[-97.93364291999995,26.06555701925466],[-97.93726682,26.062095519254772],[-97.93139748,26.05748491925483],[-97.93143811999995,26.054991249254897],[-97.93355028999997,26.052985719254913],[-97.93701622999998,26.05299502925491],[-97.94480205899998,26.060237709254764],[-97.95107491999994,26.062238029254754],[-97.95553031899999,26.0612071502548],[-97.96234681999994,26.05297736925494],[-97.96587491999999,26.051666079254982],[-97.96999497999997,26.053276659254923],[-97.97358602999999,26.057585999254872],[-97.97864413999997,26.058896149254828],[-97.98019711999996,26.067216979254663],[-97.98747921999995,26.066094339254683],[-97.98875388999994,26.060597199254804],[-97.99187948999997,26.058222939254843],[-97.99727177999996,26.064748139254704],[-98.00260227999996,26.064932449254723],[-98.00781745999996,26.062142709254747],[-98.01188705999999,26.056081579254887],[-98.01273082999997,26.05752599925485],[-98.01066625999995,26.06259421925474],[-98.01204519999999,26.066102179254646],[-98.01399396999996,26.06624581925468],[-98.01591904999998,26.061630219254752],[-98.02105328999994,26.058629679254793],[-98.02492734999998,26.065496399254663],[-98.02793022999998,26.066983679254683],[-98.03314681999996,26.06165104925473],[-98.03436461999998,26.050879709254982],[-98.03871301999999,26.04136728925516],[-98.04589411999996,26.0442981492551],[-98.06220671999996,26.046250629255052],[-98.06527142999994,26.044874449255115],[-98.07051570999994,26.03730427925526],[-98.07294930999996,26.036423999255284],[-98.07724153999999,26.036477909255254],[-98.08017951999994,26.041633779255157],[-98.07256276999999,26.043845089255115],[-98.07025856999996,26.047608659255037],[-98.07008370999995,26.05147079925498],[-98.07493256999999,26.059322979254805],[-98.07630468999997,26.06756934925463],[-98.08133104999996,26.07130168925456],[-98.08569654999997,26.069503819254567],[-98.08145746099996,26.066673219254643],[-98.08136107999997,26.06433854925471],[-98.09358461999994,26.058648819254802],[-98.09786913999994,26.060273179254764],[-98.10462670999999,26.067658709254637],[-98.12457671,26.062010909254727],[-98.12974614999997,26.063183199254702],[-98.13107483,26.066630709254635],[-98.12817807999994,26.07259225925456],[-98.13187054999997,26.074309829254513],[-98.13684908999996,26.070085309254562],[-98.13656811999994,26.064055539254685],[-98.13969608999999,26.056593219254836],[-98.14337402999998,26.050617889254998],[-98.14686527999999,26.049138979255034],[-98.14948342999998,26.051596249254956],[-98.15079108999998,26.05802645925484],[-98.15375319999998,26.057864659254843],[-98.15930642999996,26.053332919254935],[-98.16173894999997,26.053999079254897],[-98.16217264999995,26.056495689254884],[-98.15791817999998,26.060656909254764],[-98.15802357999998,26.063591679254728],[-98.16126721999997,26.064474489254717],[-98.16786359999998,26.06309464925472],[-98.17226354999997,26.071593179254542],[-98.17658553999996,26.075314879254503],[-98.17965002999996,26.073461109254506],[-98.18059767999995,26.066150659254685],[-98.17684521999996,26.0630676892547],[-98.17685034,26.060735429254745],[-98.17936493999997,26.060016259254795],[-98.18305877999995,26.06362170925474],[-98.18707614999995,26.064394309254727],[-98.18883745999995,26.06295344925474],[-98.19156741999996,26.054511919254892],[-98.19363537099998,26.05308897925491],[-98.19867011999997,26.055545979254862],[-98.20466316999996,26.066391489254663],[-98.21303679999994,26.069176019254602],[-98.22020834999995,26.076335279254433],[-98.23038350999998,26.077188849254423],[-98.24954927999994,26.07217147925457],[-98.25165359999994,26.078840479254414],[-98.26472874599995,26.08549001925429],[-98.26759208999995,26.09246757025413],[-98.27631448999995,26.098635400253986],[-98.28429924999995,26.10094512025398],[-98.28837494999999,26.10469154025385],[-98.28783891999996,26.106494090253864],[-98.28236265,26.107869690253846],[-98.27050811999999,26.10662657025386],[-98.27200902999999,26.113422150253726],[-98.26584210999994,26.11714843025362],[-98.26629614999996,26.12093712025356],[-98.26921110999996,26.120520630253562],[-98.27450122999994,26.115865680253663],[-98.29122410999997,26.120843580253545],[-98.29686630999998,26.120298450253575],[-98.29986845999997,26.11780318025363],[-98.30360819999999,26.10995271925375],[-98.30204345999994,26.106728060253875],[-98.29766414999995,26.10540022025385],[-98.29773734999998,26.10337031925394],[-98.29993545999999,26.102023580253924],[-98.30533804999999,26.102886339253928],[-98.30979347999995,26.11398791925371],[-98.32193830999995,26.118892949253585],[-98.33561474899996,26.13831502725323],[-98.33447539899998,26.141180308253155],[-98.32767045899999,26.141651947253163],[-98.32649413999998,26.142937507253112],[-98.32734444999994,26.144426336253066],[-98.33526219999999,26.146180657253048],[-98.33793447999994,26.14942145625301],[-98.338400419,26.15270062725292],[-98.33311841999995,26.159446827252793],[-98.33368610999999,26.163746047252722],[-98.33569264999996,26.16581857725263],[-98.34279036999999,26.16701650625262],[-98.34622125999994,26.165688826252662],[-98.34856326,26.160698996252766],[-98.34868677999998,26.153588947252896],[-98.35209116999994,26.15105553725294],[-98.35820563,26.158724546252817],[-98.35731697999995,26.16866821725259],[-98.35982565999996,26.172514646252544],[-98.36722114999998,26.168506507252616],[-98.36421484899996,26.162109078252744],[-98.36637450999997,26.15766050725283],[-98.38278892099999,26.156663967252836],[-98.38732051999995,26.158424936252814],[-98.39314391,26.167460817252636],[-98.39778404899994,26.170485647252587],[-98.40084548999994,26.169954197252565],[-98.40239573999999,26.172024017252536],[-98.40145373899999,26.17914264725238],[-98.40276059999998,26.181473546252334],[-98.41707854999999,26.184071259252292],[-98.42655847899994,26.192387249252103],[-98.44146637999995,26.198187350252017],[-98.44393179999999,26.20054136925196],[-98.44400891899994,26.204681049251864],[-98.43856104899999,26.211950879251763],[-98.44000776799999,26.2190640902516],[-98.44410273999995,26.224177740251502],[-98.44983804899994,26.22293764925153],[-98.45449530999997,26.21668476925162],[-98.45726201999997,26.22449529025147],[-98.46064725999997,26.22608594025146],[-98.47052056999996,26.220751510251564],[-98.481815629,26.21930436925156],[-98.48297913999994,26.215092579251642],[-98.47867047899996,26.209277949251792],[-98.47748361999999,26.203787580251863],[-98.47840839999998,26.201630539251934],[-98.48140102999997,26.200621850251963],[-98.48355574899996,26.202124139251904],[-98.48137971999995,26.205428179251886],[-98.48174162899996,26.208798739251822],[-98.48492887999998,26.212524229251727],[-98.49074201999998,26.213006280251708],[-98.50388256999997,26.208378149251793],[-98.50700150899996,26.209313819251776],[-98.50690741899996,26.212469089251737],[-98.50057347899997,26.2223288302515],[-98.51280316999998,26.227169969251406],[-98.51977716999995,26.22393040025152],[-98.52143391999995,26.22041620025155],[-98.52455331999994,26.221349049251568],[-98.52693002999997,26.226170489251473],[-98.52138090999995,26.23242868925133],[-98.52233693999995,26.235684649251258],[-98.52610011999997,26.233546219251295],[-98.52980965999997,26.227108059251414],[-98.53538888999998,26.22569411925148],[-98.54348242999998,26.243412429251094],[-98.55424301999996,26.247785629251034],[-98.55793457999994,26.24723893925102],[-98.55834890899996,26.24447287925108],[-98.55276828999996,26.24167562925111],[-98.54700559999998,26.241657449251132],[-98.54574064999997,26.23652808925123],[-98.54830862999995,26.2339874892513],[-98.55523529,26.23233911925133],[-98.55991801899997,26.224450629251475],[-98.56266456899999,26.224410489251465],[-98.56477916899996,26.227766889251424],[-98.56406341899998,26.23618456925124],[-98.56626254899999,26.241561419251116],[-98.57310484999994,26.239470119251216],[-98.5772732,26.233583849251307],[-98.58009399999997,26.23539576925123],[-98.58510962999998,26.24489176925106],[-98.57983904999998,26.249594249250958],[-98.57942205999996,26.25320993925089],[-98.58572970999995,26.25767068925082],[-98.59770573999998,26.258069139250793],[-98.60781670999995,26.25316964925092],[-98.61155585999995,26.253335849250888],[-98.61625888999998,26.24648867925102],[-98.61846951999996,26.24772133925101],[-98.62153093999996,26.2589427392508],[-98.62441233999999,26.2597404292508],[-98.63270373899996,26.251435619250945],[-98.63305004899996,26.244013399251067],[-98.63457782999996,26.24233305925116],[-98.64425447999997,26.241368309251126],[-98.65646299999997,26.23570276925126],[-98.66550661999997,26.235348479251243],[-98.67056430999997,26.237002629251243],[-98.67820428999995,26.243618019251088],[-98.67963024999995,26.24859565925098],[-98.67800285,26.25804976925082],[-98.68112162999996,26.26293604925073],[-98.68757424999997,26.265294489250643],[-98.70059633999995,26.26578113925066],[-98.71151013999997,26.268545539250592],[-98.71965777099996,26.272552510250538],[-98.72002691999995,26.27584287925044],[-98.71704548999998,26.278180179250395],[-98.71050771999995,26.27905459925039],[-98.70161297999995,26.2775167792504],[-98.69967497999995,26.280439909250354],[-98.70245958199996,26.28709222225023],[-98.70811158,26.289240089250217],[-98.71668084999999,26.286126059250275],[-98.72243029199996,26.295876112250085],[-98.72810145199998,26.299003372250006],[-98.73330244999994,26.298939769249994],[-98.74195947999999,26.294042539250114],[-98.750919062,26.296011621250045],[-98.75636499999996,26.3035710192499],[-98.75498059999995,26.307587849249828],[-98.75076894199998,26.3077776012498],[-98.74208262999997,26.3026679192499],[-98.73813014999996,26.303976449249895],[-98.73607286,26.308323489249837],[-98.738041292,26.313398552249726],[-98.74423089199998,26.314943221249692],[-98.74706974199997,26.31847580124957],[-98.750717862,26.33118311224936],[-98.75457841999999,26.33142182924937],[-98.76860025999997,26.325014379249446],[-98.77623557999999,26.325285939249486],[-98.78851808199995,26.330514682249355],[-98.78800023199994,26.337697422249242],[-98.79578772199994,26.347568322249042],[-98.79864415199995,26.36092498224878],[-98.80460171199996,26.36762663224861],[-98.81441237999996,26.365918619248667],[-98.81901297199994,26.370777742248592],[-98.82421248999998,26.37088065924857],[-98.83255845999997,26.363321909248675],[-98.84359070999994,26.3585564592488],[-98.84833009199997,26.35941080224879],[-98.85119978199998,26.364461571248672],[-98.86083127999996,26.366233479248663],[-98.88932621999999,26.35704288924885],[-98.89613322999998,26.353081089248906],[-98.90086441999995,26.359273219248767],[-98.89930222,26.365337429248683],[-98.90134653999996,26.371141709248576],[-98.91396236999998,26.372552279248502],[-98.92222691999996,26.37881670924837],[-98.92410281999997,26.38351184924831],[-98.92347317999999,26.391907879248162],[-98.92672337999996,26.394565429248097],[-98.92894191999994,26.393717419248084],[-98.93534047999998,26.38555499924829],[-98.93494468999997,26.372977659248527],[-98.93765027999996,26.37029450924858],[-98.94324145999997,26.36943727924859],[-98.94928102999995,26.37150519924856],[-98.95610785999999,26.37712868924843],[-98.95345691999997,26.384122059248277],[-98.95309945999999,26.390338719248163],[-98.95457645999996,26.394539169248073],[-98.96170114999995,26.398432399247998],[-98.96910065999998,26.398798429247996],[-98.97438676999997,26.401306769247977],[-98.97785436999999,26.40068776924797],[-98.98779391999996,26.391650059248164],[-98.99999927999994,26.3940851992481],[-99.01077470999996,26.392258629248154],[-99.01276344999998,26.393054939248135],[-99.02093830999996,26.40656288924783],[-99.03030534899995,26.412239459247687],[-99.03728859999995,26.413568369247724],[-99.04424487899996,26.410880369247742],[-99.05416674999998,26.40173787924793],[-99.06181822999997,26.397666919248028],[-99.08152757999996,26.39656202924803],[-99.08398608,26.39757311924803],[-99.08903864999998,26.407904289247796],[-99.09600908999994,26.411823949247733],[-99.09969011,26.417533429247623],[-99.11100496999995,26.42645202924746],[-99.11358891999998,26.43252370924733],[-99.11352522999995,26.434805479247263],[-99.10709544999999,26.437653979247226],[-99.10293507999995,26.441595679247136],[-99.10014406,26.459559049246796],[-99.09355256999999,26.468480799246638],[-99.09164964999997,26.47531764924651],[-99.10431099999994,26.499090739245997],[-99.11787091999997,26.516013199245656],[-99.12775022999995,26.525344919245505],[-99.15343833999998,26.530639089245405],[-99.16788928999995,26.536956419245236],[-99.17151861999997,26.543152059245152],[-99.17119050999999,26.55035065924499],[-99.16731328999998,26.56004410924478],[-99.17816570999997,26.62089570924363],[-99.19997668999997,26.655792819242908],[-99.20962961999999,26.693595479242184],[-99.20860343,26.724448939241583],[-99.23961974999997,26.745261769241186],[-99.24249359999999,26.78731328924033],[-99.26201747999995,26.814908769239786],[-99.26801994999995,26.84262877923925],[-99.28049896999994,26.858088579238995],[-99.29457003,26.86498159923885],[-99.30990985999995,26.864243429238837],[-99.31714156999999,26.86546181923883],[-99.32519047999995,26.87725877923857],[-99.32799510999997,26.877781339238602],[-99.32876378099996,26.87964971923853],[-99.32121716999995,26.906559909238023],[-99.32422097999995,26.915945399237835],[-99.33702219999998,26.923398579237663],[-99.34587342999998,26.924578449237686],[-99.35116496999996,26.927859049237604],[-99.36555784999997,26.929023769237595],[-99.37274816999998,26.93138205923752],[-99.37847674999995,26.933929539237507],[-99.38502061999999,26.93960265923737],[-99.38789425999994,26.943518919237288],[-99.39375707999994,26.960227019236978],[-99.39225117999996,26.964235429236876],[-99.37788647999999,26.972923749236735],[-99.37646899999999,26.976851679236646],[-99.37863634999997,26.97974984923663],[-99.38713856999999,26.982049179236547],[-99.40296744999995,26.999756369236213],[-99.40538287999999,27.005333539236087],[-99.41541270999994,27.017375679235876],[-99.41953997999997,27.017810569235866],[-99.42640457999994,27.01144430923599],[-99.42984985,27.01051857923602],[-99.43851162999995,27.01424834923595],[-99.44569214999996,27.021863849235782],[-99.44370725999995,27.03237754923556],[-99.44468873999996,27.04116502923542],[-99.45103101999997,27.055007779235133],[-99.45270751999999,27.064064999234954],[-99.44816945999997,27.070189519234837],[-99.43557368999996,27.078980399234666],[-99.42866104999996,27.09159274923447],[-99.42956117999996,27.0941725492344],[-99.44254350999995,27.10682965923418],[-99.43235507999998,27.120718429233897],[-99.43103905999999,27.1252280892338],[-99.43102008999995,27.13704701923359],[-99.43878462999999,27.145345859233444],[-99.44002148999999,27.151146459233317],[-99.43008784999995,27.159166349233164],[-99.42621773999997,27.176127289232827],[-99.43303644999997,27.20184624923235],[-99.43260994999997,27.209922169232147],[-99.44251221999998,27.217977429232043],[-99.44536899999997,27.22317854923192],[-99.44151962999996,27.23650542923169],[-99.44183259999994,27.25080664923141],[-99.45299887999994,27.264470309231115],[-99.46195190999998,27.268386909231058],[-99.46643497999997,27.267560049231058],[-99.48153205999995,27.259580079231203],[-99.48600610999996,27.259751969231196],[-99.49089677999996,27.26272470923115],[-99.49435594,27.26652721923109],[-99.49656664999998,27.272900509230972],[-99.48784590999999,27.288580169230656],[-99.48759021999997,27.29421430923054],[-99.49460391999999,27.303764219230388],[-99.50338031999996,27.306219179230304],[-99.51201934999995,27.304065169230373],[-99.52790354999996,27.304835689230366],[-99.53650127999998,27.312053319230245],[-99.53813262999996,27.316452019230134],[-99.53236762999995,27.323625599230024],[-99.52166285999999,27.324643169229983],[-99.50449873999997,27.33877976922968],[-99.50786085999994,27.3535097792294],[-99.50297357999995,27.36645902922918],[-99.49228068999997,27.380591799228903],[-99.49278484999998,27.39198427922869],[-99.48946374999997,27.399132799228592],[-99.48762099899994,27.411046199228327],[-99.49553021999998,27.43798953922782],[-99.49533634899996,27.446578309227675],[-99.49261914999995,27.454776169227532],[-99.48323864999998,27.46732157922725],[-99.48239850999995,27.475435969227103],[-99.47876526,27.47950650922706],[-99.48134761999995,27.48909413922689],[-99.49342722999995,27.49762797922671],[-99.50213231,27.500217378226658],[-99.51442219999996,27.49925330922666],[-99.52311376999997,27.49654310922672],[-99.52818764999995,27.4981532192267],[-99.52497561999996,27.51220765922643],[-99.52553493999994,27.52205025922626],[-99.52247891999997,27.533001089226005],[-99.52201016999999,27.544304749225816],[-99.51869336999994,27.55311965922565],[-99.51325127999996,27.557819249225545],[-99.51154919999999,27.566082019225423],[-99.51506787999996,27.571374829225284],[-99.52901357999997,27.579229679225133],[-99.53504288999994,27.59003756922496],[-99.54025062999995,27.604354799224712],[-99.55483125999996,27.614409939224483],[-99.56125785999996,27.60713027922462],[-99.57873464999994,27.602013619224728],[-99.58423501999994,27.60345859922472],[-99.58433679999997,27.606025089224676],[-99.57967816999997,27.607272399224644],[-99.57682544999994,27.610973979224553],[-99.57710614999996,27.618310779224448],[-99.58312041999996,27.620915309224376],[-99.59150330999995,27.62772921922425],[-99.59262921999999,27.635533219224122],[-99.59590431999999,27.639763769224025],[-99.60317050999998,27.641988259224004],[-99.60946499999994,27.641071799224036],[-99.61585673999998,27.637399339224082],[-99.61824417999998,27.638811569224018],[-99.62062962,27.643696649223944],[-99.62426404999997,27.64411451922397],[-99.62653228999994,27.642609249223998],[-99.62736968999997,27.639308509224033],[-99.62301399999996,27.63394788922415],[-99.62716530999995,27.629998459224186],[-99.63866430999997,27.62671501922428],[-99.64858882999994,27.630423749224185],[-99.65546727999998,27.62925964922422],[-99.66629230999996,27.636405939224066],[-99.66519007999995,27.640600879224035],[-99.66134388999997,27.642531519223965],[-99.65812311999997,27.647847429223898],[-99.65827381999998,27.650402889223848],[-99.66378290999995,27.657444029223726],[-99.66899979999994,27.65997317922366],[-99.67869005999995,27.65863736922369],[-99.68653691999998,27.661541219223633],[-99.68916942999994,27.663891599223586],[-99.69050334999999,27.669118199223497],[-99.69686281999998,27.663009459223613],[-99.69875394999998,27.65584239922371],[-99.70549990999996,27.65525487922373],[-99.72258874,27.667391059223526],[-99.72427799999998,27.674487279223385]]]}}]}
