{"type":"FeatureCollection","features":[{"type":"Feature","properties":{"cve_ent":"29","cvegeo":"29","nombre_inegi":"Tlaxcala","nombre_catalogo":"Tlaxcala"},"geometry":{"type":"Polygon","coordinates":[[[-98.05625122,19.726022659399938],[-98.06080844999997,19.728917429399814],[-98.06597156999999,19.72807694939987],[-98.06811277999998,19.71601021940017],[-98.06439637999995,19.709010079400347],[-98.06772653999998,19.706803969400433],[-98.06880907999995,19.703366049400504],[-98.07387517999996,19.702653109400494],[-98.07428795,19.700692429400576],[-98.0828074,19.700755799400536],[-98.08389367999996,19.693794379400728],[-98.09044841999997,19.68945588940083],[-98.09270174999996,19.683297949401016],[-98.09091550999996,19.677618029401174],[-98.09337693999998,19.673905309401256],[-98.10100791999999,19.668049889401424],[-98.10001859999994,19.67116068940128],[-98.10369393999997,19.677215679401183],[-98.10658825999997,19.6790927394011],[-98.10651301999998,19.681781219401056],[-98.11077959999996,19.68395087940099],[-98.11039691999997,19.685781429400965],[-98.11773587999994,19.688263339400876],[-98.12470375,19.68520990940093],[-98.14373048999995,19.683648829400987],[-98.14860621999998,19.680922149401088],[-98.14864170999995,19.676914689401162],[-98.15283551999994,19.67645930940117],[-98.15671590999995,19.671362429401306],[-98.16556431,19.66747585940138],[-98.16591902999994,19.669580139401354],[-98.17016545999996,19.67313105940127],[-98.17667893999999,19.67464085940124],[-98.18130284999997,19.67369879940127],[-98.18267231999995,19.67691711940116],[-98.18736851999995,19.67973239940107],[-98.19024868999999,19.67794759940112],[-98.18981993999995,19.671012489401328],[-98.19503762999994,19.675046229401236],[-98.20686362999999,19.67468347940123],[-98.20958142999996,19.677174179401167],[-98.22024751999999,19.67371411940125],[-98.22802428999995,19.67445130940122],[-98.22909219999997,19.674875859401208],[-98.22808152,19.680419449401075],[-98.23275413999994,19.676829289401176],[-98.24106727999998,19.675836149401203],[-98.24106507999994,19.679112849401076],[-98.24435142999994,19.685380449400917],[-98.24623830999998,19.684915029400983],[-98.25241130999996,19.693125799400764],[-98.25315153999998,19.706668739400406],[-98.25503448999996,19.708198969400385],[-98.25376817999995,19.71626499940019],[-98.25531891999998,19.71882901940009],[-98.26563677899998,19.71701394940012],[-98.27198236999999,19.724579429399967],[-98.27523250999997,19.72380296939999],[-98.28166091999998,19.72625997939993],[-98.28229974999994,19.724035779399987],[-98.2796724,19.71688148940014],[-98.29176322999996,19.72590042939989],[-98.29332171999994,19.726229599399925],[-98.29269257999994,19.72392468939997],[-98.30155850999996,19.723078749400006],[-98.30732444999995,19.727020819399915],[-98.31108688999996,19.72772644939986],[-98.31505351999999,19.724711179399943],[-98.33166719999997,19.72231996940002],[-98.33273798,19.719736079400104],[-98.33192044999998,19.711642149400266],[-98.33313550999998,19.711763999400294],[-98.33330922999994,19.709327979400346],[-98.32948161999997,19.703776049400478],[-98.33004673999994,19.69903745940061],[-98.32883788,19.69801211940062],[-98.32094917999997,19.701010889400578],[-98.32380313999994,19.68529764940095],[-98.38169684999997,19.609361859402874],[-98.41266653899999,19.61749908940267],[-98.43009193899996,19.614145089402733],[-98.43878354999998,19.614325919402756],[-98.44142364899994,19.61258057040278],[-98.443256379,19.612901309402783],[-98.44403917999995,19.615681940402727],[-98.45070584899997,19.61808756940267],[-98.45409830899996,19.618305979402667],[-98.46037668999998,19.616081979402704],[-98.46125170999996,19.61441788040277],[-98.46600370899995,19.614922110402752],[-98.46675296999996,19.613708599402774],[-98.47851768899994,19.618002829402634],[-98.483771629,19.618776219402623],[-98.48750625999998,19.617513340402688],[-98.49019542999997,19.619953319402597],[-98.49270407999995,19.61383725940275],[-98.49089354999995,19.61016431040288],[-98.49161384899998,19.607367829402925],[-98.49570102999998,19.607443019402954],[-98.50231581999998,19.60320214940307],[-98.51442207999997,19.603972749402995],[-98.51923879999998,19.602399289403056],[-98.52826301999994,19.614315569402738],[-98.52595336999997,19.61943791940264],[-98.53557578,19.634418879402258],[-98.55039967999994,19.618578169402628],[-98.55016621999994,19.6245487794025],[-98.55574042999996,19.625392059402444],[-98.55561045999997,19.628102369402377],[-98.56371950999994,19.627148819402443],[-98.56136994999997,19.637595399402187],[-98.56635779999999,19.641119659402108],[-98.56904890999999,19.638757109402118],[-98.57993997999996,19.637416339402197],[-98.58496771999995,19.627821679402434],[-98.58961570999998,19.62294070940251],[-98.59034870999994,19.61936364940261],[-98.60031777999995,19.61140919940281],[-98.60083945999997,19.608284949402908],[-98.60381871,19.60556128940295],[-98.60983607999998,19.602014309403096],[-98.62591689,19.60033221940311],[-98.63101379999995,19.60199316940309],[-98.63468662999998,19.59775810940316],[-98.63830191999995,19.59894117940315],[-98.64198713999998,19.605367249402967],[-98.64470087999996,19.606965229402967],[-98.64765942999998,19.607803549402895],[-98.64964568999994,19.60644094940295],[-98.65330847999996,19.607834079402906],[-98.66314561999998,19.604754219403027],[-98.66557708999996,19.606153739402938],[-98.67008462999998,19.59848304940314],[-98.67818357,19.599970889403146],[-98.68137994999995,19.59828493940316],[-98.68151245899998,19.587920219403436],[-98.69243199899996,19.585879489403453],[-98.69300661899996,19.58366353940353],[-98.69124122899996,19.583007339403547],[-98.69115391899999,19.579433859403643],[-98.68911016899995,19.576859429403733],[-98.69326710899998,19.576077459403713],[-98.69563721899999,19.572450199403836],[-98.69480682899997,19.570641919403904],[-98.70126827899998,19.570944249403837],[-98.70200894899995,19.565262419404036],[-98.69950685899994,19.56715064940395],[-98.70446353899997,19.561323419404122],[-98.703841739,19.559091599404162],[-98.70604428899999,19.559336259404184],[-98.70813173899995,19.554805569404277],[-98.70546288899999,19.552477029404322],[-98.70839857899995,19.547599689404446],[-98.70161076899997,19.545813629404517],[-98.70234216999997,19.540268259404655],[-98.70002110899999,19.531311769404887],[-98.68191239899994,19.51801070940522],[-98.67817088899994,19.51209837940538],[-98.67567262899998,19.499461259405667],[-98.66039770899994,19.485502459406078],[-98.66102185899996,19.478433119406212],[-98.65434736899994,19.4710620794064],[-98.65322654999996,19.465986229406553],[-98.64053588999997,19.463304059406617],[-98.63411471999996,19.467848169406473],[-98.62940657999997,19.457017949406744],[-98.60915810999995,19.450613309406947],[-98.59127564999994,19.449214199406963],[-98.57027613999998,19.466769349406533],[-98.55791985999997,19.462643289406667],[-98.54375284999998,19.46039781940667],[-98.53521381999997,19.462322369406625],[-98.52319213999999,19.460868679406666],[-98.51895159999998,19.45092217940696],[-98.51627988999996,19.43917593940724],[-98.51271754999999,19.435501309407343],[-98.51034417999996,19.42800002940755],[-98.50740017,19.4254488294076],[-98.50624364999999,19.425999569407573],[-98.50374133999999,19.4204365494077],[-98.49848068999995,19.416450739407846],[-98.49051571999996,19.40407293940814],[-98.48734214999996,19.397655519408325],[-98.48679813999996,19.389042319408517],[-98.47027770999995,19.360830909409263],[-98.45305794999997,19.344800569409685],[-98.44127299999997,19.325251139410152],[-98.42835277999995,19.3275793994101],[-98.42070417999997,19.31994679941027],[-98.41439082999995,19.319627119410317],[-98.41261899999995,19.317108019410362],[-98.40772136999999,19.315931709410382],[-98.41009082999994,19.29133926041106],[-98.40693156899994,19.28823265941113],[-98.40176319299998,19.28788017341114],[-98.40132862199994,19.282398180411292],[-98.38040345799999,19.261715620411817],[-98.37669244999995,19.252380079412003],[-98.37726756399996,19.247464718412164],[-98.37039647999995,19.236020139412464],[-98.36454633999995,19.23312524941254],[-98.36891504999996,19.226121999412698],[-98.35441397999996,19.22085959941285],[-98.35186205999997,19.21900361941288],[-98.34415679999995,19.205301119413267],[-98.33684579999999,19.203632779413322],[-98.33493584999998,19.204469579413253],[-98.33068096999996,19.200150049413388],[-98.33492216999998,19.19377790941355],[-98.33789275,19.192050089413616],[-98.34271028999996,19.17793973941396],[-98.32392928999997,19.16866187941421],[-98.31217268999995,19.19039881941363],[-98.307155939,19.189203940413698],[-98.30241434999999,19.18683359941374],[-98.29165334999999,19.176056259414008],[-98.26970279899996,19.16238987941436],[-98.23819441899998,19.15788454041448],[-98.23787791899998,19.155862479414537],[-98.23674853999997,19.157257199414502],[-98.23024123,19.156728620414533],[-98.22839653899996,19.153906229414616],[-98.22988013999999,19.14872589041469],[-98.22558982999999,19.144428650414834],[-98.22440114999995,19.141667740414896],[-98.22587208,19.140217940414942],[-98.22303888899995,19.136637599415003],[-98.20804022,19.132699479415123],[-98.19922581899999,19.13817088041501],[-98.19070668899997,19.13998573941494],[-98.18818396999997,19.135516550415034],[-98.19714262899998,19.12749708041528],[-98.191638658,19.121936969415394],[-98.20434781999995,19.114928919415604],[-98.19860864999998,19.116615549415553],[-98.184854579,19.115515680415562],[-98.16617577399997,19.10507185941587],[-98.16115871899996,19.107735540415803],[-98.15936639999995,19.111447030415704],[-98.14953145899995,19.12088394941545],[-98.14664581899996,19.122753369415392],[-98.14475871899998,19.121268820415434],[-98.14969902999998,19.113866400415617],[-98.14744381999998,19.114414170415632],[-98.13216521599999,19.128703910415243],[-98.12815302899998,19.12938660041525],[-98.11015931699997,19.143212050414842],[-98.10322287999998,19.152573599414605],[-98.10269699999999,19.157520340414504],[-98.09935774399997,19.161394750414384],[-98.10031873899999,19.163366658414365],[-98.09357057999995,19.166181199414254],[-98.07757033999998,19.17685922941399],[-98.06961271899996,19.185167029413787],[-98.06864187999997,19.190049059413635],[-98.06277261999999,19.19492417941352],[-98.05932663,19.201226419413377],[-98.05052148999994,19.207178779413205],[-98.04756477999996,19.207053319413216],[-98.04153059999999,19.2102317194131],[-98.03461788999994,19.21877196941289],[-98.03523385999995,19.224126429412795],[-98.03168625999996,19.2309383794126],[-98.00572819999996,19.208853619413183],[-97.99862341999996,19.198324739413422],[-97.96671862099998,19.18746883041371],[-97.92820264999995,19.164213419414327],[-97.92199773999994,19.170136819414154],[-97.91507002999998,19.173168079414076],[-97.91499001999995,19.176147539413996],[-97.91137424999994,19.179609259413926],[-97.90801773999999,19.180833479413877],[-97.90460587999996,19.177586399413972],[-97.88983906,19.186956739413713],[-97.89074913999997,19.189621139413656],[-97.89420757999994,19.191153979413603],[-97.89408733999996,19.19729996941349],[-97.89557830999996,19.197518349413464],[-97.89322102999995,19.20030730941335],[-97.86212321999996,19.21384062941304],[-97.85098828999999,19.222934229412818],[-97.85390542999994,19.22609074941269],[-97.86038336999998,19.244077369412278],[-97.87049470999995,19.240060969412365],[-97.86513557999996,19.253949379412006],[-97.86006888999998,19.256725169411926],[-97.85405181899995,19.257328290411884],[-97.87028704899996,19.270585979411603],[-97.85971697999999,19.28719951941115],[-97.83842865999998,19.28726439941112],[-97.83960224999998,19.29227981941099],[-97.83715796999996,19.29506114941094],[-97.83927042999994,19.301376169410755],[-97.82085688999997,19.304730999410705],[-97.80047142999996,19.301583379410786],[-97.78541945999996,19.288934379411113],[-97.77673567999994,19.286317349411163],[-97.77521853999997,19.28709371941113],[-97.77336939999999,19.28625010941115],[-97.77351685999997,19.284043419411226],[-97.77138551999997,19.28375264941123],[-97.76967763,19.286595479411186],[-97.76508548399995,19.286859139411142],[-97.75705408999994,19.29976797941083],[-97.75386887999997,19.299308689410807],[-97.74509181999998,19.305259939410664],[-97.73702679999997,19.296690309410877],[-97.73833273999998,19.287099629411156],[-97.72932342999998,19.293109909411],[-97.71964294999998,19.304753229410718],[-97.71574954999994,19.2978491094109],[-97.71046739999997,19.295635429410936],[-97.70473687999998,19.297057709410883],[-97.70124801999998,19.29569121941092],[-97.69921748999997,19.291859219411027],[-97.69093324999996,19.285888119411165],[-97.67760609,19.292673819411014],[-97.66952019999997,19.292134219411004],[-97.66595333999999,19.295522579410946],[-97.65804468899995,19.310664519410533],[-97.64608887999998,19.30640931941066],[-97.63894874499994,19.31905000041032],[-97.63312228899999,19.316157980410406],[-97.632854459,19.320278079410276],[-97.62719110999997,19.3230442804102],[-97.62545036899996,19.326622369410128],[-97.62567419899995,19.331393649410018],[-97.62763994899996,19.33434517940995],[-97.63871171999996,19.33826312040985],[-97.63144614999999,19.355395429409388],[-97.64029031999998,19.360751459409276],[-97.65363114999997,19.353799969409447],[-97.65334562999999,19.358869619409315],[-97.65797941999995,19.363674059409185],[-97.66612468999995,19.365310459409137],[-97.6688132,19.368349139409087],[-97.67070616999997,19.36680508940911],[-97.67385881999998,19.367471459409057],[-97.67652201999994,19.371400369408985],[-97.67776076999996,19.381555749408733],[-97.68130171999996,19.388303349408545],[-97.68675541999994,19.38696950940855],[-97.69381039999996,19.389163379408544],[-97.69641197999995,19.390957719408497],[-97.69817305999999,19.39561497940838],[-97.70320576999997,19.392929889408443],[-97.70545484999998,19.393641369408424],[-97.70767777999998,19.399183029408285],[-97.70659794999995,19.403145579408168],[-97.70878377999998,19.405785369408086],[-97.71194061999996,19.406320999408088],[-97.72113942999995,19.418575019407772],[-97.72068179999997,19.42257802940767],[-97.72335710999994,19.42512045940763],[-97.72452511999995,19.43163694940743],[-97.73043037999997,19.432502719407417],[-97.73410262,19.434979919407343],[-97.73530348999998,19.432443599407428],[-97.73662514999995,19.434858769407363],[-97.73797928999996,19.431889059407435],[-97.73857790999995,19.43303679940737],[-97.74174468999996,19.432227619407413],[-97.74727873999997,19.436333969407332],[-97.74520624999998,19.43935316940724],[-97.74469414999999,19.445041629407086],[-97.74785874999998,19.45122725940693],[-97.75398211999999,19.450368539406956],[-97.75665294999999,19.45250357940689],[-97.75480144999995,19.457542879406784],[-97.76878137999995,19.458101319406733],[-97.77071122999997,19.45661419940679],[-97.77392291999996,19.459556949406704],[-97.77396354999996,19.469174549406468],[-97.77804574999999,19.472877399406396],[-97.78658011999994,19.470452289406417],[-97.79685925999998,19.47244284940638],[-97.79762527999998,19.47853354940624],[-97.79682019999997,19.485034509406074],[-97.79490105999997,19.486486749406],[-97.79453867999996,19.498374599405693],[-97.80545911999998,19.489469849405932],[-97.81257296999996,19.486855139406007],[-97.81474802999998,19.48252125940613],[-97.84611145999997,19.468828549406496],[-97.85393049,19.45830305940674],[-97.85942247999998,19.454345939406853],[-97.86227148999996,19.4561755194068],[-97.85747691999995,19.46478594940661],[-97.85209714999998,19.468073489406503],[-97.84735321999996,19.474003089406356],[-97.84873908999998,19.4827819094061],[-97.85817079999998,19.493127939405827],[-97.87190885999996,19.498554579405738],[-97.87085541999996,19.500227179405638],[-97.87398748,19.502926599405576],[-97.87759041999999,19.50269062940563],[-97.88148841999998,19.499802709405675],[-97.88974825999999,19.504579089405567],[-97.88643812,19.516813309405233],[-97.88751521999995,19.51763542940522],[-97.87793690999996,19.524101599405064],[-97.87168097999997,19.532152169404878],[-97.86818476399998,19.553345376404295],[-97.87181258999999,19.561767646404125],[-97.87574536399995,19.56384667440403],[-97.88153460799998,19.571721435403873],[-97.89249728199997,19.572591854403814],[-97.90039621499994,19.57805708840366],[-97.90792455699994,19.579355890403637],[-97.91142091999996,19.583875048403524],[-97.91184538399995,19.588468622403415],[-97.91614757299999,19.594016027403285],[-97.92388294199998,19.59042694840338],[-97.924905777,19.58853599640344],[-97.92695450599996,19.589782510403406],[-97.93118639699998,19.58764964840346],[-97.93335829399996,19.589102697403384],[-97.93830271499996,19.58765312240344],[-97.93986326199996,19.588752488403415],[-97.94670639099996,19.58563022240351],[-97.95016369699994,19.589644733403386],[-97.95075567599999,19.594166842403254],[-97.94911723399997,19.597271556403197],[-97.95053275099997,19.602838175403036],[-97.95405259299997,19.604457417402994],[-97.95808981199998,19.603069754403034],[-97.95919411599999,19.607582030402938],[-97.96101247799999,19.607708903402926],[-97.96073317199995,19.6099496774029],[-97.96294322199998,19.612833632402783],[-97.96519608499995,19.612962694402825],[-97.96870087999997,19.617704925402673],[-97.97041663299996,19.61790177540267],[-97.97343512699997,19.624287452402484],[-97.98067825899994,19.628541631402417],[-98.04221201999998,19.64022470940209],[-98.03788387999998,19.64847471940186],[-98.03600387999995,19.665082089401476],[-98.03638185999995,19.685522919400935],[-98.03735025999998,19.688172089400847],[-98.03984457999996,19.68951065940085],[-98.04006688,19.699592619400565],[-98.04987808999995,19.712308489400264],[-98.05321093999999,19.713596109400207],[-98.05464392,19.718560909400118],[-98.0531514,19.720481719400066],[-98.05600736999999,19.722795179399984],[-98.05625122,19.726022659399938]]]}}]}
