{"type":"FeatureCollection","features":[{"type":"Feature","properties":{"cve_ent":"31","cvegeo":"31","nombre_inegi":"Yucatán","nombre_catalogo":"Yucatán"},"geometry":{"type":"MultiPolygon","coordinates":[[[[-88.00659469799996,21.610456611353342],[-88.00716714699996,21.614788893353236],[-88.00656881099997,21.609844506353337],[-88.03579798999993,21.610431560353316],[-88.07812790299994,21.614605600353226],[-88.11718278499995,21.623287145353018],[-88.13204913499999,21.624923291353003],[-88.14331815699995,21.623977478353023],[-88.17758854999994,21.613342199353244],[-88.17444891899999,21.60929996935334],[-88.17588524599995,21.61018253835333],[-88.17619369499994,21.60811108035339],[-88.19723870699994,21.601155665353563],[-88.22679886399999,21.582895769353986],[-88.23226612099995,21.58213865535399],[-88.23068482999997,21.578798679354072],[-88.23194598899994,21.579834146354045],[-88.23216468899994,21.57787165735411],[-88.24046006299994,21.574719048354204],[-88.23816985999997,21.574290999354215],[-88.23830874999999,21.567414749354374],[-88.24313734999998,21.566942139354357],[-88.24334167999996,21.562870769354486],[-88.24867805999997,21.562432369354493],[-88.25440642999996,21.564212019354454],[-88.25717236999998,21.561227879354504],[-88.26104265999999,21.561344599354477],[-88.26990836999994,21.555657349354632],[-88.27127851999995,21.556786019354625],[-88.27343696999998,21.55592641935463],[-88.27828694999994,21.560947199354505],[-88.28113740999999,21.5568135103546],[-88.28106288999999,21.55390534935467],[-88.28570273999998,21.557359579354575],[-88.28850850999999,21.554314399354684],[-88.28912685999995,21.55521959935464],[-88.29323328999999,21.553412769354658],[-88.29692734999998,21.552952849354696],[-88.30121597999994,21.555342909354636],[-88.30057756999997,21.55146694935477],[-88.30385657999994,21.55315151935468],[-88.30456413999997,21.55187519935472],[-88.30593410999995,21.553201749354677],[-88.30575926199998,21.551772218354724],[-88.31414836999994,21.553422709354706],[-88.31430617999996,21.55145747935475],[-88.31704345999998,21.550638089354777],[-88.32103977999998,21.55242605935473],[-88.32068045999995,21.55074777935475],[-88.32097472799995,21.550331372354776],[-88.32357568999998,21.552449263354738],[-88.33229407999994,21.554488289354666],[-88.33790043499994,21.55290787935473],[-88.34233170599998,21.557556138354585],[-88.35047216599997,21.557181535354584],[-88.35416996999999,21.562120859354483],[-88.35862021999998,21.563963149354457],[-88.36082213999998,21.56153773935451],[-88.36248464999994,21.563709149354416],[-88.37134301999998,21.566357709354367],[-88.39755096999994,21.565389569354398],[-88.42276850999997,21.558325089354568],[-88.46226226299996,21.552701359354728],[-88.49761470199996,21.54352035235496],[-88.52846136799997,21.53344919235514],[-88.54497119599995,21.53517365035512],[-88.56057447199998,21.5319266883552],[-88.56515611199995,21.52942572135526],[-88.60632285199995,21.52481734235538],[-88.61672353999995,21.52189007935545],[-88.62912081999997,21.514888089355622],[-88.64175385399994,21.496444811356067],[-88.69031768999997,21.459603485356954],[-88.69570770399997,21.45445794035707],[-88.69429054999995,21.454248219357112],[-88.69473919999996,21.451073249357144],[-88.70290262999998,21.448660889357203],[-88.73871853999998,21.430725259357626],[-88.75593605999995,21.426156709357745],[-88.77395959999996,21.42462313935779],[-88.79653185199999,21.41999204935794],[-88.80400732599998,21.416318882357984],[-88.80486095799995,21.415480123358012],[-88.79819609099997,21.417829741357952],[-88.80064042099997,21.41499714335802],[-88.79973607799997,21.413613335358036],[-88.79670500099996,21.417277230357993],[-88.79801741799997,21.4127653733581],[-88.81407760299999,21.410345290358148],[-88.82647800199999,21.403555231358283],[-88.83865758299999,21.40038922935836],[-88.83976968299999,21.39922299935843],[-88.83860874299995,21.399147749358416],[-88.83831532299996,21.39880511035842],[-88.84062229299997,21.39787365935846],[-88.84097775799995,21.39892270135841],[-88.84823043299997,21.3985575103584],[-88.85901314299997,21.395812229358484],[-88.87653192999994,21.395721354358482],[-88.87953394899995,21.396325520358484],[-88.87987436999998,21.397785079358453],[-88.87992371999997,21.3947462433585],[-88.88019362299997,21.394017259358534],[-88.88005398099995,21.396995101358474],[-88.88049881999996,21.395710434358513],[-88.92075223299997,21.38733726035867],[-88.95718366199998,21.38440947535875],[-88.99049832699995,21.37719849235893],[-88.99026884999995,21.37828099935894],[-89.04344176999996,21.37197556935909],[-89.07536851999998,21.36677471235918],[-89.08924250999996,21.361582600359334],[-89.11002205999995,21.3578242903594],[-89.13872147899997,21.35658986035943],[-89.14394928199994,21.358332456359424],[-89.14381747099998,21.35539894535945],[-89.14072568899996,21.354950278359464],[-89.14474675099996,21.35478489235948],[-89.14453742899997,21.356325509359433],[-89.14474427899995,21.358034179359418],[-89.14474277899996,21.356067919359447],[-89.14696854999994,21.355178567359463],[-89.18527990999996,21.35346147935955],[-89.21018310999995,21.349429829359636],[-89.26034342899999,21.344278510359715],[-89.26394049399994,21.345320446359725],[-89.26407959499994,21.34412862835976],[-89.28152570499998,21.34246414635977],[-89.30959373399998,21.34380480735977],[-89.30953342899994,21.341127579359807],[-89.31350609799995,21.339416001359872],[-89.39597747999994,21.331072109360047],[-89.41501021999994,21.32703273936015],[-89.50104396899997,21.316141026360448],[-89.55394614899996,21.30729467036061],[-89.57563788299996,21.300935418360773],[-89.60458747999996,21.296200909360888],[-89.60725700399996,21.296023987360915],[-89.60729263599995,21.297712737360843],[-89.60733746799997,21.296018653360882],[-89.60925194899994,21.295490628360895],[-89.64570282699998,21.28955013736106],[-89.66465277599997,21.288733325361083],[-89.67073063299995,21.34567656335968],[-89.67524090199998,21.348483138359644],[-89.68110865299997,21.34919221735961],[-89.68419124399998,21.347482574359674],[-89.68130331899994,21.34874514935965],[-89.68114803299994,21.34485553035974],[-89.67609008999995,21.344799119359738],[-89.67462236999995,21.346190659359692],[-89.67121591099999,21.344826354359736],[-89.67095665099998,21.342248749359804],[-89.67260886099996,21.34173082235979],[-89.67562304299997,21.341711786359816],[-89.67623350999997,21.34144613935983],[-89.67176854999997,21.34009868935984],[-89.67488219799998,21.338761374359866],[-89.67051846599998,21.338373266359895],[-89.66495235999997,21.288552300361072],[-89.66611151499995,21.290517564361064],[-89.66676912799994,21.287506487361142],[-89.69288906699995,21.28184218036126],[-89.69916345999997,21.282489000361227],[-89.69934112399994,21.283820107361187],[-89.70208446399994,21.284338770361167],[-89.69985966799999,21.283256115361244],[-89.70261324399996,21.28288370036123],[-89.70307193999997,21.28464512536117],[-89.70431568299995,21.279644339361315],[-89.76886339999999,21.26620088936163],[-89.80535175799997,21.256517828361886],[-89.81577748399997,21.2549149393619],[-89.81601068299994,21.256654745361853],[-89.81615043999994,21.256644217361888],[-89.81583485099998,21.25490401536193],[-89.84512753999996,21.250811679361977],[-89.84411359999996,21.247897079362062],[-89.84921929799998,21.245314998362165],[-89.86851710099995,21.241265290362232],[-89.89771033399995,21.232180254362458],[-89.93325577999997,21.212946985362954],[-89.97940888399995,21.18436032236365],[-89.99662634099997,21.17624305436381],[-90.03519443299996,21.166577112364077],[-90.04929269999997,21.166301699364084],[-90.04795544299998,21.161152545364168],[-90.04479912999994,21.161621891364156],[-90.04543188899999,21.159722799364225],[-90.04678268899994,21.16097151936418],[-90.04646613999995,21.159444419364235],[-90.04730207899996,21.16086324936417],[-90.04839796599998,21.159694531364224],[-90.04941728899996,21.164453089364113],[-90.04965437799996,21.162504079364176],[-90.05344247999994,21.16143332236417],[-90.07183412699999,21.160010404364208],[-90.09461231999995,21.155552769364313],[-90.10729748999995,21.147309459364493],[-90.15088684699998,21.125343802365087],[-90.20523807899997,21.089032030365942],[-90.27078781499995,21.05260411336686],[-90.31045637999995,21.02868994336742],[-90.32853610099994,21.015607465367744],[-90.33840478699994,21.005419548368],[-90.34491341699999,20.996851535368215],[-90.36692149399994,20.959440572369115],[-90.39048343799999,20.88919640737082],[-90.39358153399996,20.875844013371164],[-90.40038609599998,20.8625949453715],[-90.40394885099994,20.858841243371597],[-90.40309922399996,20.855458496371636],[-90.40698595799995,20.84861998137184],[-90.39984719899996,20.845286800371902],[-90.37935699999997,20.84832728937183],[-90.38664877999997,20.555585799379095],[-90.34113810999997,20.553701119379095],[-90.33523610999998,20.57634770937855],[-90.33523610999998,20.5413123093794],[-90.23458337999995,20.545343179379316],[-90.23493610999998,20.544109029379374],[-90.22924096999998,20.543562889379352],[-90.23250802999996,20.519894049379964],[-90.22376665399997,20.519164968379947],[-90.23420798999996,20.470466618381163],[-90.18478789999995,20.461046138381434],[-90.18629756999997,20.436932318382024],[-90.16051482099994,20.44186276838191],[-90.13246052999995,20.43965516838194],[-90.13157124999998,20.443077578381843],[-90.12927336999996,20.440352419381952],[-90.10776561999995,20.431489119382142],[-90.10097351199994,20.425251769382307],[-90.06721065199997,20.425225888382307],[-90.06601855999997,20.433975478382063],[-90.05709875999997,20.432965879382106],[-90.05527216999997,20.44451437838184],[-90.04918964999996,20.454164258381578],[-90.05004767999998,20.456028568381562],[-90.04168844999998,20.46645148938129],[-90.02034148999996,20.477083059381005],[-90.00562471999996,20.477367199381018],[-90.00417367999995,20.487021879380766],[-89.83796387999996,20.287175879385774],[-89.87238230999998,20.287628089385745],[-89.87566068999996,20.253101950386633],[-89.84067816899994,20.251027509386645],[-89.84616490899998,20.209686980387712],[-89.80250527899994,20.201605080387885],[-89.80287085999998,20.1649066013888],[-89.79397477999999,20.136171941389527],[-89.78784381899999,20.144447971389308],[-89.77345317999999,20.153084140389087],[-89.75278665999997,20.176548740388515],[-89.74847416999995,20.179269720388437],[-89.59870388999997,19.998197379392987],[-89.60467007899996,19.93828496839454],[-89.59584174899999,19.937422049394563],[-89.59744587999995,19.921122340394977],[-89.58681033999994,19.920460029395],[-89.58749974999995,19.87442004939612],[-89.57175750999994,19.85295528939671],[-89.57742985999994,19.853508859396662],[-89.53613008999997,19.79745802939807],[-89.52567236999994,19.77555464939867],[-89.47590945999997,19.771220200398773],[-89.47914942999995,19.740645549399563],[-89.49166181999999,19.74222844939948],[-89.47722007999994,19.71105494940031],[-89.46829547999994,19.70016128940055],[-89.44811298999997,19.69835351040062],[-89.41247851999998,19.649376289401893],[-89.29656181999997,19.551174089404395],[-89.21955656999995,19.608022249402914],[-89.22286873999997,19.636656969402186],[-89.19024962999998,19.63331773940227],[-89.18920313999996,19.64400593940201],[-89.14486168999997,19.637398719402203],[-89.14952064999994,19.581249339403612],[-89.10902445999994,19.58234937940356],[-89.10839167999995,19.612338489402838],[-89.13364059999998,19.61463202940276],[-89.12339851999997,19.703424149400487],[-89.07421268999997,19.69419410940074],[-89.07603059999997,19.68543254940093],[-89.03620045999998,19.67803951940111],[-89.03052362999995,19.708831749400357],[-88.99752937999995,19.704883889400474],[-88.99474127999997,19.72743959939985],[-89.01538533999997,19.72297337939998],[-89.01695184999994,19.726386709399897],[-89.04882705999995,19.721493319400018],[-89.02516297999995,19.776709679398646],[-89.00408742999997,19.772007399398756],[-88.99946796999996,19.797994379398077],[-88.98440497999997,19.798160259398067],[-88.98443914999996,19.80520513939791],[-88.97610850999996,19.81076582939774],[-88.97445176999997,19.81810082939757],[-88.95638671999995,19.81682354939759],[-88.95807679999996,19.81046653939777],[-88.94385213999999,19.813442779397697],[-88.94543374999995,19.791946319398214],[-88.92951245999996,19.79094854939826],[-88.92029413999995,19.803973909397907],[-88.91110396999994,19.800937579398006],[-88.90820974999997,19.820661089397515],[-88.90348110999997,19.83104622939722],[-88.89972485999994,19.833346879397162],[-88.89758542999994,19.836862539397075],[-88.90048801999995,19.861114019396496],[-88.89042157999995,19.858544539396526],[-88.89056856999997,19.860968619396495],[-88.87912482999997,19.86239322939646],[-88.88019153999994,19.878124879396037],[-88.83304299999998,19.878227109396075],[-88.83213942999998,19.88160605939594],[-88.82592633999997,19.879925579396037],[-88.82041404999995,19.89047314939574],[-88.82982471999998,19.898554449395544],[-88.82736544999995,19.90448768939539],[-88.82943671999999,19.906014599395345],[-88.82728273999999,19.910920369395217],[-88.82315248999998,19.908149139395285],[-88.82442541999995,19.90476290939537],[-88.81650328999996,19.904473519395406],[-88.81614279999997,19.91549902939509],[-88.81333317999997,19.91828281939505],[-88.81258437999998,19.925555029394854],[-88.80974485999997,19.925990939394875],[-88.80888833999995,19.93412130939461],[-88.81141816999997,19.935242219394635],[-88.81017621999996,19.94494667939436],[-88.80604074999997,19.944568649394387],[-88.80563950999993,19.95383073939415],[-88.79837764999996,19.952523019394185],[-88.79802237999996,19.97493007939359],[-88.79077079999996,19.9720201793937],[-88.79047987999996,19.992133509393152],[-88.78921225999994,19.99556821939309],[-88.78441570999996,19.99523962939312],[-88.78350257999995,20.00818017939278],[-88.77118053999999,20.00767037939277],[-88.77146564999998,20.013463229392652],[-88.75769759999997,20.012191919392695],[-88.75777327999998,20.013936219392626],[-88.74247207999997,20.015087349392594],[-88.74261534999994,20.00858277939275],[-88.73624556999994,20.00966130939274],[-88.73234813999994,20.01406619939263],[-88.73581071999996,20.015987549392552],[-88.73597890999997,20.01757654939254],[-88.72278248999999,20.01319974939266],[-88.72377754999997,20.005499169392845],[-88.72214819999994,20.005124059392855],[-88.71843476999999,20.010321249392724],[-88.71304142999998,20.00916344939275],[-88.71252357999998,20.012295579392664],[-88.70017616999996,20.01035671939272],[-88.69475253999997,20.03003565939224],[-88.69179628999996,20.029213419392264],[-88.68489182999997,20.077414319391035],[-88.69080210999994,20.077029569391016],[-88.69060890999998,20.089856119390692],[-88.63986639999996,20.120356059389955],[-88.61917314999994,20.117171539390046],[-88.61862356999995,20.127769149389763],[-88.62080845999998,20.13180354938963],[-88.61638362999997,20.13446081938961],[-88.58797351999993,20.13145119938968],[-88.58767565999995,20.1404696793894],[-88.57815045999996,20.139174279389497],[-88.57668154999999,20.14807830938927],[-88.50762119999996,20.143391089389336],[-88.50234524999996,20.190077949388193],[-88.51992995199998,20.192328032388104],[-88.44342618299999,20.23814978338697],[-88.41511380399999,20.23297045338712],[-88.40912240299997,20.23972814338692],[-88.40289200399997,20.23948888338693],[-88.40912774299994,20.25209732238663],[-88.40097336999997,20.25176750938663],[-88.37637077999995,20.257024309386534],[-88.35190336999995,20.259023059386475],[-88.30878842999994,20.25351002938658],[-88.27296137999997,20.269931279386185],[-88.26681494999997,20.26912031938624],[-88.26463419999999,20.29034202938566],[-88.23266947999997,20.2901789093857],[-88.23270516899998,20.286998449385756],[-88.16716244899999,20.28541805038578],[-88.13648959999995,20.28137177938589],[-88.04730660099995,20.366308720383778],[-88.04753327999998,20.378818170383457],[-88.03403006099995,20.378940089383487],[-87.99296003099994,20.41799291938252],[-87.99506545099996,20.447316430381747],[-87.96274204999997,20.44670602938174],[-87.74425947999998,20.653787090376618],[-87.53314527999999,20.999602139368104],[-87.53491290999995,21.490222449356207],[-87.54916021999998,21.49093931235622],[-87.57595048599995,21.496098794356044],[-87.67311479399996,21.51726271035557],[-87.68625882699996,21.52179045235545],[-87.68644565999995,21.51883211035553],[-87.68438164899999,21.51752735035557],[-87.68741048599998,21.517100534355567],[-87.68679954899994,21.519979294355487],[-87.69729351799998,21.520301072355473],[-87.72783091199994,21.527623168355294],[-87.81131340499996,21.552169375354723],[-87.86018401999996,21.57112631935428],[-87.89116759899997,21.585278969353922],[-87.95328408899996,21.607662599353368],[-87.96658945899998,21.610233399353305],[-88.00659469799996,21.610456611353342]]],[[[-92.22410000099995,20.90799998037037],[-92.22180000099996,20.912099980370265],[-92.22470000099997,20.913699981370204],[-92.22860000099996,20.91059998037034],[-92.23930000099995,20.906499980370384],[-92.24530000099998,20.901799980370537],[-92.23890000099999,20.898499980370598],[-92.23440000099998,20.9025999803705],[-92.22820000099995,20.90499998037046],[-92.22740000099998,20.907699980370403],[-92.22410000099995,20.90799998037037]]],[[[-92.20110000099999,20.924099980369967],[-92.20020000099998,20.924599981369987],[-92.20120000099996,20.925199981369943],[-92.20110000099999,20.924099980369967]]],[[[-92.19960000199995,20.926199981369937],[-92.19700000099994,20.927499981369873],[-92.19730000099997,20.928799981369853],[-92.19960000199995,20.926199981369937]]],[[[-92.20500000099997,20.92319998036999],[-92.19840000099998,20.930099981369835],[-92.19880000099994,20.933399980369742],[-92.20070000099997,20.93459998136973],[-92.20610000099998,20.93079998136982],[-92.20670000099994,20.925099981369975],[-92.21210000099995,20.924199980369995],[-92.21710000099995,20.91939998037007],[-92.21710000099995,20.91759998037011],[-92.21370000099995,20.91909998137009],[-92.21610000099997,20.915899981370174],[-92.21570000099996,20.913899980370218],[-92.21300000099995,20.913499980370222],[-92.20570000099997,20.91939998037007],[-92.20270000099998,20.92249998037001],[-92.20500000099997,20.92319998036999]]],[[[-92.29800000099999,20.987499978368437],[-92.30750000099994,20.98999997736839],[-92.31310000099995,20.984599978368493],[-92.31280000099997,20.987399977368412],[-92.31410000199998,20.987499977368444],[-92.31560000199994,20.984399977368504],[-92.31960000199996,20.98409997736853],[-92.32060000099995,20.985599977368462],[-92.32490000199994,20.983899977368527],[-92.32570000099997,20.97959997736863],[-92.31360000199999,20.98199997836854],[-92.31230000099998,20.980899978368605],[-92.31290000099995,20.97959997736863],[-92.32170000199994,20.97759997736867],[-92.32420000099995,20.97419997736876],[-92.32270000099999,20.972999977368804],[-92.32000000099998,20.973899977368777],[-92.31860000099994,20.971199977368855],[-92.30710000199997,20.97639997736872],[-92.30800000099998,20.97979997736864],[-92.30660000099994,20.982399977368548],[-92.30110000199994,20.984399978368497],[-92.30150000099997,20.986999978368466],[-92.29800000099999,20.987499978368437]]],[[[-92.07920000099995,21.837799983347914],[-92.07900000099994,21.839299984347832],[-92.08050000199995,21.84029998434784],[-92.08160000099997,21.83839998334786],[-92.07920000099995,21.837799983347914]]],[[[-88.28387680899993,21.564494334354432],[-88.28523337699994,21.563947217354457],[-88.28527271299998,21.562800296354435],[-88.28375127999999,21.56309810335447],[-88.28387680899993,21.564494334354432]]],[[[-91.38750000099998,22.11159999434141],[-91.38590000099998,22.11149999434139],[-91.38599999999997,22.112299994341388],[-91.38750000099998,22.11159999434141]]],[[[-91.38089999999994,22.117299994341263],[-91.38280000099996,22.11739999434124],[-91.38390000099997,22.116099994341308],[-91.38160000099998,22.115699994341302],[-91.38089999999994,22.117299994341263]]],[[[-91.40910000099996,22.117799993341254],[-91.40789999999998,22.11909999334123],[-91.40919999999994,22.119099994341227],[-91.40910000099996,22.117799993341254]]],[[[-91.40500000099996,22.118899994341227],[-91.40560000099998,22.11779999434124],[-91.40449999999998,22.11759999334124],[-91.40500000099996,22.118899994341227]]],[[[-91.38940000099996,22.122199994341173],[-91.38810000099994,22.12279999434112],[-91.38959999999997,22.12359999434112],[-91.38940000099996,22.122199994341173]]],[[[-89.66281031699998,22.36858583633538],[-89.66263003199998,22.371536708335295],[-89.66390153699996,22.37135420533528],[-89.66403413899997,22.36897328933535],[-89.66281031699998,22.36858583633538]]],[[[-89.67400409899994,22.36795701333539],[-89.66535634599995,22.370844051335308],[-89.66569791599994,22.372751892335256],[-89.67400409899994,22.36795701333539]]],[[[-89.66858186399998,22.37989608533508],[-89.66692883499996,22.380390385335073],[-89.66799625699997,22.380620608335096],[-89.66858186399998,22.37989608533508]]],[[[-89.67463921899997,22.380716278335097],[-89.67856173699994,22.381495434335044],[-89.68015263799998,22.380314132335105],[-89.67928509999996,22.378135186335136],[-89.67460516499995,22.376886363335156],[-89.67258028299995,22.378484862335124],[-89.67463921899997,22.380716278335097]]],[[[-89.68191901299997,22.380932567335073],[-89.67912014299998,22.382156080335054],[-89.68002601799998,22.38371128433502],[-89.68191901299997,22.380932567335073]]],[[[-89.67779492299996,22.387624448334904],[-89.67823878599995,22.38982974333486],[-89.67963751599996,22.39012257633486],[-89.67916807899996,22.38749334533491],[-89.67779492299996,22.387624448334904]]],[[[-89.67455947699995,22.38826932933492],[-89.67416357899998,22.38974438033488],[-89.67556875599996,22.390387337334843],[-89.67590295699995,22.3887385833349],[-89.67455947699995,22.38826932933492]]],[[[-89.72457575599998,22.426506244334004],[-89.72622740199995,22.428474996333925],[-89.72848239899997,22.428486075333986],[-89.72928650899996,22.424548312334057],[-89.72535404699994,22.42467586433404],[-89.72457575599998,22.426506244334004]]],[[[-89.71974206899995,22.427479602333996],[-89.72002545199996,22.428623231333976],[-89.72069843699995,22.428496123333964],[-89.72091916699998,22.427790499333987],[-89.71974206899995,22.427479602333996]]],[[[-89.71634639299998,22.43182793233385],[-89.71989697899994,22.43133582333387],[-89.72023173399998,22.4305187603339],[-89.71615525599998,22.43043450533391],[-89.71634639299998,22.43182793233385]]],[[[-89.72854626999998,22.43302488633385],[-89.72747885799998,22.433576214333865],[-89.72850387599999,22.433484375333823],[-89.72854626999998,22.43302488633385]]],[[[-89.73042940999994,22.433887967333877],[-89.73475566199994,22.437029312333745],[-89.73824647499998,22.434607417333805],[-89.73688135099997,22.433100402333828],[-89.73325821099996,22.43358309933388],[-89.73437917199999,22.431550968333898],[-89.73166370999996,22.431189872333903],[-89.73354220999994,22.42994136733395],[-89.73031635599995,22.42949134533396],[-89.73380556899997,22.427648022334],[-89.73170279699997,22.424693552334052],[-89.72864889399995,22.428789449333966],[-89.72701610099995,22.42894853333393],[-89.73031918999999,22.431709483333893],[-89.73042940999994,22.433887967333877]]],[[[-89.73553390699999,22.43763018533373],[-89.73660042899996,22.440125940333722],[-89.73863419299994,22.437756677333727],[-89.73902772799994,22.439113950333684],[-89.74136675599999,22.439059198333716],[-89.74089223099998,22.43576687333376],[-89.74381222999995,22.435035139333785],[-89.73959029399998,22.433011323333876],[-89.73902400499998,22.436341275333795],[-89.73553390699999,22.43763018533373]]],[[[-89.73152877199999,22.43856550633376],[-89.73152161899998,22.44083588733365],[-89.73345422699998,22.44029562933367],[-89.73303102399996,22.439148121333716],[-89.73152877199999,22.43856550633376]]],[[[-89.72543351899998,22.44268899033365],[-89.72939781399998,22.443149750333646],[-89.72937040399995,22.44007382033369],[-89.72696077599994,22.439628552333673],[-89.72543351899998,22.44268899033365]]],[[[-89.72359571699997,22.443381362333618],[-89.72316830099999,22.44531447433355],[-89.72556213599995,22.445678980333582],[-89.72589062499998,22.444142987333617],[-89.72359571699997,22.443381362333618]]],[[[-89.74476655199999,22.47206205033291],[-89.74011309699995,22.472595561332927],[-89.74233697399995,22.475906665332868],[-89.74399939299997,22.475882322332858],[-89.74476655199999,22.47206205033291]]],[[[-89.74875289299996,22.46163343633319],[-89.74792581699995,22.475409677332877],[-89.75554628799995,22.484164103332674],[-89.75746908599996,22.4786083383328],[-89.76081145199998,22.475808597332875],[-89.75925366799999,22.470188225333],[-89.75652245999999,22.469113441332993],[-89.75456408199994,22.46418437333315],[-89.75247389599997,22.46322253233318],[-89.75223936799995,22.458165390333235],[-89.74559831899995,22.45411923633335],[-89.74448467799994,22.446551052333557],[-89.74483321999998,22.444457336333606],[-89.74741969599995,22.442833225333633],[-89.73866658999998,22.44021823933367],[-89.73768097499999,22.443876404333572],[-89.73871477999995,22.4489362133335],[-89.74281593099994,22.454245620333346],[-89.74336872599997,22.457393502333282],[-89.74487933399996,22.457226787333312],[-89.74875289299996,22.46163343633319]]],[[[-89.74811145999996,22.484321888332662],[-89.74853475499998,22.486766348332594],[-89.75162141999994,22.48634898133259],[-89.75114846199995,22.484443006332636],[-89.74811145999996,22.484321888332662]]],[[[-89.75425618799994,22.49083768533253],[-89.74953772999999,22.491366359332467],[-89.74977165599995,22.494458712332406],[-89.75409462299996,22.493295873332464],[-89.75425618799994,22.49083768533253]]],[[[-89.73202798899996,22.49977469733231],[-89.73292273799996,22.502449654332263],[-89.73595280599994,22.501382885332262],[-89.73555142099997,22.495330228332392],[-89.73170513799994,22.495047622332418],[-89.73119241099994,22.490836362332487],[-89.72852283999998,22.490527174332527],[-89.72833426499994,22.493694408332452],[-89.72580292099997,22.493978845332435],[-89.72631922799997,22.497238437332374],[-89.72430472799994,22.497981892332323],[-89.72461470099995,22.500104014332273],[-89.72749791399997,22.499646770332326],[-89.72658965699998,22.497259995332325],[-89.72867619699997,22.494836375332387],[-89.72900522299994,22.499352729332315],[-89.73202798899996,22.49977469733231]]],[[[-89.75785906099998,22.50553245033219],[-89.75780176999996,22.508955659332063],[-89.76117742399998,22.5086454133321],[-89.76092789599994,22.506017483332144],[-89.75785906099998,22.50553245033219]]],[[[-89.77098826199995,22.500791008332303],[-89.76910568299996,22.50534847233214],[-89.77405173199998,22.51209085433202],[-89.77801565599998,22.510971054332014],[-89.78448996499998,22.505457952332186],[-89.77789107199999,22.500303353332274],[-89.77827562799996,22.498829577332305],[-89.77115481899995,22.497464346332357],[-89.77017193699999,22.495457681332404],[-89.76650382199995,22.494384670332398],[-89.76116744199999,22.48829340333256],[-89.75861032699999,22.47996232533279],[-89.75529453599995,22.485675829332624],[-89.75698179799997,22.491017262332512],[-89.76338716899994,22.4991625503323],[-89.77098826199995,22.500791008332303]]],[[[-89.73569007199995,22.5083552733321],[-89.73634135399999,22.51184254033205],[-89.73912780799998,22.510678223332054],[-89.73847867199999,22.507588928332133],[-89.73569007199995,22.5083552733321]]],[[[-89.71580703199999,22.506708067332102],[-89.71526605799994,22.50933518933207],[-89.71715858099998,22.511318395332015],[-89.72022606799999,22.51069515233202],[-89.72015902799996,22.506994931332137],[-89.71580703199999,22.506708067332102]]],[[[-89.72976660199998,22.514155798331952],[-89.73130013999997,22.518906750331833],[-89.73567484499995,22.517615872331902],[-89.73454149999998,22.51415047433198],[-89.73117088299995,22.51243547333199],[-89.72976660199998,22.514155798331952]]],[[[-89.75328858499995,22.51866729333188],[-89.75009897099994,22.52005293433179],[-89.75384109999999,22.522809562331783],[-89.75328858499995,22.51866729333188]]],[[[-89.74318528099997,22.518018162331845],[-89.74075293999994,22.52047642533184],[-89.74350567999994,22.522985799331778],[-89.74522230799994,22.52125404633181],[-89.74440153799998,22.518898472331845],[-89.74891815799998,22.513532240331998],[-89.74890319999997,22.51087918633204],[-89.75102625799997,22.50966188233205],[-89.75050890299997,22.50612509433217],[-89.74736289799995,22.506477485332137],[-89.74519214199995,22.509619571332085],[-89.74553286499997,22.515070966331926],[-89.74176284399994,22.513746313331982],[-89.74099385299996,22.516457514331936],[-89.74318528099997,22.518018162331845]]],[[[-89.74908642499997,22.524131802331727],[-89.75087026699998,22.528709551331637],[-89.75198533399998,22.528436617331643],[-89.75134342799998,22.524136267331745],[-89.74908642499997,22.524131802331727]]],[[[-89.73855905499994,22.529209689331637],[-89.73832354199999,22.53105931533155],[-89.73935770799994,22.531804621331545],[-89.74049486699994,22.53002677133159],[-89.73855905499994,22.529209689331637]]],[[[-89.74066166799997,22.52821838433164],[-89.74258007699996,22.53228086033155],[-89.74339542499996,22.53065391633158],[-89.73960439999996,22.524449959331694],[-89.74027228299997,22.52248408233177],[-89.73700810199995,22.52165161933179],[-89.73706422699996,22.52491067933172],[-89.73902295799996,22.525126909331703],[-89.73836332199994,22.527003036331653],[-89.74066166799997,22.52821838433164]]],[[[-89.73890951499999,22.536030046331458],[-89.74144263099998,22.53846168633139],[-89.74301973199994,22.538948824331378],[-89.74247669499994,22.534988048331467],[-89.73890951499999,22.536030046331458]]],[[[-89.73777882499996,22.53831210633138],[-89.73886139399997,22.540335390331343],[-89.74111230199998,22.54100033433133],[-89.74028852499998,22.538114116331425],[-89.73740341099995,22.53647410633145],[-89.73570635399994,22.538834170331413],[-89.73777882499996,22.53831210633138]]],[[[-89.76007271999998,22.561023819330885],[-89.76331140099995,22.5629411443308],[-89.76324544899995,22.561156240330874],[-89.76007271999998,22.561023819330885]]],[[[-89.76417859299994,22.562754565330803],[-89.77495282199999,22.5638132943308],[-89.77805969699995,22.562623724330834],[-89.77627524299999,22.56070639733087],[-89.76417859299994,22.562754565330803]]],[[[-89.77948862799997,22.559914812330884],[-89.77823258699999,22.56123680633087],[-89.78028080799999,22.566657861330754],[-89.78074408099997,22.562625372330846],[-89.77948862799997,22.559914812330884]]],[[[-89.77570508899998,22.564916071330813],[-89.77557262999994,22.566899275330766],[-89.77662990099998,22.56875040333073],[-89.77742329499995,22.566965602330715],[-89.77570508899998,22.564916071330813]]],[[[-89.77381170699994,22.566844493330755],[-89.77381100099996,22.572199183330625],[-89.77486843599996,22.57266205633061],[-89.77526525999997,22.570744992330667],[-89.77381170699994,22.566844493330755]]],[[[-89.76423761699994,22.576928735330533],[-89.76191665199997,22.580143603330434],[-89.76256517499996,22.58113532733043],[-89.76425721899994,22.580944261330423],[-89.76419159299996,22.578697011330497],[-89.76571804699995,22.579035208330446],[-89.76423761699994,22.576928735330533]]],[[[-89.75640555299998,22.582056263330408],[-89.76049316199999,22.581223866330422],[-89.75964740899997,22.575303099330533],[-89.75846435999995,22.57534908133055],[-89.75640555299998,22.582056263330408]]],[[[-89.75516304399997,22.56585113533076],[-89.75371283399994,22.57386010933057],[-89.75096663999994,22.578741543330434],[-89.75294895799999,22.582479389330384],[-89.75752662699995,22.570122994330692],[-89.75516304399997,22.56585113533076]]],[[[-89.65382708099997,22.536793702331448],[-89.67066165899996,22.55746580533094],[-89.69758854799994,22.571522484330636],[-89.73300682699994,22.580132866330416],[-89.74573086099997,22.58572602733031],[-89.75103726499998,22.58535766733029],[-89.75107909799999,22.584059153330337],[-89.74485598199999,22.580623064330418],[-89.74386633999995,22.57752311733048],[-89.74872198999998,22.567675140330724],[-89.76163899999995,22.559744117330883],[-89.76470671799996,22.55940922433088],[-89.76412847899996,22.56146067833086],[-89.76688499899996,22.561968901330854],[-89.77452427899999,22.560188707330898],[-89.77733093299997,22.5584587093309],[-89.77794857799995,22.55597641433097],[-89.78288373899994,22.55311339333105],[-89.78217397299994,22.55067044933111],[-89.78407825399995,22.546048198331217],[-89.78623784199999,22.545423914331263],[-89.78850100499994,22.538588098331378],[-89.79154178699997,22.538539871331412],[-89.79412389699996,22.53473871133147],[-89.79564241999998,22.528690708331613],[-89.79299717599997,22.52400521533171],[-89.79549069699999,22.515082206331922],[-89.79244967899996,22.5082574743321],[-89.78913296899998,22.506656545332135],[-89.79378826299995,22.507242604332124],[-89.78968936799998,22.503988601332193],[-89.78112336799995,22.50988168333207],[-89.77073717499997,22.51359811533195],[-89.76978861999999,22.520523623331844],[-89.76137470199996,22.51967709333181],[-89.75993782199998,22.522600467331777],[-89.75657418599997,22.524466623331744],[-89.75748749199994,22.537234092331428],[-89.75643226299997,22.53939224133141],[-89.75522206399995,22.539006737331405],[-89.75404199199994,22.532252153331527],[-89.75160410199999,22.53167256033155],[-89.75079753499995,22.533103101331523],[-89.74942211899997,22.528316763331656],[-89.74422542399998,22.52332277633173],[-89.74350105199994,22.524839035331727],[-89.74704492699999,22.531020601331594],[-89.74458090199994,22.535790792331454],[-89.74463272299994,22.540857604331343],[-89.74868890899995,22.54359110333126],[-89.75142135099998,22.543229833331278],[-89.75329304799999,22.547139507331188],[-89.74889869999998,22.54502410933124],[-89.74853020599994,22.547001816331175],[-89.74635891299994,22.5430139693313],[-89.74391763799997,22.54861171833118],[-89.73998503599995,22.544537877331244],[-89.73963017499995,22.542195249331343],[-89.73205947299994,22.53737843533141],[-89.73854194099994,22.534498869331493],[-89.73277566399997,22.52610463933167],[-89.73036705299995,22.52549086433171],[-89.72763741999995,22.521608913331814],[-89.72519855099995,22.52315032733174],[-89.72359789599994,22.521515967331812],[-89.71947192399995,22.526852451331695],[-89.72158228699999,22.52858776433163],[-89.72497562999996,22.526266632331666],[-89.72609422499994,22.532840911331526],[-89.72277594399998,22.533926487331527],[-89.72219027999995,22.531697994331562],[-89.71591029999996,22.53141418533158],[-89.71363199199999,22.522339011331763],[-89.71761955799997,22.516928959331892],[-89.71496689699995,22.51463439533198],[-89.71300225899995,22.507592294332113],[-89.71390247499994,22.500547347332283],[-89.71188425399998,22.49812975033236],[-89.70810532399997,22.49878096233233],[-89.70526058899998,22.49503400033243],[-89.70908538899994,22.497581457332362],[-89.71155936899999,22.49541333233239],[-89.71316248599999,22.497156530332333],[-89.71652519199995,22.493615738332455],[-89.71907696599999,22.494638981332393],[-89.72022451599997,22.49176520433247],[-89.72290072199996,22.49200273933246],[-89.72366637199997,22.488780063332527],[-89.73255367299998,22.48608923433263],[-89.73238575099998,22.47906291633281],[-89.73559665999994,22.47575078233283],[-89.73436063899999,22.47396475333291],[-89.73016394399997,22.475028578332847],[-89.72864715699995,22.484858253332668],[-89.72349819299995,22.48162108133273],[-89.72513759099996,22.476508303332835],[-89.72893614799995,22.476246104332827],[-89.72712019999994,22.470345560332973],[-89.73078681199996,22.470667975333004],[-89.73163387799997,22.468867124333],[-89.72589449999998,22.46448723333311],[-89.72244425799994,22.466121435333072],[-89.72203405499994,22.47123819633295],[-89.71821464999994,22.472148565332937],[-89.71875204399998,22.467678403333018],[-89.71629416099995,22.468003023333026],[-89.71625389899998,22.465743292333094],[-89.71433476199996,22.464953677333085],[-89.71863933199995,22.46196148633318],[-89.71947954199999,22.46364858233316],[-89.71751824699999,22.465491863333106],[-89.71988054499997,22.46694601033308],[-89.72556676099998,22.45926308633326],[-89.72947304199994,22.46014709533325],[-89.72957981499997,22.45828724533327],[-89.72218388499994,22.457275594333293],[-89.72080716399995,22.458491713333263],[-89.72328154199994,22.460135563333214],[-89.72243177099995,22.46091156533321],[-89.71976787399996,22.459915552333218],[-89.71824637499998,22.457082004333323],[-89.71932232899997,22.454184485333347],[-89.72078182299998,22.454108062333344],[-89.72100223399997,22.456440013333324],[-89.72271633599996,22.455853505333298],[-89.72313594399998,22.4529940193334],[-89.71682156699995,22.45171878233341],[-89.71488198899999,22.454746248333333],[-89.71260901199997,22.45408265133338],[-89.71467086899997,22.450293513333477],[-89.71861100199999,22.44863110433351],[-89.71944174999999,22.45040102233344],[-89.72140507399996,22.450485335333443],[-89.72150107799996,22.444576502333597],[-89.71891930399994,22.443888352333584],[-89.72277628099994,22.438708893333736],[-89.72688062199995,22.43849382733372],[-89.72911676699994,22.436743512333784],[-89.72745826499994,22.4350442593338],[-89.72346809099997,22.43472601233382],[-89.71938430699998,22.43602554733377],[-89.71984886899997,22.433690399333834],[-89.71853738599998,22.433065013333884],[-89.70880727099996,22.433966121333853],[-89.70551929199996,22.431157670333896],[-89.70160196699999,22.432464732333898],[-89.69649567299996,22.42747119633398],[-89.69932222399996,22.426676576333968],[-89.69825650599995,22.42418057033403],[-89.69186496699996,22.425296794334052],[-89.69087827199996,22.42334948133408],[-89.69507281099999,22.421454937334133],[-89.69363219399997,22.418808371334197],[-89.68961620099998,22.418305957334226],[-89.68967105999997,22.416032117334233],[-89.69391839099995,22.41510617433428],[-89.69709611299999,22.41685376733425],[-89.71018439299996,22.417961141334178],[-89.71369232899997,22.421775554334133],[-89.72334404299994,22.424860210334067],[-89.72572485199998,22.42299212633408],[-89.72749169699995,22.424217893334042],[-89.72912447099998,22.423383789334085],[-89.72843879399994,22.421669633334133],[-89.72986177499996,22.420973085334158],[-89.71267938599999,22.415693441334287],[-89.70989925299995,22.412457924334355],[-89.70215212699998,22.408445060334447],[-89.69655774899996,22.399969834334616],[-89.69631855499995,22.395828230334715],[-89.69260856699998,22.39473592733474],[-89.68754818499997,22.388906703334914],[-89.69080608599995,22.383332109335],[-89.69370815499997,22.382950758335017],[-89.69291459899995,22.381440795335056],[-89.68482569699995,22.3791040423351],[-89.68303436699995,22.379973168335088],[-89.67978993299994,22.38664203033495],[-89.68308387799999,22.389126151334906],[-89.68276603499999,22.39325937033479],[-89.68696818499996,22.3958257443347],[-89.68715869599998,22.39761896933467],[-89.68098269499995,22.396069846334708],[-89.67942983899997,22.3970906433347],[-89.67936364099995,22.395006002334743],[-89.67552876299999,22.391625038334837],[-89.67207080799994,22.392221915334794],[-89.67139579499997,22.3886442573349],[-89.67126706699997,22.392047687334802],[-89.66354874299998,22.389067673334882],[-89.66328572999998,22.384676370334994],[-89.65986852499998,22.386861365334937],[-89.66094114199996,22.390949413334823],[-89.65868727899993,22.390093587334885],[-89.65966545499998,22.38598376533495],[-89.65814995099998,22.384994283335],[-89.66111017299994,22.38074096833508],[-89.65956346899998,22.378011820335118],[-89.66211788499999,22.378485775335122],[-89.66245112399997,22.383418571334996],[-89.66376689099997,22.38404603733502],[-89.66560465799995,22.374016441335208],[-89.66291321099999,22.372571078335287],[-89.66104331499997,22.373168457335268],[-89.66084622699998,22.375852793335167],[-89.65646675499994,22.37568110233517],[-89.65827684099997,22.380637128335064],[-89.65569754299997,22.379658702335128],[-89.65306910299995,22.380869018335062],[-89.65434124699999,22.383502518335003],[-89.65228199999996,22.38557934633494],[-89.65563931499997,22.387114482334955],[-89.65417176499994,22.388262419334897],[-89.65169026699994,22.38650825033496],[-89.65266812099998,22.39063698733484],[-89.64865789199996,22.389013209334863],[-89.64826413099996,22.38739042133493],[-89.64713863699995,22.38820412833488],[-89.64661167299994,22.382990497335],[-89.65166456199995,22.378405693335125],[-89.65115638999998,22.376339777335176],[-89.65513961599999,22.376825835335147],[-89.65560614399999,22.374703151335204],[-89.66127602999995,22.37121112833532],[-89.66223034599994,22.36846699333538],[-89.66021000699999,22.365446693335453],[-89.65614204999997,22.367386486335366],[-89.65538587999998,22.370508122335295],[-89.65285473399996,22.369292411335344],[-89.65296942899994,22.36693898333541],[-89.64684233499997,22.368626294335375],[-89.63782300699995,22.37614688233518],[-89.63078789999997,22.38510888633498],[-89.61157465799994,22.426848721333997],[-89.60885629099994,22.437238031333745],[-89.60855408199996,22.453667612333373],[-89.60997791899996,22.47179213633292],[-89.61913665399999,22.49545728233241],[-89.63685219199994,22.519230338331848],[-89.65382708099997,22.536793702331448]]]]}}]}
